X,Y,OBJECTID,latitude,longitude,global_id,ward_code,ward_name,lga_code,lga_name,state_code,state_name,poi_file_name,uniqueID
3.33507525800007,6.44436758300003,2641,6.44436758335302,3.33507525791765,51fdfea1-668e-4726-b485-3be233c08e9b,LASATO04,Alakoto/Ibafon,25002,Ajeromi/Ifelodun,LA,Lagos,Commerce_Factories_Industrial_Sites,Commerce_Factories_Industrial_Sites_LA_25002_LASATO04_2641
3.33291043800006,6.46385107100002,2642,6.46385107115738,3.33291043767594,8b6de029-fa53-4dd7-8cbd-cd5e869f9d49,LASATO06,Apasa Amukoko,25002,Ajeromi/Ifelodun,LA,Lagos,Commerce_Factories_Industrial_Sites,Commerce_Factories_Industrial_Sites_LA_25002_LASATO06_2642
3.32938852800004,6.45272781300002,2643,6.45272781326835,3.32938852788128,35619d68-1bdb-4e39-ac02-bb1f4c61ec37,LASATO07,Awodi-Ora,25002,Ajeromi/Ifelodun,LA,Lagos,Commerce_Factories_Industrial_Sites,Commerce_Factories_Industrial_Sites_LA_25002_LASATO07_2643
3.33879666700005,6.46131500000007,2644,6.461315,3.338796667,103ce055-af24-4871-8bc8-a852a492ed24,LASATO10,Layeni-Okoya,25002,Ajeromi/Ifelodun,LA,Lagos,Commerce_Factories_Industrial_Sites,Commerce_Factories_Industrial_Sites_LA_25002_LASATO10_2644
3.35057037500007,6.46991018800003,2645,6.46991018785498,3.35057037463957,bda75de4-eaf1-48fe-ba87-55d2eb416a33,LASATO12,Oke Oja,25002,Ajeromi/Ifelodun,LA,Lagos,Commerce_Factories_Industrial_Sites,Commerce_Factories_Industrial_Sites_LA_25002_LASATO12_2645
3.31964304000007,6.45436913100002,2646,6.45436913118755,3.31964304029198,ac5ffaea-78fc-41b1-a10d-4a1a07c1b787,LASATO13,Oluwa/Akere,25002,Ajeromi/Ifelodun,LA,Lagos,Commerce_Factories_Industrial_Sites,Commerce_Factories_Industrial_Sites_LA_25002_LASATO13_2646
3.32313563300005,6.46258540000002,2647,6.46258539984312,3.32313563336364,6ffaf8da-39ad-4ea6-80ef-81629b6a1edc,LASATO14,Owoyemi,25002,Ajeromi/Ifelodun,LA,Lagos,Commerce_Factories_Industrial_Sites,Commerce_Factories_Industrial_Sites_LA_25002_LASATO14_2647
3.26255780000002,6.54669230000007,2648,6.5466923,3.2625578,cee9b6ae-c032-4ac1-9bc9-4621ed2b5c97,LASAMO01,Abaranje/Okerube,25003,Alimosho,LA,Lagos,Commerce_Factories_Industrial_Sites,Commerce_Factories_Industrial_Sites_LA_25003_LASAMO01_2648
3.24560763700003,6.53374648800008,2649,6.53374648811405,3.24560763740642,807b670d-f0f3-4e00-b7a2-246364627d4c,LASAMO01,Abaranje/Okerube,25003,Alimosho,LA,Lagos,Commerce_Factories_Industrial_Sites,Commerce_Factories_Industrial_Sites_LA_25003_LASAMO01_2649
3.23472666700007,6.52160500000002,2650,6.521605,3.234726667,fe3bf5e5-66a2-468d-95a7-9786f13485f2,LASAMO01,Abaranje/Okerube,25003,Alimosho,LA,Lagos,Commerce_Factories_Industrial_Sites,Commerce_Factories_Industrial_Sites_LA_25003_LASAMO01_2650
3.24790457900002,6.52079738500004,2651,6.52079738485341,3.24790457870999,01ffa7b8-ec72-49e1-a812-7e7f79ee437b,LASAMO01,Abaranje/Okerube,25003,Alimosho,LA,Lagos,Commerce_Factories_Industrial_Sites,Commerce_Factories_Industrial_Sites_LA_25003_LASAMO01_2651
3.29057024600007,6.65767907200006,2652,6.65767907209172,3.29057024560107,97f037a3-22cc-4bd6-9e55-01c705a13830,LASAMO05,Abule Egba,25003,Alimosho,LA,Lagos,Commerce_Factories_Industrial_Sites,Commerce_Factories_Industrial_Sites_LA_25003_LASAMO05_2652
3.28985890300004,6.65592073900007,2653,6.65592073947827,3.28985890252085,574f7d17-34a0-41be-8604-d74a4f8b8197,LASAMO05,Abule Egba,25003,Alimosho,LA,Lagos,Commerce_Factories_Industrial_Sites,Commerce_Factories_Industrial_Sites_LA_25003_LASAMO05_2653
3.27082688300004,6.64177100600006,2654,6.64177100641199,3.27082688264366,da72ddef-082c-4b40-8518-fdbce4917e39,LASAMO06,Agbelekale,25003,Alimosho,LA,Lagos,Commerce_Factories_Industrial_Sites,Commerce_Factories_Industrial_Sites_LA_25003_LASAMO06_2654
3.25795014500005,6.62390602200003,2655,6.62390602150526,3.25795014496791,07a649b3-bd4e-4621-a2f1-90fceff5ec1e,LASAMO06,Agbelekale,25003,Alimosho,LA,Lagos,Commerce_Factories_Industrial_Sites,Commerce_Factories_Industrial_Sites_LA_25003_LASAMO06_2655
3.25690750000007,6.63372380000004,2656,6.6337238,3.2569075,7e676183-ef2e-48c1-80bb-bf47508dc65e,LASAMO06,Agbelekale,25003,Alimosho,LA,Lagos,Commerce_Factories_Industrial_Sites,Commerce_Factories_Industrial_Sites_LA_25003_LASAMO06_2656
3.25911734500005,6.63782538800007,2657,6.63782538759192,3.2591173446984,3505886c-728e-4744-aff5-17b11a7c0a7c,LASAMO06,Agbelekale,25003,Alimosho,LA,Lagos,Commerce_Factories_Industrial_Sites,Commerce_Factories_Industrial_Sites_LA_25003_LASAMO06_2657
3.26203155700006,6.63224244500003,2658,6.63224244492698,3.2620315570139,f2dc221d-02db-4341-8704-93947c4f889a,LASAMO06,Agbelekale,25003,Alimosho,LA,Lagos,Commerce_Factories_Industrial_Sites,Commerce_Factories_Industrial_Sites_LA_25003_LASAMO06_2658
3.24573844600008,6.62007080900003,2659,6.62007080879165,3.24573844594973,76c9f9ab-d133-4faf-8563-2890fac1b907,LASAMO07,Ajasa/Amikanle,25003,Alimosho,LA,Lagos,Commerce_Factories_Industrial_Sites,Commerce_Factories_Industrial_Sites_LA_25003_LASAMO07_2659
3.24475208700005,6.64127698000004,2660,6.64127697972503,3.24475208678075,e69e6154-df8a-44fb-8a34-c23e34a5b692,LASAMO07,Ajasa/Amikanle,25003,Alimosho,LA,Lagos,Commerce_Factories_Industrial_Sites,Commerce_Factories_Industrial_Sites_LA_25003_LASAMO07_2660
3.25380210500003,6.62810338000003,2661,6.62810337968677,3.25380210467594,078654a6-0870-4f76-bcbe-08463272a0f1,LASAMO07,Ajasa/Amikanle,25003,Alimosho,LA,Lagos,Commerce_Factories_Industrial_Sites,Commerce_Factories_Industrial_Sites_LA_25003_LASAMO07_2661
3.24709344600006,6.64147538200007,2662,6.64147538158913,3.24709344594973,fd040399-1cf6-495d-87a4-e921d50e393a,LASAMO07,Ajasa/Amikanle,25003,Alimosho,LA,Lagos,Commerce_Factories_Industrial_Sites,Commerce_Factories_Industrial_Sites_LA_25003_LASAMO07_2662
3.24534629100003,6.64716688400006,2663,6.64716688373824,3.24534629092392,7c1ce6a4-ae6a-47f8-83ce-76b5125f92c1,LASAMO07,Ajasa/Amikanle,25003,Alimosho,LA,Lagos,Commerce_Factories_Industrial_Sites,Commerce_Factories_Industrial_Sites_LA_25003_LASAMO07_2663
3.21741603400005,6.53068074400005,2664,6.53068074368534,3.21741603444278,dc0be14f-955c-42cc-a1ab-96ce12d50ac3,LASAMO08,Akesan-Obadore,25003,Alimosho,LA,Lagos,Commerce_Factories_Industrial_Sites,Commerce_Factories_Industrial_Sites_LA_25003_LASAMO08_2664
3.22021125500004,6.53473018100004,2665,6.53473018127318,3.22021125539679,2f2cba1c-98c6-40cc-ba04-fd4682deb1ab,LASAMO08,Akesan-Obadore,25003,Alimosho,LA,Lagos,Commerce_Factories_Industrial_Sites,Commerce_Factories_Industrial_Sites_LA_25003_LASAMO08_2665
3.22604650000005,6.54201840000007,2666,6.5420184,3.2260465,a72e5559-7a35-4694-b41b-2eb335d3b2a9,LASAMO08,Akesan-Obadore,25003,Alimosho,LA,Lagos,Commerce_Factories_Industrial_Sites,Commerce_Factories_Industrial_Sites_LA_25003_LASAMO08_2666
3.22353938200007,6.53403829800004,2667,6.53403829760533,3.22353938156578,bd401141-241f-4c99-b0e7-55117a6e34a2,LASAMO08,Akesan-Obadore,25003,Alimosho,LA,Lagos,Commerce_Factories_Industrial_Sites,Commerce_Factories_Industrial_Sites_LA_25003_LASAMO08_2667
3.22094315600003,6.53365215700006,2668,6.53365215671934,3.22094315620535,cbaafda3-734d-4f99-97b0-89dc63aaea4d,LASAMO08,Akesan-Obadore,25003,Alimosho,LA,Lagos,Commerce_Factories_Industrial_Sites,Commerce_Factories_Industrial_Sites_LA_25003_LASAMO08_2668
3.21893520000003,6.53253370000004,2669,6.5325337,3.2189352,b5f89832-f07f-47f4-b423-c8dbbc2856b4,LASAMO08,Akesan-Obadore,25003,Alimosho,LA,Lagos,Commerce_Factories_Industrial_Sites,Commerce_Factories_Industrial_Sites_LA_25003_LASAMO08_2669
3.21826430000004,6.53820530000007,2670,6.5382053,3.2182643,9ac67b07-02c4-4fd0-b469-f816e7ef5501,LASAMO08,Akesan-Obadore,25003,Alimosho,LA,Lagos,Commerce_Factories_Industrial_Sites,Commerce_Factories_Industrial_Sites_LA_25003_LASAMO08_2670
3.24319300000008,6.65605720000002,2671,6.6560572,3.243193,c29a7b6a-cfa9-4566-b2be-59badc316f25,LASAMO11,Alagbado/Alakuko,25003,Alimosho,LA,Lagos,Commerce_Factories_Industrial_Sites,Commerce_Factories_Industrial_Sites_LA_25003_LASAMO11_2671
3.26521409200006,6.66536589700007,2672,6.66536589671062,3.26521409226524,61ff1e8b-f9c2-47ca-8b27-b1691cbfbd62,LASAMO11,Alagbado/Alakuko,25003,Alimosho,LA,Lagos,Commerce_Factories_Industrial_Sites,Commerce_Factories_Industrial_Sites_LA_25003_LASAMO11_2672
3.26600762500004,6.66518028900003,2673,6.66518028919215,3.26600762536043,ff9b953e-1e62-4935-98ad-2afecd776c8d,LASAMO11,Alagbado/Alakuko,25003,Alimosho,LA,Lagos,Commerce_Factories_Industrial_Sites,Commerce_Factories_Industrial_Sites_LA_25003_LASAMO11_2673
3.26558427300006,6.66461201600004,2674,6.66461201648615,3.26558427275294,714a20eb-b7c4-4677-a0b6-0a4604dd5a38,LASAMO11,Alagbado/Alakuko,25003,Alimosho,LA,Lagos,Commerce_Factories_Industrial_Sites,Commerce_Factories_Industrial_Sites_LA_25003_LASAMO11_2674
3.26114357700004,6.65313924200007,2675,6.65313924170448,3.26114357679465,0de44010-4ad1-456a-8e52-076347f72fa4,LASAMO11,Alagbado/Alakuko,25003,Alimosho,LA,Lagos,Commerce_Factories_Industrial_Sites,Commerce_Factories_Industrial_Sites_LA_25003_LASAMO11_2675
3.26262241200004,6.66560125600006,2676,6.66560125551099,3.2626224124107,c208fda0-9f48-44f0-85a1-c5e8e5a5bd30,LASAMO11,Alagbado/Alakuko,25003,Alimosho,LA,Lagos,Commerce_Factories_Industrial_Sites,Commerce_Factories_Industrial_Sites_LA_25003_LASAMO11_2676
3.27236409300002,6.67068337800004,2677,6.67068337802766,3.27236409262995,e6c84baa-33fc-41fb-88ba-ad098ce11418,LASAMO11,Alagbado/Alakuko,25003,Alimosho,LA,Lagos,Commerce_Factories_Industrial_Sites,Commerce_Factories_Industrial_Sites_LA_25003_LASAMO11_2677
3.25555865400003,6.59340306700005,2678,6.5934030674461,3.25555865395401,5a1a51bd-dd55-4bd3-a9e9-8a9a38cdf769,LASAMO13,Atan Lagos,25003,Alimosho,LA,Lagos,Commerce_Factories_Industrial_Sites,Commerce_Factories_Industrial_Sites_LA_25003_LASAMO13_2678
3.25593827000006,6.59237881400003,2679,6.59237881398531,3.25593826996364,b2c1e4dd-c9bf-449b-b7fa-e34fe0ea00eb,LASAMO13,Atan Lagos,25003,Alimosho,LA,Lagos,Commerce_Factories_Industrial_Sites,Commerce_Factories_Industrial_Sites_LA_25003_LASAMO13_2679
3.25335257400008,6.59348903600005,2680,6.5934890363817,3.25335257437005,97b78a3b-6d27-4ddf-9ba0-e0c2012d512b,LASAMO13,Atan Lagos,25003,Alimosho,LA,Lagos,Commerce_Factories_Industrial_Sites,Commerce_Factories_Industrial_Sites_LA_25003_LASAMO13_2680
3.25489819400002,6.59393809300008,2681,6.59393809285803,3.25489819373217,6910c0f4-d559-49bc-90a0-be33b2cc71e0,LASAMO13,Atan Lagos,25003,Alimosho,LA,Lagos,Commerce_Factories_Industrial_Sites,Commerce_Factories_Industrial_Sites_LA_25003_LASAMO13_2681
3.25714500000004,6.59893000000005,2682,6.59893,3.257145,b5e7e4d7-936e-435c-b005-0e56f31dabf0,LASAMO13,Atan Lagos,25003,Alimosho,LA,Lagos,Commerce_Factories_Industrial_Sites,Commerce_Factories_Industrial_Sites_LA_25003_LASAMO13_2682
3.24406851400005,6.60117957300002,2683,6.60117957276143,3.24406851375829,a0ea5e60-a038-4365-8147-8c12a788404d,LASAMO14,Ayobo,25003,Alimosho,LA,Lagos,Commerce_Factories_Industrial_Sites,Commerce_Factories_Industrial_Sites_LA_25003_LASAMO14_2683
3.24040870800008,6.60919774200005,2684,6.60919774181498,3.24040870763957,bfb1df87-1b1e-404b-b625-1a0067541705,LASAMO14,Ayobo,25003,Alimosho,LA,Lagos,Commerce_Factories_Industrial_Sites,Commerce_Factories_Industrial_Sites_LA_25003_LASAMO14_2684
3.22565782300006,6.59240386100004,2685,6.59240386124821,3.22565782257112,6701e70f-c6bd-4fd0-b867-f0b1aacfb38d,LASAMO15,Bada-Megida,25003,Alimosho,LA,Lagos,Commerce_Factories_Industrial_Sites,Commerce_Factories_Industrial_Sites_LA_25003_LASAMO15_2685
3.23077500000005,6.58067000000005,2686,6.58067,3.230775,9e9ca2c4-ff0d-4946-80e7-16b49e51a86c,LASAMO15,Bada-Megida,25003,Alimosho,LA,Lagos,Commerce_Factories_Industrial_Sites,Commerce_Factories_Industrial_Sites_LA_25003_LASAMO15_2686
3.23044545200003,6.58183079800006,2687,6.58183079791781,3.23044545179893,5aa615c0-6fb9-4517-8be4-14176f775443,LASAMO15,Bada-Megida,25003,Alimosho,LA,Lagos,Commerce_Factories_Industrial_Sites,Commerce_Factories_Industrial_Sites_LA_25003_LASAMO15_2687
3.22375447200005,6.58271762500004,2688,6.58271762533089,3.22375447244216,9001b397-13c1-4c43-af7f-aa4dadf6230a,LASAMO15,Bada-Megida,25003,Alimosho,LA,Lagos,Commerce_Factories_Industrial_Sites,Commerce_Factories_Industrial_Sites_LA_25003_LASAMO15_2688
3.22357077400005,6.58154897100007,2689,6.58154897092283,3.22357077386548,5aec72b8-6c38-46bf-935f-6916c1142ea9,LASAMO15,Bada-Megida,25003,Alimosho,LA,Lagos,Commerce_Factories_Industrial_Sites,Commerce_Factories_Industrial_Sites_LA_25003_LASAMO15_2689
3.22441500000002,6.57580166700006,2690,6.575801667,3.224415,754157a0-5054-4d16-9690-67e4c53bac55,LASAMO15,Bada-Megida,25003,Alimosho,LA,Lagos,Commerce_Factories_Industrial_Sites,Commerce_Factories_Industrial_Sites_LA_25003_LASAMO15_2690
3.23265333300003,6.57808333300005,2691,6.578083333,3.232653333,36b5c986-e70b-468c-b792-b9d923ddb728,LASAMO15,Bada-Megida,25003,Alimosho,LA,Lagos,Commerce_Factories_Industrial_Sites,Commerce_Factories_Industrial_Sites_LA_25003_LASAMO15_2691
3.20715430000007,6.57922050000008,2692,6.5792205,3.2071543,0cc9b1e6-441d-42a5-890c-9890be417b73,LASAMO15,Bada-Megida,25003,Alimosho,LA,Lagos,Commerce_Factories_Industrial_Sites,Commerce_Factories_Industrial_Sites_LA_25003_LASAMO15_2692
3.20878940000006,6.58134710000007,2693,6.5813471,3.2087894,f4fca4c0-ad1a-486a-8264-ad0fd2c59d2a,LASAMO15,Bada-Megida,25003,Alimosho,LA,Lagos,Commerce_Factories_Industrial_Sites,Commerce_Factories_Industrial_Sites_LA_25003_LASAMO15_2693
3.21290313100008,6.58313136100003,2694,6.58313136060196,3.21290313084492,988e5235-b5ff-4d1f-abfc-72feae877c6c,LASAMO15,Bada-Megida,25003,Alimosho,LA,Lagos,Commerce_Factories_Industrial_Sites,Commerce_Factories_Industrial_Sites_LA_25003_LASAMO15_2694
3.23405351700006,6.55415447000007,2695,6.55415446980466,3.23405351735615,dbddf232-e03c-4c09-88f6-47e2249cbfc0,LASAMO17,Egan,25003,Alimosho,LA,Lagos,Commerce_Factories_Industrial_Sites,Commerce_Factories_Industrial_Sites_LA_25003_LASAMO17_2695
3.23401833300005,6.54426333300006,2696,6.544263333,3.234018333,19700109-d4e3-4f69-b679-7c30676edb31,LASAMO17,Egan,25003,Alimosho,LA,Lagos,Commerce_Factories_Industrial_Sites,Commerce_Factories_Industrial_Sites_LA_25003_LASAMO17_2696
3.27977833300002,6.52804666700007,2697,6.528046667,3.279778333,00c58eb1-1dbb-487c-af60-0cfad8fd1ab7,LASAMO18,Egbe-Agodo,25003,Alimosho,LA,Lagos,Commerce_Factories_Industrial_Sites,Commerce_Factories_Industrial_Sites_LA_25003_LASAMO18_2697
3.28060500000004,6.54147666700004,2698,6.541476667,3.280605,7d8b0f85-483d-4222-8d73-1bb39012463b,LASAMO18,Egbe-Agodo,25003,Alimosho,LA,Lagos,Commerce_Factories_Industrial_Sites,Commerce_Factories_Industrial_Sites_LA_25003_LASAMO18_2698
3.27359000000007,6.55367333300006,2699,6.553673333,3.27359,a70aa685-28bc-4c54-bb80-0423f205ab10,LASAMO20,Egbe-Liasu,25003,Alimosho,LA,Lagos,Commerce_Factories_Industrial_Sites,Commerce_Factories_Industrial_Sites_LA_25003_LASAMO20_2699
3.28908503200006,6.60949973100003,2700,6.6094997313117,3.28908503201818,633c0173-ef4d-456f-ae40-e60b53a9b585,LASAMO21,Gowon Estate,25003,Alimosho,LA,Lagos,Commerce_Factories_Industrial_Sites,Commerce_Factories_Industrial_Sites_LA_25003_LASAMO21_2700
3.28865364100005,6.60075747400003,2701,6.60075747404952,3.28865364083102,f4d38c02-c7db-4425-9fee-d778a99fd8ce,LASAMO21,Gowon Estate,25003,Alimosho,LA,Lagos,Commerce_Factories_Industrial_Sites,Commerce_Factories_Industrial_Sites_LA_25003_LASAMO21_2701
3.29296930400005,6.60393747300003,2702,6.60393747328453,3.29296930440642,e1c70c5f-0fb5-4ca5-900a-43547b868e6d,LASAMO21,Gowon Estate,25003,Alimosho,LA,Lagos,Commerce_Factories_Industrial_Sites,Commerce_Factories_Industrial_Sites_LA_25003_LASAMO21_2702
3.24990944000007,6.56243197200007,2703,6.56243197220037,3.24990943992727,330b1eca-db37-4a24-b66b-c8a167c203a2,LASAMO23,Igando,25003,Alimosho,LA,Lagos,Commerce_Factories_Industrial_Sites,Commerce_Factories_Industrial_Sites_LA_25003_LASAMO23_2703
3.24266333300005,6.54547500000007,2704,6.545475,3.242663333,17f47501-44ab-4e69-8ddd-221285ef7ee7,LASAMO23,Igando,25003,Alimosho,LA,Lagos,Commerce_Factories_Industrial_Sites,Commerce_Factories_Industrial_Sites_LA_25003_LASAMO23_2704
3.24979614000006,6.56188399200005,2705,6.56188399198587,3.24979613992727,f8a9c870-ec31-44c3-9969-e616a5c81d56,LASAMO23,Igando,25003,Alimosho,LA,Lagos,Commerce_Factories_Industrial_Sites,Commerce_Factories_Industrial_Sites_LA_25003_LASAMO23_2705
3.22699550100003,6.50739838100003,2706,6.50739838059418,3.22699550076862,178a602a-c56a-4ec8-b501-2b77c3e56c5f,LASAMO24,Ijegun,25003,Alimosho,LA,Lagos,Commerce_Factories_Industrial_Sites,Commerce_Factories_Industrial_Sites_LA_25003_LASAMO24_2706
3.25954830000006,6.52690500000006,2707,6.526905,3.2595483,0097ec77-7a51-44a4-a83d-c15f67e03fad,LASAMO24,Ijegun,25003,Alimosho,LA,Lagos,Commerce_Factories_Industrial_Sites,Commerce_Factories_Industrial_Sites_LA_25003_LASAMO24_2707
3.25848121300004,6.50968810400008,2708,6.50968810428994,3.25848121321925,08872593-3c43-4335-b63d-c58c281141d7,LASAMO24,Ijegun,25003,Alimosho,LA,Lagos,Commerce_Factories_Industrial_Sites,Commerce_Factories_Industrial_Sites_LA_25003_LASAMO24_2708
3.22634453000006,6.50735011600005,2709,6.50735011648609,3.22634453030588,19a42553-6ac8-4699-9517-3f5fec69c33c,LASAMO24,Ijegun,25003,Alimosho,LA,Lagos,Commerce_Factories_Industrial_Sites,Commerce_Factories_Industrial_Sites_LA_25003_LASAMO24_2709
3.26449937500007,6.52897076900007,2710,6.52897076865908,3.26449937463957,bb8d429f-ddf7-47d5-8d57-a800ee2a1f01,LASAMO24,Ijegun,25003,Alimosho,LA,Lagos,Commerce_Factories_Industrial_Sites,Commerce_Factories_Industrial_Sites_LA_25003_LASAMO24_2710
3.25151696300003,6.56452137900004,2711,6.56452137911691,3.25151696313155,2b571ec8-b1da-401f-b268-8958d47c49be,LASAMO25,Ikotun,25003,Alimosho,LA,Lagos,Commerce_Factories_Industrial_Sites,Commerce_Factories_Industrial_Sites_LA_25003_LASAMO25_2711
3.25266579400005,6.56943199700004,2712,6.56943199705107,3.25266579424599,e31551f2-71d5-43b3-be78-e79e29f0e631,LASAMO25,Ikotun,25003,Alimosho,LA,Lagos,Commerce_Factories_Industrial_Sites,Commerce_Factories_Industrial_Sites_LA_25003_LASAMO25_2712
3.25317077900007,6.56709805200006,2713,6.56709805153488,3.25317077850695,9c7ac242-8d07-4981-b509-e84e4d538c76,LASAMO25,Ikotun,25003,Alimosho,LA,Lagos,Commerce_Factories_Industrial_Sites,Commerce_Factories_Industrial_Sites_LA_25003_LASAMO25_2713
3.24616543800005,6.61290306200004,2714,6.61290306247035,3.24616543767594,15fee3e8-afd4-41a8-8182-0ba5b119e313,LASAMO26,Ipaja,25003,Alimosho,LA,Lagos,Commerce_Factories_Industrial_Sites,Commerce_Factories_Industrial_Sites_LA_25003_LASAMO26_2714
3.25554249300006,6.61386795800007,2715,6.61386795846701,3.2555424934385,0badd735-cc58-48cf-9bd9-d93963613c56,LASAMO26,Ipaja,25003,Alimosho,LA,Lagos,Commerce_Factories_Industrial_Sites,Commerce_Factories_Industrial_Sites_LA_25003_LASAMO26_2715
3.26069446400004,6.50587726700007,2716,6.50587726687381,3.26069446447914,371692ff-a16a-449d-ab96-e626b4c7434f,LASAMO27,Isheri Oshun,25003,Alimosho,LA,Lagos,Commerce_Factories_Industrial_Sites,Commerce_Factories_Industrial_Sites_LA_25003_LASAMO27_2716
3.26594170900006,6.52949216400003,2717,6.52949216420053,3.26594170941767,d9f74c47-943d-4a6e-92b6-44bcfa861d64,LASAMO27,Isheri Oshun,25003,Alimosho,LA,Lagos,Commerce_Factories_Industrial_Sites,Commerce_Factories_Industrial_Sites_LA_25003_LASAMO27_2717
3.28263000000004,6.50053500000007,2718,6.500535,3.28263,2b14700c-cec0-44b2-b30d-527fe6bc59c0,LASAMO27,Isheri Oshun,25003,Alimosho,LA,Lagos,Commerce_Factories_Industrial_Sites,Commerce_Factories_Industrial_Sites_LA_25003_LASAMO27_2718
3.26495840000007,6.50997790000002,2719,6.5099779,3.2649584,2d5ec8d5-7efe-4cd8-8113-f4321fac60dc,LASAMO27,Isheri Oshun,25003,Alimosho,LA,Lagos,Commerce_Factories_Industrial_Sites,Commerce_Factories_Industrial_Sites_LA_25003_LASAMO27_2719
3.26425687900007,6.57751307800004,2720,6.57751307775002,3.26425687877647,255eaa64-e2f5-4f0f-b921-28275ac2e8bb,LASAMO28,Isheri-Olofin,25003,Alimosho,LA,Lagos,Commerce_Factories_Industrial_Sites,Commerce_Factories_Industrial_Sites_LA_25003_LASAMO28_2720
3.27079666700007,6.57910166700003,2721,6.579101667,3.270796667,5541faae-4874-4c3a-97b2-06fad643b501,LASAMO28,Isheri-Olofin,25003,Alimosho,LA,Lagos,Commerce_Factories_Industrial_Sites,Commerce_Factories_Industrial_Sites_LA_25003_LASAMO28_2721
3.27527500000002,6.57774000000006,2722,6.57774,3.275275,b3edb2bd-f832-49da-828e-987d8fb2aaf6,LASAMO28,Isheri-Olofin,25003,Alimosho,LA,Lagos,Commerce_Factories_Industrial_Sites,Commerce_Factories_Industrial_Sites_LA_25003_LASAMO28_2722
3.27585635500003,6.57859311800007,2723,6.57859311845243,3.27585635539679,270f1aef-babb-4cf6-aff5-7384bf5bef5f,LASAMO28,Isheri-Olofin,25003,Alimosho,LA,Lagos,Commerce_Factories_Industrial_Sites,Commerce_Factories_Industrial_Sites_LA_25003_LASAMO28_2723
3.27226333300007,6.57764333300003,2724,6.577643333,3.272263333,460c628a-0133-4dbd-833e-5427f3eac0f3,LASAMO28,Isheri-Olofin,25003,Alimosho,LA,Lagos,Commerce_Factories_Industrial_Sites,Commerce_Factories_Industrial_Sites_LA_25003_LASAMO28_2724
3.27388640900006,6.58274280700005,2725,6.58274280731812,3.27388640908235,78a86376-2fed-43d3-9d17-00ab1c270562,LASAMO28,Isheri-Olofin,25003,Alimosho,LA,Lagos,Commerce_Factories_Industrial_Sites,Commerce_Factories_Industrial_Sites_LA_25003_LASAMO28_2725
3.27514166700007,6.61435666700004,2726,6.614356667,3.275141667,91c74fe3-b630-4675-81bc-9320f5145496,LASAMO29,Mosan/Akinoggun,25003,Alimosho,LA,Lagos,Commerce_Factories_Industrial_Sites,Commerce_Factories_Industrial_Sites_LA_25003_LASAMO29_2726
3.28504333300003,6.60802500000005,2727,6.608025,3.285043333,4785cdc5-14ff-4e82-bd75-4bff0c457d94,LASAMO29,Mosan/Akinoggun,25003,Alimosho,LA,Lagos,Commerce_Factories_Industrial_Sites,Commerce_Factories_Industrial_Sites_LA_25003_LASAMO29_2727
3.30708726800003,6.58701291100004,2728,6.58701291073898,3.30708726753904,3cf15517-c8b2-4fd8-a814-40fbf31d6702,LASAMO30,Oguntade/Bameke,25003,Alimosho,LA,Lagos,Commerce_Factories_Industrial_Sites,Commerce_Factories_Industrial_Sites_LA_25003_LASAMO30_2728
3.30370166700004,6.57828833300005,2729,6.578288333,3.303701667,66e61e80-9bb3-441d-a79e-664f95a8c412,LASAMO30,Oguntade/Bameke,25003,Alimosho,LA,Lagos,Commerce_Factories_Industrial_Sites,Commerce_Factories_Industrial_Sites_LA_25003_LASAMO30_2729
3.30037658500004,6.57654187000003,2730,6.57654186953895,3.30037658506845,819a5196-fe11-4ef8-a2ac-a220fc75e81a,LASAMO30,Oguntade/Bameke,25003,Alimosho,LA,Lagos,Commerce_Factories_Industrial_Sites,Commerce_Factories_Industrial_Sites_LA_25003_LASAMO30_2730
3.30469873600003,6.58237622700005,2731,6.58237622718203,3.30469873588556,08ddda67-f29c-4213-af66-880fa4126abd,LASAMO30,Oguntade/Bameke,25003,Alimosho,LA,Lagos,Commerce_Factories_Industrial_Sites,Commerce_Factories_Industrial_Sites_LA_25003_LASAMO30_2731
3.28556122800006,6.63315049100004,2732,6.63315049051356,3.28556122832406,d110353d-265c-462e-8d19-42ef8b3973b9,LASAMO31,Oke-Odo,25003,Alimosho,LA,Lagos,Commerce_Factories_Industrial_Sites,Commerce_Factories_Industrial_Sites_LA_25003_LASAMO31_2732
3.25269500000007,6.45587000000006,2733,6.45587,3.252695,c5ad66d6-f36f-4505-b3d5-d4056aa873c1,LASAON01,Abule Osun Onireke,25004,Amuwo Odofin,LA,Lagos,Commerce_Factories_Industrial_Sites,Commerce_Factories_Industrial_Sites_LA_25004_LASAON01_2733
3.25516343300006,6.45740607100004,2734,6.45740607096787,3.25516343282674,566c08e5-e4cb-4dd6-a529-3c8f93287cdd,LASAON01,Abule Osun Onireke,25004,Amuwo Odofin,LA,Lagos,Commerce_Factories_Industrial_Sites,Commerce_Factories_Industrial_Sites_LA_25004_LASAON01_2734
3.24784500000004,6.45572000000004,2735,6.45572,3.247845,cce2d321-cc2e-4ff2-8479-acaadd0d0505,LASAON01,Abule Osun Onireke,25004,Amuwo Odofin,LA,Lagos,Commerce_Factories_Industrial_Sites,Commerce_Factories_Industrial_Sites_LA_25004_LASAON01_2735
3.23617833300005,6.45299166700005,2736,6.452991667,3.236178333,3ea9458c-e5f2-4853-805c-21aba0ebad3a,LASAON01,Abule Osun Onireke,25004,Amuwo Odofin,LA,Lagos,Commerce_Factories_Industrial_Sites,Commerce_Factories_Industrial_Sites_LA_25004_LASAON01_2736
3.27439543800006,6.46747482600006,2737,6.46747482590943,3.27439543767594,91030ab3-e297-4257-b2b6-e0239c47bbbb,LASAON02,Ado Soba,25004,Amuwo Odofin,LA,Lagos,Commerce_Factories_Industrial_Sites,Commerce_Factories_Industrial_Sites_LA_25004_LASAON02_2737
3.27764389800006,6.45779449700007,2738,6.45779449669232,3.27764389774866,5a6d32e5-0a7f-4985-8452-757554e16f49,LASAON03,Agboju And Environ,25004,Amuwo Odofin,LA,Lagos,Commerce_Factories_Industrial_Sites,Commerce_Factories_Industrial_Sites_LA_25004_LASAON03_2738
3.27845325200002,6.45776424700006,2739,6.45776424680064,3.27845325206845,cb005558-470c-4cfe-a143-ee5c95601320,LASAON03,Agboju And Environ,25004,Amuwo Odofin,LA,Lagos,Commerce_Factories_Industrial_Sites,Commerce_Factories_Industrial_Sites_LA_25004_LASAON03_2739
3.28205216800006,6.45831719800003,2740,6.45831719847466,3.2820521677123,d2c40071-4847-4cc9-a594-c6961444507a,LASAON03,Agboju And Environ,25004,Amuwo Odofin,LA,Lagos,Commerce_Factories_Industrial_Sites,Commerce_Factories_Industrial_Sites_LA_25004_LASAON03_2740
3.32238925400003,6.47382197100006,2741,6.47382197089341,3.32238925449305,05776439-db8e-43b8-bd4d-4a2ce2d3deb3,LASAON04,Eko Akete,25004,Amuwo Odofin,LA,Lagos,Commerce_Factories_Industrial_Sites,Commerce_Factories_Industrial_Sites_LA_25004_LASAON04_2741
3.32455833300003,6.47915833300004,2742,6.479158333,3.324558333,67f0be80-c1c0-4fb7-8af5-deb4788aed8c,LASAON04,Eko Akete,25004,Amuwo Odofin,LA,Lagos,Commerce_Factories_Industrial_Sites,Commerce_Factories_Industrial_Sites_LA_25004_LASAON04_2742
3.32538285600003,6.47846880700007,2743,6.47846880686689,3.3253828557615,c221c756-809a-4306-8d5d-d7ee3da048d5,LASAON04,Eko Akete,25004,Amuwo Odofin,LA,Lagos,Commerce_Factories_Industrial_Sites,Commerce_Factories_Industrial_Sites_LA_25004_LASAON04_2743
3.30777833300004,6.47942371300007,2744,6.47942371270332,3.307778333,d8b2244b-eef2-464b-99df-4336a53cd4be,LASAON04,Eko Akete,25004,Amuwo Odofin,LA,Lagos,Commerce_Factories_Industrial_Sites,Commerce_Factories_Industrial_Sites_LA_25004_LASAON04_2744
3.30374000000006,6.48282666700004,2745,6.482826667,3.30374,2eac0ccb-f260-4730-903b-b4e845eecfa8,LASAON04,Eko Akete,25004,Amuwo Odofin,LA,Lagos,Commerce_Factories_Industrial_Sites,Commerce_Factories_Industrial_Sites_LA_25004_LASAON04_2745
3.32652524400004,6.47917712100002,2746,6.47917712122592,3.32652524379465,18ee21e2-8c67-44cd-aa7c-1440d014e8bd,LASAON04,Eko Akete,25004,Amuwo Odofin,LA,Lagos,Commerce_Factories_Industrial_Sites,Commerce_Factories_Industrial_Sites_LA_25004_LASAON04_2746
3.31772832900003,6.47758033400004,2747,6.4775803341599,3.31772832922781,7ad9a647-d69c-41c6-b344-c116dbb7e9e2,LASAON04,Eko Akete,25004,Amuwo Odofin,LA,Lagos,Commerce_Factories_Industrial_Sites,Commerce_Factories_Industrial_Sites_LA_25004_LASAON04_2747
3.31754500000005,6.47811333300007,2748,6.478113333,3.317545,520516f3-3f2d-4841-8fee-8f0f9daf1931,LASAON04,Eko Akete,25004,Amuwo Odofin,LA,Lagos,Commerce_Factories_Industrial_Sites,Commerce_Factories_Industrial_Sites_LA_25004_LASAON04_2748
3.31772289200006,6.47679371800007,2749,6.47679371758982,3.31772289155187,9b92b7be-8598-42ac-95bd-0b493549083d,LASAON04,Eko Akete,25004,Amuwo Odofin,LA,Lagos,Commerce_Factories_Industrial_Sites,Commerce_Factories_Industrial_Sites_LA_25004_LASAON04_2749
3.31764460700003,6.47475868900005,2750,6.47475868947628,3.31764460746524,0b956810-7af5-45f6-872d-dd3e10c44c1e,LASAON04,Eko Akete,25004,Amuwo Odofin,LA,Lagos,Commerce_Factories_Industrial_Sites,Commerce_Factories_Industrial_Sites_LA_25004_LASAON04_2750
3.32357639500003,6.47579021400003,2751,6.47579021390619,3.32357639495936,4efd1dfc-cdfa-46a3-8969-703e9034331d,LASAON04,Eko Akete,25004,Amuwo Odofin,LA,Lagos,Commerce_Factories_Industrial_Sites,Commerce_Factories_Industrial_Sites_LA_25004_LASAON04_2751
3.31384795300005,6.47764083700002,2752,6.47764083675403,3.31384795278182,2c645ace-86cb-426b-a5b2-83b56f714af6,LASAON04,Eko Akete,25004,Amuwo Odofin,LA,Lagos,Commerce_Factories_Industrial_Sites,Commerce_Factories_Industrial_Sites_LA_25004_LASAON04_2752
3.23738736300004,6.44694767600004,2753,6.44694767643084,3.23738736259358,71339ef4-4de4-4267-be62-000cc606bf37,LASAON05,I Irede,25004,Amuwo Odofin,LA,Lagos,Commerce_Factories_Industrial_Sites,Commerce_Factories_Industrial_Sites_LA_25004_LASAON05_2753
3.23328659400005,6.44567409800004,2754,6.44567409835419,3.23328659361283,56e2388f-02a7-49fe-be89-294733d5f6c2,LASAON05,I Irede,25004,Amuwo Odofin,LA,Lagos,Commerce_Factories_Industrial_Sites,Commerce_Factories_Industrial_Sites_LA_25004_LASAON05_2754
3.24131666700004,6.44984000000005,2755,6.44984,3.241316667,7cd2cf2e-dacc-4724-a7e5-2818995822c0,LASAON05,I Irede,25004,Amuwo Odofin,LA,Lagos,Commerce_Factories_Industrial_Sites,Commerce_Factories_Industrial_Sites_LA_25004_LASAON05_2755
3.23499029500005,6.44633588700003,2756,6.44633588749272,3.23499029451444,54a1df0e-9a1e-4703-b58e-796dbf70ea9f,LASAON05,I Irede,25004,Amuwo Odofin,LA,Lagos,Commerce_Factories_Industrial_Sites,Commerce_Factories_Industrial_Sites_LA_25004_LASAON05_2756
3.23890937800007,6.44648944400006,2757,6.4464894441849,3.23890937768362,ba724191-1748-4cfc-966c-4663334f3943,LASAON05,I Irede,25004,Amuwo Odofin,LA,Lagos,Commerce_Factories_Industrial_Sites,Commerce_Factories_Industrial_Sites_LA_25004_LASAON05_2757
3.27079641100005,6.43419118400004,2758,6.43419118435511,3.27079641088877,f583a448-8f5b-49d5-bddf-b4e4bffb161b,LASAON08,Ijegun,25004,Amuwo Odofin,LA,Lagos,Commerce_Factories_Industrial_Sites,Commerce_Factories_Industrial_Sites_LA_25004_LASAON08_2758
3.26053260200007,6.44224489100003,2759,6.44224489080693,3.26053260161604,3ce75d44-59bd-422c-a6f4-76edba5acd9e,LASAON08,Ijegun,25004,Amuwo Odofin,LA,Lagos,Commerce_Factories_Industrial_Sites,Commerce_Factories_Industrial_Sites_LA_25004_LASAON08_2759
3.27422966100005,6.45052104000007,2760,6.45052104005239,3.2742296611508,2eecef73-298e-41f4-a4e6-06e9f3986387,LASAON08,Ijegun,25004,Amuwo Odofin,LA,Lagos,Commerce_Factories_Industrial_Sites,Commerce_Factories_Industrial_Sites_LA_25004_LASAON08_2760
3.33300481900005,6.42601003400006,2761,6.4260100344186,3.33300481924171,b6c41562-683f-4ba5-8215-66cd7d10079c,LASAON09,Ilado Tomaro,25004,Amuwo Odofin,LA,Lagos,Commerce_Factories_Industrial_Sites,Commerce_Factories_Industrial_Sites_LA_25004_LASAON09_2761
3.31096010400006,6.45103190700007,2762,6.45103190674963,3.31096010440535,ae209542-7783-456c-a728-edd2dc619851,LASAON11,Kirikiri And Environ,25004,Amuwo Odofin,LA,Lagos,Commerce_Factories_Industrial_Sites,Commerce_Factories_Industrial_Sites_LA_25004_LASAON11_2762
3.31664662600002,6.44913928200003,2763,6.44913928183102,3.31664662563101,8159804a-3d13-4502-9edc-580e203c598f,LASAON11,Kirikiri And Environ,25004,Amuwo Odofin,LA,Lagos,Commerce_Factories_Industrial_Sites,Commerce_Factories_Industrial_Sites_LA_25004_LASAON11_2763
3.31078454000004,6.44866380700006,2764,6.44866380739468,3.31078453965669,7980bfb8-9675-4e42-902e-e8eb3a2dbb30,LASAON11,Kirikiri And Environ,25004,Amuwo Odofin,LA,Lagos,Commerce_Factories_Industrial_Sites,Commerce_Factories_Industrial_Sites_LA_25004_LASAON11_2764
3.27551070600003,6.44864739400003,2765,6.44864739390899,3.27551070642475,cce8a07a-2541-4d4c-9775-d66e2d3a2d81,LASAON11,Kirikiri And Environ,25004,Amuwo Odofin,LA,Lagos,Commerce_Factories_Industrial_Sites,Commerce_Factories_Industrial_Sites_LA_25004_LASAON11_2765
3.27542586400006,6.45042428200003,2766,6.45042428198993,3.2754258640353,541cf9b4-84be-410f-8b8d-2a41f4993e41,LASAON11,Kirikiri And Environ,25004,Amuwo Odofin,LA,Lagos,Commerce_Factories_Industrial_Sites,Commerce_Factories_Industrial_Sites_LA_25004_LASAON11_2766
3.31350341500007,6.44243288800004,2767,6.44243288770557,3.31350341493155,d24ecfa9-545f-49d0-abce-c23340a1ea07,LASAON11,Kirikiri And Environ,25004,Amuwo Odofin,LA,Lagos,Commerce_Factories_Industrial_Sites,Commerce_Factories_Industrial_Sites_LA_25004_LASAON11_2767
3.30036028500007,6.45006555200007,2768,6.45006555185953,3.30036028516364,22e59ac8-cf72-44bf-a930-58a5ee5e2a8a,LASAON11,Kirikiri And Environ,25004,Amuwo Odofin,LA,Lagos,Commerce_Factories_Industrial_Sites,Commerce_Factories_Industrial_Sites_LA_25004_LASAON11_2768
3.31541195200003,6.44919019900004,2769,6.4491901988274,3.31541195216364,bbbda4da-249e-49aa-9334-ac573271763f,LASAON11,Kirikiri And Environ,25004,Amuwo Odofin,LA,Lagos,Commerce_Factories_Industrial_Sites,Commerce_Factories_Industrial_Sites_LA_25004_LASAON11_2769
3.29001986900005,6.44981576400005,2770,6.44981576404567,3.29001986915508,e0cf2cc1-c2ba-426d-9155-c57f9927bf51,LASAON12,Kuje,25004,Amuwo Odofin,LA,Lagos,Commerce_Factories_Industrial_Sites,Commerce_Factories_Industrial_Sites_LA_25004_LASAON12_2770
3.30082977000006,6.45094655700007,2771,6.45094655709312,3.30082977018889,4bd584cf-92a2-4d50-8c35-1c23ec6b1a0a,LASAON12,Kuje,25004,Amuwo Odofin,LA,Lagos,Commerce_Factories_Industrial_Sites,Commerce_Factories_Industrial_Sites_LA_25004_LASAON12_2771
3.29914204000005,6.45808522700003,2772,6.45808522717084,3.29914203965775,f0a982eb-6c03-43b5-ab37-9702b150f36d,LASAON12,Kuje,25004,Amuwo Odofin,LA,Lagos,Commerce_Factories_Industrial_Sites,Commerce_Factories_Industrial_Sites_LA_25004_LASAON12_2772
3.29097184300002,6.44985288900006,2773,6.44985288944353,3.2909718429861,23f6396b-c788-4e19-bb6b-516475172a38,LASAON12,Kuje,25004,Amuwo Odofin,LA,Lagos,Commerce_Factories_Industrial_Sites,Commerce_Factories_Industrial_Sites_LA_25004_LASAON12_2773
3.29101666700006,6.44936166700006,2774,6.449361667,3.291016667,c8a49722-9bd4-4bdf-94c6-c3b7943d1fe3,LASAON12,Kuje,25004,Amuwo Odofin,LA,Lagos,Commerce_Factories_Industrial_Sites,Commerce_Factories_Industrial_Sites_LA_25004_LASAON12_2774
3.29112398900003,6.44901970700005,2775,6.44901970709784,3.29112398861173,5e9e8390-3cd0-43bf-8a89-9eef004e6fa0,LASAON12,Kuje,25004,Amuwo Odofin,LA,Lagos,Commerce_Factories_Industrial_Sites,Commerce_Factories_Industrial_Sites_LA_25004_LASAON12_2775
3.29082333300005,6.44885666700003,2776,6.448856667,3.290823333,dd943ee5-e2cb-456d-9fae-18beedee0a6a,LASAON12,Kuje,25004,Amuwo Odofin,LA,Lagos,Commerce_Factories_Industrial_Sites,Commerce_Factories_Industrial_Sites_LA_25004_LASAON12_2776
3.29003150400007,6.44947709400003,2777,6.4494770944858,3.2900315041369,7599a05b-0221-4cbc-8605-776d73e2153b,LASAON12,Kuje,25004,Amuwo Odofin,LA,Lagos,Commerce_Factories_Industrial_Sites,Commerce_Factories_Industrial_Sites_LA_25004_LASAON12_2777
3.36938666700007,6.43839166700008,2778,6.438391667,3.369386667,26cd2f41-ded5-4566-97f0-5e64e5a92dd5,LASAPA02,Abraham Adesanya,25005,Apapa,LA,Lagos,Commerce_Factories_Industrial_Sites,Commerce_Factories_Industrial_Sites_LA_25005_LASAPA02_2778
3.36449571300005,6.43545546600006,2779,6.43545546576081,3.36449571348877,2ecc2c76-f2bb-44ef-9140-cb2f91886fdb,LASAPA02,Abraham Adesanya,25005,Apapa,LA,Lagos,Commerce_Factories_Industrial_Sites,Commerce_Factories_Industrial_Sites_LA_25005_LASAPA02_2779
3.36543349600004,6.43503083600007,2780,6.43503083551435,3.3654334958631,64a95465-4752-496f-91cb-928d9ad1f532,LASAPA02,Abraham Adesanya,25005,Apapa,LA,Lagos,Commerce_Factories_Industrial_Sites,Commerce_Factories_Industrial_Sites_LA_25005_LASAPA02_2780
3.36607077700006,6.43571476100004,2781,6.43571476090238,3.36607077652513,4e571dd5-4fcc-4dc9-a9cf-e0b1b4d9a880,LASAPA02,Abraham Adesanya,25005,Apapa,LA,Lagos,Commerce_Factories_Industrial_Sites,Commerce_Factories_Industrial_Sites_LA_25005_LASAPA02_2781
3.36993090700003,6.44375215500003,2782,6.44375215480497,3.36993090737005,504d9895-c615-46d7-8f21-812bebafa896,LASAPA02,Abraham Adesanya,25005,Apapa,LA,Lagos,Commerce_Factories_Industrial_Sites,Commerce_Factories_Industrial_Sites_LA_25005_LASAPA02_2782
3.37220833300006,6.44157833300005,2783,6.441578333,3.372208333,40f828cd-4052-458e-a2ab-86b4a63700c5,LASAPA02,Abraham Adesanya,25005,Apapa,LA,Lagos,Commerce_Factories_Industrial_Sites,Commerce_Factories_Industrial_Sites_LA_25005_LASAPA02_2783
3.37047565000006,6.43850343700007,2784,6.43850343730947,3.37047565045241,b046ead2-1cc6-4140-818a-cdd87cd22ba6,LASAPA02,Abraham Adesanya,25005,Apapa,LA,Lagos,Commerce_Factories_Industrial_Sites,Commerce_Factories_Industrial_Sites_LA_25005_LASAPA02_2784
3.36766135900007,6.43624557200008,2785,6.43624557218,3.36766135916898,7b868b3b-b34e-4d6f-8450-e4bc919ed5b0,LASAPA02,Abraham Adesanya,25005,Apapa,LA,Lagos,Commerce_Factories_Industrial_Sites,Commerce_Factories_Industrial_Sites_LA_25005_LASAPA02_2785
3.36834234800006,6.43745309900004,2786,6.43745309942601,3.36834234847059,ab1810df-8b4b-4ab0-9d95-242314c3abbf,LASAPA02,Abraham Adesanya,25005,Apapa,LA,Lagos,Commerce_Factories_Industrial_Sites,Commerce_Factories_Industrial_Sites_LA_25005_LASAPA02_2786
3.36789068100006,6.43803994100006,2787,6.43803994134484,3.36789068147059,eea533e9-951b-44e2-9df6-81e84945ce3b,LASAPA02,Abraham Adesanya,25005,Apapa,LA,Lagos,Commerce_Factories_Industrial_Sites,Commerce_Factories_Industrial_Sites_LA_25005_LASAPA02_2787
3.36628666700005,6.44054500000004,2788,6.440545,3.366286667,144f645c-76c3-4f80-b11f-6e6b6edbd602,LASAPA02,Abraham Adesanya,25005,Apapa,LA,Lagos,Commerce_Factories_Industrial_Sites,Commerce_Factories_Industrial_Sites_LA_25005_LASAPA02_2788
3.36157048800004,6.43805109600004,2789,6.43805109603458,3.3615704875893,144b1216-f4fe-41c1-8aa5-da3ad98705ed,LASAPA02,Abraham Adesanya,25005,Apapa,LA,Lagos,Commerce_Factories_Industrial_Sites,Commerce_Factories_Industrial_Sites_LA_25005_LASAPA02_2789
3.36484393000006,6.43642571600003,2790,6.4364257158902,3.36484392976684,b8820cfc-defe-42c4-9fd0-b896937bd24b,LASAPA02,Abraham Adesanya,25005,Apapa,LA,Lagos,Commerce_Factories_Industrial_Sites,Commerce_Factories_Industrial_Sites_LA_25005_LASAPA02_2790
3.36291333300005,6.43805500000008,2791,6.438055,3.362913333,02fcaa31-0b9e-410e-89de-dbc55caee818,LASAPA02,Abraham Adesanya,25005,Apapa,LA,Lagos,Commerce_Factories_Industrial_Sites,Commerce_Factories_Industrial_Sites_LA_25005_LASAPA02_2791
3.37392349600003,6.44399839600004,2792,6.44399839598195,3.3739234958631,5a054152-087b-424d-84ba-dfa60e5aff32,LASAPA04,Anjorin,25005,Apapa,LA,Lagos,Commerce_Factories_Industrial_Sites,Commerce_Factories_Industrial_Sites_LA_25005_LASAPA04_2792
3.37079333300005,6.45113666700007,2793,6.451136667,3.370793333,7316b185-4eff-4d7c-ac41-9b4abc4ed75c,LASAPA04,Anjorin,25005,Apapa,LA,Lagos,Commerce_Factories_Industrial_Sites,Commerce_Factories_Industrial_Sites_LA_25005_LASAPA04_2793
3.37490218600004,6.44282455500007,2794,6.44282455502577,3.37490218560749,f4690047-64f1-4101-87e1-1762c9b19859,LASAPA04,Anjorin,25005,Apapa,LA,Lagos,Commerce_Factories_Industrial_Sites,Commerce_Factories_Industrial_Sites_LA_25005_LASAPA04_2794
3.37034666700004,6.44708166700002,2795,6.447081667,3.370346667,c55927c2-5673-4610-ae69-d2df73343319,LASAPA04,Anjorin,25005,Apapa,LA,Lagos,Commerce_Factories_Industrial_Sites,Commerce_Factories_Industrial_Sites_LA_25005_LASAPA04_2795
3.37945300800004,6.46605588400007,2796,6.46605588419647,3.3794530082738,d7b9353e-d2d3-4a3b-8f31-0d6f18b7e163,LASAPA04,Anjorin,25005,Apapa,LA,Lagos,Commerce_Factories_Industrial_Sites,Commerce_Factories_Industrial_Sites_LA_25005_LASAPA04_2796
3.36619325200007,6.44753903700007,2797,6.44753903667162,3.36619325206845,e8fe5f09-244b-47b1-9cbe-89ee25febae0,LASAPA05,Apapa,25005,Apapa,LA,Lagos,Commerce_Factories_Industrial_Sites,Commerce_Factories_Industrial_Sites_LA_25005_LASAPA05_2797
3.36599333300006,6.45404000000002,2798,6.45404,3.365993333,2c82f88d-10e0-42ee-ab3d-293709556335,LASAPA05,Apapa,25005,Apapa,LA,Lagos,Commerce_Factories_Industrial_Sites,Commerce_Factories_Industrial_Sites_LA_25005_LASAPA05_2798
3.36339992300003,6.44712793600007,2799,6.44712793594194,3.36339992284064,07e07807-29c3-454e-a3ee-b997622191ad,LASAPA05,Apapa,25005,Apapa,LA,Lagos,Commerce_Factories_Industrial_Sites,Commerce_Factories_Industrial_Sites_LA_25005_LASAPA05_2799
3.36274665300004,6.47033435700007,2800,6.47033435738152,3.362746652877,3c8da3fb-e9ee-4515-b0d4-b3d0d767da92,LASAPA06,Badia,25005,Apapa,LA,Lagos,Commerce_Factories_Industrial_Sites,Commerce_Factories_Industrial_Sites_LA_25005_LASAPA06_2800
3.36429666700008,6.46744666700005,2801,6.467446667,3.364296667,53f937bc-e020-416a-bc01-95e9587456b4,LASAPA08,Ijora,25005,Apapa,LA,Lagos,Commerce_Factories_Industrial_Sites,Commerce_Factories_Industrial_Sites_LA_25005_LASAPA08_2801
3.37435839200003,6.46798439700007,2802,6.46798439742758,3.37435839226417,208e8478-1053-4161-aa12-4b33437c721d,LASAPA08,Ijora,25005,Apapa,LA,Lagos,Commerce_Factories_Industrial_Sites,Commerce_Factories_Industrial_Sites_LA_25005_LASAPA08_2802
3.36417551500006,6.47423209200002,2803,6.47423209166326,3.36417551483529,e967a180-2335-446b-b144-18bd624d902d,LASAPA08,Ijora,25005,Apapa,LA,Lagos,Commerce_Factories_Industrial_Sites,Commerce_Factories_Industrial_Sites_LA_25005_LASAPA08_2803
3.36368379000004,6.46103668500007,2804,6.46103668478757,3.36368378957112,43ab8bfc-fea9-40a4-a73d-3ec1f05f6f27,LASAPA09,Marine Beach,25005,Apapa,LA,Lagos,Commerce_Factories_Industrial_Sites,Commerce_Factories_Industrial_Sites_LA_25005_LASAPA09_2804
3.36917255600002,6.45699605300007,2805,6.45699605310076,3.36917255647487,dde3690e-a95a-4e27-abe8-d84ca65fa215,LASAPA09,Marine Beach,25005,Apapa,LA,Lagos,Commerce_Factories_Industrial_Sites,Commerce_Factories_Industrial_Sites_LA_25005_LASAPA09_2805
3.36879606600007,6.45610201300002,2806,6.4561020134875,3.36879606646096,5bb1d11b-40f6-4c1c-90c3-f0007f82ec45,LASAPA09,Marine Beach,25005,Apapa,LA,Lagos,Commerce_Factories_Industrial_Sites,Commerce_Factories_Industrial_Sites_LA_25005_LASAPA09_2806
3.36920025800003,6.45402722900008,2807,6.45402722866144,3.36920025791765,d4d0cac4-41dc-4f9b-bcbf-fcff6755ca4e,LASAPA09,Marine Beach,25005,Apapa,LA,Lagos,Commerce_Factories_Industrial_Sites,Commerce_Factories_Industrial_Sites_LA_25005_LASAPA09_2807
3.36776205100006,6.45685083900003,2808,6.45685083942197,3.36776205099037,5f8a5e94-8f46-45f1-aa2a-cbb660a408dc,LASAPA09,Marine Beach,25005,Apapa,LA,Lagos,Commerce_Factories_Industrial_Sites,Commerce_Factories_Industrial_Sites_LA_25005_LASAPA09_2808
3.36833421400007,6.45553778600004,2809,6.45553778584748,3.36833421398947,265177b5-58b4-481c-9fb2-8fbbf2a26919,LASAPA09,Marine Beach,25005,Apapa,LA,Lagos,Commerce_Factories_Industrial_Sites,Commerce_Factories_Industrial_Sites_LA_25005_LASAPA09_2809
3.36500195200006,6.46286260800002,2810,6.4628626075292,3.36500195216364,945ec87f-e939-4b1a-951d-2bc8a5f8fee9,LASAPA09,Marine Beach,25005,Apapa,LA,Lagos,Commerce_Factories_Industrial_Sites,Commerce_Factories_Industrial_Sites_LA_25005_LASAPA09_2810
3.35139546800002,6.45452510500007,2811,6.45452510463667,3.35139546771014,ddcdb1ff-89c7-4cf0-9ee6-028406b486cd,LASAPA10,Oduduwa,25005,Apapa,LA,Lagos,Commerce_Factories_Industrial_Sites,Commerce_Factories_Industrial_Sites_LA_25005_LASAPA10_2811
2.88573711900005,6.44312521400008,2812,6.44312521370475,2.88573711879893,299952cb-4781-4f3c-b802-b501910c9fe0,LASBDY03,Ajara Vetho,25006,Badagry,LA,Lagos,Commerce_Factories_Industrial_Sites,Commerce_Factories_Industrial_Sites_LA_25006_LASBDY03_2812
2.98572313900007,6.43478934500007,2813,6.4347893454893,2.98572313911872,7d32e76d-1b8f-4368-a9af-c04e08e0165b,LASBDY04,Ajido,25006,Badagry,LA,Lagos,Commerce_Factories_Industrial_Sites,Commerce_Factories_Industrial_Sites_LA_25006_LASBDY04_2813
2.97811000000007,6.43611333300004,2814,6.436113333,2.97811,b6fdd8ad-5daa-415c-bab2-f0cf5b9befd1,LASBDY04,Ajido,25006,Badagry,LA,Lagos,Commerce_Factories_Industrial_Sites,Commerce_Factories_Industrial_Sites_LA_25006_LASBDY04_2814
2.97061775000003,6.41273951400007,2815,6.41273951440301,2.97061775035615,b8408ec0-7cac-4204-a1cc-13165d4807e2,LASBDY04,Ajido,25006,Badagry,LA,Lagos,Commerce_Factories_Industrial_Sites,Commerce_Factories_Industrial_Sites_LA_25006_LASBDY04_2815
2.97950579400003,6.41471216800005,2816,6.41471216825785,2.97950579442032,d4c628a6-be84-41ac-a371-4c84ad42d0a1,LASBDY04,Ajido,25006,Badagry,LA,Lagos,Commerce_Factories_Industrial_Sites,Commerce_Factories_Industrial_Sites_LA_25006_LASBDY04_2816
2.98798184300006,6.41609909300007,2817,6.41609909257015,2.9879818429861,8da34283-9106-4bea-ac72-6dcbb9da748c,LASBDY04,Ajido,25006,Badagry,LA,Lagos,Commerce_Factories_Industrial_Sites,Commerce_Factories_Industrial_Sites_LA_25006_LASBDY04_2817
2.98695977400007,6.43494609100003,2818,6.43494609059726,2.98695977410053,8f8026cc-326e-4bd8-8db3-0f0626637e06,LASBDY04,Ajido,25006,Badagry,LA,Lagos,Commerce_Factories_Industrial_Sites,Commerce_Factories_Industrial_Sites_LA_25006_LASBDY04_2818
2.98905833300006,6.43538833300005,2819,6.435388333,2.989058333,875fb858-4abd-4d65-a21c-c040f7f7e47e,LASBDY04,Ajido,25006,Badagry,LA,Lagos,Commerce_Factories_Industrial_Sites,Commerce_Factories_Industrial_Sites_LA_25006_LASBDY04_2819
2.97594058300007,6.43667146500007,2820,6.43667146529997,2.97594058264385,18a44d99-857e-4b9c-8946-2f2029078570,LASBDY04,Ajido,25006,Badagry,LA,Lagos,Commerce_Factories_Industrial_Sites,Commerce_Factories_Industrial_Sites_LA_25006_LASBDY04_2820
2.97795221800004,6.43654027200006,2821,6.43654027199918,2.97795221762567,7dee3704-7791-46bb-a6b0-06966b7127c3,LASBDY04,Ajido,25006,Badagry,LA,Lagos,Commerce_Factories_Industrial_Sites,Commerce_Factories_Industrial_Sites_LA_25006_LASBDY04_2821
2.99843202300002,6.42940357900005,2822,6.42940357877603,2.99843202277654,34e8657d-1b8f-4c54-994c-1457d57aaecc,LASBDY04,Ajido,25006,Badagry,LA,Lagos,Commerce_Factories_Industrial_Sites,Commerce_Factories_Industrial_Sites_LA_25006_LASBDY04_2822
3.02475715000003,6.48054197700003,2823,6.48054197738031,3.02475714981711,daee6dc2-6d7f-4135-9f21-94650167d812,LASBDY08,Araromi-Ale,25006,Badagry,LA,Lagos,Commerce_Factories_Industrial_Sites,Commerce_Factories_Industrial_Sites_LA_25006_LASBDY08_2823
3.03417480000007,6.46335580000004,2824,6.4633558,3.0341748,006bb17c-b0fc-4b09-acc4-59250acdcfce,LASBDY08,Araromi-Ale,25006,Badagry,LA,Lagos,Commerce_Factories_Industrial_Sites,Commerce_Factories_Industrial_Sites_LA_25006_LASBDY08_2824
2.90986864100006,6.41307304500003,2825,6.41307304490791,2.90986864083102,6d2f941f-2c3e-4f27-9cce-ae9ed17b1e99,LASBDY09,Awhanjigoh,25006,Badagry,LA,Lagos,Commerce_Factories_Industrial_Sites,Commerce_Factories_Industrial_Sites_LA_25006_LASBDY09_2825
2.73069063300005,6.38255863300003,2826,6.38255863265734,2.73069063255722,b75c6ddd-a07b-4cd9-bd71-bf817dda1acf,LASBDY10,Gbethrome,25006,Badagry,LA,Lagos,Commerce_Factories_Industrial_Sites,Commerce_Factories_Industrial_Sites_LA_25006_LASBDY10_2826
3.05508666700007,6.48594333300002,2827,6.485943333,3.055086667,fa3a5c7d-eee5-4734-824a-cb4b4520f400,LASBDY11,Ibereko,25006,Badagry,LA,Lagos,Commerce_Factories_Industrial_Sites,Commerce_Factories_Industrial_Sites_LA_25006_LASBDY11_2827
3.08744833300005,6.50077333300004,2828,6.50077333333333,3.08744833333333,648342b2-7773-471a-a1b0-1a7204288c85,LASBDY11,Ibereko,25006,Badagry,LA,Lagos,Commerce_Factories_Industrial_Sites,Commerce_Factories_Industrial_Sites_LA_25006_LASBDY11_2828
3.08697500000005,6.50143166700008,2829,6.50143166666667,3.086975,7300af60-37fd-49a5-b8e4-f4321c520876,LASBDY11,Ibereko,25006,Badagry,LA,Lagos,Commerce_Factories_Industrial_Sites,Commerce_Factories_Industrial_Sites_LA_25006_LASBDY11_2829
3.01372188800002,6.50008640300007,2830,6.50008640348807,3.01372188812727,2d746248-254f-42cf-abd5-176206f4576a,LASBDY13,Ilogbo,25006,Badagry,LA,Lagos,Commerce_Factories_Industrial_Sites,Commerce_Factories_Industrial_Sites_LA_25006_LASBDY13_2830
3.00324500000005,6.49103000000002,2831,6.49103,3.003245,83787065-831d-42ac-86c0-f48d1bc4a8ae,LASBDY13,Ilogbo,25006,Badagry,LA,Lagos,Commerce_Factories_Industrial_Sites,Commerce_Factories_Industrial_Sites_LA_25006_LASBDY13_2831
3.02137568100005,6.49766214300007,2832,6.49766214343069,3.02137568147059,fbdf87ca-6702-40fe-827f-21b368a5698b,LASBDY13,Ilogbo,25006,Badagry,LA,Lagos,Commerce_Factories_Industrial_Sites,Commerce_Factories_Industrial_Sites_LA_25006_LASBDY13_2832
2.94036000000006,6.50746833300008,2833,6.50746833333333,2.94036,d0a76617-9efe-4edb-aee0-24ba2d41731e,LASBDY14,Isalu/Iyafin,25006,Badagry,LA,Lagos,Commerce_Factories_Industrial_Sites,Commerce_Factories_Industrial_Sites_LA_25006_LASBDY14_2833
2.91320419200002,6.48138437300003,2834,6.48138437289144,2.91320419199572,68e8d75c-b316-44f7-bb64-afa0b65f7918,LASBDY14,Isalu/Iyafin,25006,Badagry,LA,Lagos,Commerce_Factories_Industrial_Sites,Commerce_Factories_Industrial_Sites_LA_25006_LASBDY14_2834
2.93830220400002,6.50339713500006,2835,6.50339713542629,2.93830220350267,632a4714-9c03-4406-9bf2-8ba90148eb1c,LASBDY14,Isalu/Iyafin,25006,Badagry,LA,Lagos,Commerce_Factories_Industrial_Sites,Commerce_Factories_Industrial_Sites_LA_25006_LASBDY14_2835
2.94849333300004,6.48929166700003,2836,6.489291667,2.948493333,f233a76a-d67c-4a36-ba8a-3bc82a97560f,LASBDY14,Isalu/Iyafin,25006,Badagry,LA,Lagos,Commerce_Factories_Industrial_Sites,Commerce_Factories_Industrial_Sites_LA_25006_LASBDY14_2836
2.91160833300006,6.50105333300007,2837,6.501053333,2.911608333,70752130-b0c2-4081-9772-26c114d05b17,LASBDY14,Isalu/Iyafin,25006,Badagry,LA,Lagos,Commerce_Factories_Industrial_Sites,Commerce_Factories_Industrial_Sites_LA_25006_LASBDY14_2837
2.93380690000004,6.50775600000003,2838,6.507756,2.9338069,9f2be66b-dec2-4e3a-8570-f6a96e009984,LASBDY14,Isalu/Iyafin,25006,Badagry,LA,Lagos,Commerce_Factories_Industrial_Sites,Commerce_Factories_Industrial_Sites_LA_25006_LASBDY14_2838
2.94325333300003,6.50742500000007,2839,6.507425,2.94325333333333,3d294e36-ff95-4dc4-9f34-3086e96fb364,LASBDY14,Isalu/Iyafin,25006,Badagry,LA,Lagos,Commerce_Factories_Industrial_Sites,Commerce_Factories_Industrial_Sites_LA_25006_LASBDY14_2839
2.94325333300003,6.50727000000006,2840,6.50727,2.94325333333333,83fd6cb7-3a7a-4cc3-954f-d8a331555253,LASBDY14,Isalu/Iyafin,25006,Badagry,LA,Lagos,Commerce_Factories_Industrial_Sites,Commerce_Factories_Industrial_Sites_LA_25006_LASBDY14_2840
2.93834666700008,6.50989000000004,2841,6.50989,2.93834666666667,cc0149a4-eec8-41ef-a71a-f34857c12a39,LASBDY14,Isalu/Iyafin,25006,Badagry,LA,Lagos,Commerce_Factories_Industrial_Sites,Commerce_Factories_Industrial_Sites_LA_25006_LASBDY14_2841
3.00201542000002,6.42727037300006,2842,6.42727037276532,3.00201541978075,ab16a065-1d2d-4432-914f-9c40f24d4c94,LASBDY15,Iworo-Gbanko,25006,Badagry,LA,Lagos,Commerce_Factories_Industrial_Sites,Commerce_Factories_Industrial_Sites_LA_25006_LASBDY15_2842
2.99940898700004,6.42911566000004,2843,6.42911565961462,2.99940898677661,d14f063b-ce1d-45e1-b2f2-6f0b1189f846,LASBDY15,Iworo-Gbanko,25006,Badagry,LA,Lagos,Commerce_Factories_Industrial_Sites,Commerce_Factories_Industrial_Sites_LA_25006_LASBDY15_2843
2.98922842800005,6.45819532500008,2844,6.45819532474212,2.98922842805455,39f5f7c3-8aa9-4a31-90f9-fd6ab7786066,LASBDY15,Iworo-Gbanko,25006,Badagry,LA,Lagos,Commerce_Factories_Industrial_Sites,Commerce_Factories_Industrial_Sites_LA_25006_LASBDY15_2844
3.70989085200006,6.64335677500003,2845,6.64335677454862,3.7098908518209,1a590da9-ad1f-4ce0-945e-d8a92773d388,LASEPE02,Agbowa 2/Ado,25007,Epe,LA,Lagos,Commerce_Factories_Industrial_Sites,Commerce_Factories_Industrial_Sites_LA_25007_LASEPE02_2845
3.82645956200003,6.52242674800004,2846,6.52242674845025,3.82645956232406,8f44fc54-8db7-49a5-8d7d-7adefbc6054b,LASEPE12,Mayunre-Oriba/Orepete-Ito Omu,25007,Epe,LA,Lagos,Commerce_Factories_Industrial_Sites,Commerce_Factories_Industrial_Sites_LA_25007_LASEPE12_2846
3.83651500000002,6.51790000000005,2847,6.5179,3.836515,ece44ccd-d19d-427d-ae1e-78db854e05b6,LASEPE12,Mayunre-Oriba/Orepete-Ito Omu,25007,Epe,LA,Lagos,Commerce_Factories_Industrial_Sites,Commerce_Factories_Industrial_Sites_LA_25007_LASEPE12_2847
3.84058692400004,6.51773590700003,2848,6.51773590701238,3.84058692391765,862957d8-b746-4a76-a3d5-8958e6042ed2,LASEPE12,Mayunre-Oriba/Orepete-Ito Omu,25007,Epe,LA,Lagos,Commerce_Factories_Industrial_Sites,Commerce_Factories_Industrial_Sites_LA_25007_LASEPE12_2848
3.98435759200004,6.60819827800003,2849,6.60819827775981,3.98435759226524,75c4fee6-ab6c-4fcb-bf3d-f1a033e09619,LASEPE14,Odomola,25007,Epe,LA,Lagos,Commerce_Factories_Industrial_Sites,Commerce_Factories_Industrial_Sites_LA_25007_LASEPE14_2849
3.89072460500006,6.53589986700007,2850,6.53589986659386,3.89072460494545,a966c3a9-43cf-4567-a730-6cec5e9087b8,LASEPE16,Olugbokere/Abomiti,25007,Epe,LA,Lagos,Commerce_Factories_Industrial_Sites,Commerce_Factories_Industrial_Sites_LA_25007_LASEPE16_2850
3.43598042700006,6.43941102500003,2851,6.43941102521339,3.43598042670802,d3b84674-c364-40de-83fe-014e3853389a,LASEOA01,1004/Aboyade,25008,Eti Osa,LA,Lagos,Commerce_Factories_Industrial_Sites,Commerce_Factories_Industrial_Sites_LA_25008_LASEOA01_2851
3.43734787700004,6.43918453100002,2852,6.43918453065249,3.43734787742888,daadbb99-37d4-4537-8a9b-3190448f367b,LASEOA01,1004/Aboyade,25008,Eti Osa,LA,Lagos,Commerce_Factories_Industrial_Sites,Commerce_Factories_Industrial_Sites_LA_25008_LASEOA01_2852
3.59530114700004,6.49303352200008,2853,6.49303352155664,3.59530114739251,9eebed68-b35a-4960-b0e6-46d5eef07301,LASEOA02,Addo/Okeira,25008,Eti Osa,LA,Lagos,Commerce_Factories_Industrial_Sites,Commerce_Factories_Industrial_Sites_LA_25008_LASEOA02_2853
3.56051223600002,6.46557019500005,2854,6.46557019498892,3.56051223552085,f3065038-f3cd-4ea7-9307-f2d46e90d587,LASEOA03,Ajah,25008,Eti Osa,LA,Lagos,Commerce_Factories_Industrial_Sites,Commerce_Factories_Industrial_Sites_LA_25008_LASEOA03_2854
3.43544043800006,6.44445001700007,2855,6.44445001700176,3.43544043767594,58b65903-fbc4-4274-bc44-d5b4fd667c8d,LASEOA07,Falomo/Oyinkan Abayomi,25008,Eti Osa,LA,Lagos,Commerce_Factories_Industrial_Sites,Commerce_Factories_Industrial_Sites_LA_25008_LASEOA07_2855
3.52910621400002,6.42840755200007,2856,6.42840755199105,3.52910621375829,d2740350-9de1-4002-86af-f08759c41a01,LASEOA08,Igbo-Efon/Maiyegun,25008,Eti Osa,LA,Lagos,Commerce_Factories_Industrial_Sites,Commerce_Factories_Industrial_Sites_LA_25008_LASEOA08_2856
3.53005493900002,6.42396201200006,2857,6.42396201241829,3.5300549388492,3afb9aa5-affa-41d6-bfd0-f49e0ede1960,LASEOA08,Igbo-Efon/Maiyegun,25008,Eti Osa,LA,Lagos,Commerce_Factories_Industrial_Sites,Commerce_Factories_Industrial_Sites_LA_25008_LASEOA08_2857
3.52999360000007,6.42447780000003,2858,6.4244778,3.5299936,c9c7b6b3-6a01-42dd-847f-5b2ecdfadfeb,LASEOA08,Igbo-Efon/Maiyegun,25008,Eti Osa,LA,Lagos,Commerce_Factories_Industrial_Sites,Commerce_Factories_Industrial_Sites_LA_25008_LASEOA08_2858
3.48432242600006,6.44819405300007,2859,6.44819405267598,3.48432242562995,0f55960e-0990-4426-8ba9-9912dfef8dbf,LASEOA10,Ikate/Lekki,25008,Eti Osa,LA,Lagos,Commerce_Factories_Industrial_Sites,Commerce_Factories_Industrial_Sites_LA_25008_LASEOA10_2859
3.48559714000004,6.43077284900005,2860,6.43077284916705,3.48559714046631,e20048e0-a57e-4f5c-9428-3d85f11e8b1f,LASEOA13,Ilasan/Orile,25008,Eti Osa,LA,Lagos,Commerce_Factories_Industrial_Sites,Commerce_Factories_Industrial_Sites_LA_25008_LASEOA13_2860
3.60636390000008,6.44474870000005,2861,6.4447487,3.6063639,e17e0b56-83fc-4334-b027-3573db549bdd,LASEOA17,Okun Ajah/Okunmopo,25008,Eti Osa,LA,Lagos,Commerce_Factories_Industrial_Sites,Commerce_Factories_Industrial_Sites_LA_25008_LASEOA17_2861
3.66194160000003,6.46748670000005,2862,6.4674867,3.6619416,7b986819-5498-4b3b-bd32-0c3c7e66f99c,LASEOA18,Sangotedo,25008,Eti Osa,LA,Lagos,Commerce_Factories_Industrial_Sites,Commerce_Factories_Industrial_Sites_LA_25008_LASEOA18_2862
3.60717758300007,6.47538280100002,2863,6.4753828010422,3.60717758291337,baad6c20-dc13-4b27-ba40-31340eb5dc35,LASEOA18,Sangotedo,25008,Eti Osa,LA,Lagos,Commerce_Factories_Industrial_Sites,Commerce_Factories_Industrial_Sites_LA_25008_LASEOA18_2863
3.89048214900004,6.53458080200005,2864,6.53458080175552,3.89048214900963,b8b51702-827c-4cee-ab86-9889dfa6c8a6,LASIUI01,Ibeju 1,25009,Ibeju Lekki,LA,Lagos,Commerce_Factories_Industrial_Sites,Commerce_Factories_Industrial_Sites_LA_25009_LASIUI01_2864
3.89381535700005,6.53204245000006,2865,6.53204244996658,3.89381535674439,822685d7-693f-4b41-b65a-70db76f2b558,LASIUI01,Ibeju 1,25009,Ibeju Lekki,LA,Lagos,Commerce_Factories_Industrial_Sites,Commerce_Factories_Industrial_Sites_LA_25009_LASIUI01_2865
3.86620980600003,6.48592530800005,2866,6.48592530813834,3.86620980611872,fa5be9b2-a7b1-4aba-a434-50ded26b2975,LASIUI01,Ibeju 1,25009,Ibeju Lekki,LA,Lagos,Commerce_Factories_Industrial_Sites,Commerce_Factories_Industrial_Sites_LA_25009_LASIUI01_2866
3.89017705000003,6.51625453000003,2867,6.51625452999372,3.89017704954866,2906d0c3-5d87-4558-abbb-f19b3c2c4d20,LASIUI01,Ibeju 1,25009,Ibeju Lekki,LA,Lagos,Commerce_Factories_Industrial_Sites,Commerce_Factories_Industrial_Sites_LA_25009_LASIUI01_2867
3.89084690700003,6.51933448400007,2868,6.51933448358244,3.89084690746524,dcd94c0a-5280-4e4e-a74d-d55200c3ab4a,LASIUI01,Ibeju 1,25009,Ibeju Lekki,LA,Lagos,Commerce_Factories_Industrial_Sites,Commerce_Factories_Industrial_Sites_LA_25009_LASIUI01_2868
3.89316589500004,6.53053251900008,2869,6.53053251851024,3.89316589532406,72d1c91c-df0b-47e9-9fc6-01e23c7dee77,LASIUI01,Ibeju 1,25009,Ibeju Lekki,LA,Lagos,Commerce_Factories_Industrial_Sites,Commerce_Factories_Industrial_Sites_LA_25009_LASIUI01_2869
3.89127271400002,6.53431230000007,2870,6.53431230029881,3.89127271375829,50971a8e-85e6-4642-b615-d501545ae45f,LASIUI01,Ibeju 1,25009,Ibeju Lekki,LA,Lagos,Commerce_Factories_Industrial_Sites,Commerce_Factories_Industrial_Sites_LA_25009_LASIUI01_2870
3.78111635700003,6.47982401900003,2871,6.47982401906835,3.7811163570139,4b674384-3579-4852-b76e-929ff4fee1d3,LASIUI02,Ibeju 2,25009,Ibeju Lekki,LA,Lagos,Commerce_Factories_Industrial_Sites,Commerce_Factories_Industrial_Sites_LA_25009_LASIUI02_2871
3.84231953000005,6.47809471600004,2872,6.47809471585192,3.84231953030588,10a44d78-bbc2-443c-882f-6a266a587d3a,LASIUI02,Ibeju 2,25009,Ibeju Lekki,LA,Lagos,Commerce_Factories_Industrial_Sites,Commerce_Factories_Industrial_Sites_LA_25009_LASIUI02_2872
3.79273368600008,6.47194610700006,2873,6.47194610686008,3.79273368597219,8c4f3ddd-6e28-47fe-8780-8ad9d1f043e5,LASIUI02,Ibeju 2,25009,Ibeju Lekki,LA,Lagos,Commerce_Factories_Industrial_Sites,Commerce_Factories_Industrial_Sites_LA_25009_LASIUI02_2873
3.79658833300005,6.48171333300007,2874,6.481713333,3.796588333,ece9250f-3b46-4938-85e3-6482321a1d60,LASIUI02,Ibeju 2,25009,Ibeju Lekki,LA,Lagos,Commerce_Factories_Industrial_Sites,Commerce_Factories_Industrial_Sites_LA_25009_LASIUI02_2874
3.84720500000003,6.47774000000004,2875,6.47774,3.847205,5a07e549-4e50-493f-aeaf-0670e51129bf,LASIUI02,Ibeju 2,25009,Ibeju Lekki,LA,Lagos,Commerce_Factories_Industrial_Sites,Commerce_Factories_Industrial_Sites_LA_25009_LASIUI02_2875
3.78260360000007,6.48116810000005,2876,6.4811681,3.7826036,176b8fd7-3510-4cf9-9dc1-9d22e270832f,LASIUI02,Ibeju 2,25009,Ibeju Lekki,LA,Lagos,Commerce_Factories_Industrial_Sites,Commerce_Factories_Industrial_Sites_LA_25009_LASIUI02_2876
3.67752439700007,6.46135941900008,2877,6.46135941891588,3.67752439667166,53b57857-9196-4daa-8711-99985a8d49fe,LASIUI04,Iwerekun 1,25009,Ibeju Lekki,LA,Lagos,Commerce_Factories_Industrial_Sites,Commerce_Factories_Industrial_Sites_LA_25009_LASIUI04_2877
3.73677190800004,6.46783469300004,2878,6.46783469294959,3.73677190800428,b1449c0b-4aed-408a-b88d-ff5406cf8c6d,LASIUI04,Iwerekun 1,25009,Ibeju Lekki,LA,Lagos,Commerce_Factories_Industrial_Sites,Commerce_Factories_Industrial_Sites_LA_25009_LASIUI04_2878
3.72392690000004,6.47293030000003,2879,6.4729303,3.7239269,38f34dfe-a1ec-433d-bd59-ef832966455e,LASIUI04,Iwerekun 1,25009,Ibeju Lekki,LA,Lagos,Commerce_Factories_Industrial_Sites,Commerce_Factories_Industrial_Sites_LA_25009_LASIUI04_2879
3.69817666700004,6.47459000000003,2880,6.47459,3.698176667,2204b417-704b-4d58-8896-90eacdd9cc1d,LASIUI04,Iwerekun 1,25009,Ibeju Lekki,LA,Lagos,Commerce_Factories_Industrial_Sites,Commerce_Factories_Industrial_Sites_LA_25009_LASIUI04_2880
3.69799849200007,6.46975811900006,2881,6.46975811913065,3.69799849209091,ca07253f-4532-4038-a57a-08c5385d5a21,LASIUI04,Iwerekun 1,25009,Ibeju Lekki,LA,Lagos,Commerce_Factories_Industrial_Sites,Commerce_Factories_Industrial_Sites_LA_25009_LASIUI04_2881
3.71286781000003,6.47061841400006,2882,6.47061841423976,3.71286780985906,c77d9649-d9e7-4e61-b5be-4b9a6f950e4d,LASIUI04,Iwerekun 1,25009,Ibeju Lekki,LA,Lagos,Commerce_Factories_Industrial_Sites,Commerce_Factories_Industrial_Sites_LA_25009_LASIUI04_2882
3.66079505200003,6.44320944200007,2883,6.44320944236464,3.66079505152941,2fe27c85-437d-4c78-a355-632f9d315f2e,LASIUI04,Iwerekun 1,25009,Ibeju Lekki,LA,Lagos,Commerce_Factories_Industrial_Sites,Commerce_Factories_Industrial_Sites_LA_25009_LASIUI04_2883
3.65994099600005,6.44230871400003,2884,6.44230871414493,3.6599409958631,fcda8ca4-3044-40e8-b8d2-9120051d98d3,LASIUI04,Iwerekun 1,25009,Ibeju Lekki,LA,Lagos,Commerce_Factories_Industrial_Sites,Commerce_Factories_Industrial_Sites_LA_25009_LASIUI04_2884
3.73694000000006,6.47433970600002,2885,6.47433970616776,3.73694,d342340a-8e14-400b-90e3-96cef8b7c5e1,LASIUI04,Iwerekun 1,25009,Ibeju Lekki,LA,Lagos,Commerce_Factories_Industrial_Sites,Commerce_Factories_Industrial_Sites_LA_25009_LASIUI04_2885
3.73348072800007,6.46279204800004,2886,6.46279204805259,3.73348072761176,cf60846a-8a70-4f8a-a8fb-e629f79a6cc8,LASIUI04,Iwerekun 1,25009,Ibeju Lekki,LA,Lagos,Commerce_Factories_Industrial_Sites,Commerce_Factories_Industrial_Sites_LA_25009_LASIUI04_2886
3.73578666700007,6.47368166700005,2887,6.473681667,3.735786667,ea4b11b4-67ec-4560-abe3-79ddd9a4679d,LASIUI04,Iwerekun 1,25009,Ibeju Lekki,LA,Lagos,Commerce_Factories_Industrial_Sites,Commerce_Factories_Industrial_Sites_LA_25009_LASIUI04_2887
3.70895472400002,6.47092412200004,2888,6.47092412234003,3.70895472418717,daf1589e-a2b3-4850-9eef-45e62410b87a,LASIUI04,Iwerekun 1,25009,Ibeju Lekki,LA,Lagos,Commerce_Factories_Industrial_Sites,Commerce_Factories_Industrial_Sites_LA_25009_LASIUI04_2888
3.70695959800003,6.47027745600008,2889,6.47027745556469,3.70695959811444,a13049de-4d0f-4802-ae78-096c53feb9a3,LASIUI04,Iwerekun 1,25009,Ibeju Lekki,LA,Lagos,Commerce_Factories_Industrial_Sites,Commerce_Factories_Industrial_Sites_LA_25009_LASIUI04_2889
3.70704788600005,6.45913233200002,2890,6.45913233218501,3.70704788597219,c556310b-ca34-41e7-a24b-9865c0e84abd,LASIUI04,Iwerekun 1,25009,Ibeju Lekki,LA,Lagos,Commerce_Factories_Industrial_Sites,Commerce_Factories_Industrial_Sites_LA_25009_LASIUI04_2890
3.70300183000006,6.45452150800003,2891,6.4545215081506,3.70300182976685,a2ecda77-6e68-44a7-a140-c10e78b67e0a,LASIUI04,Iwerekun 1,25009,Ibeju Lekki,LA,Lagos,Commerce_Factories_Industrial_Sites,Commerce_Factories_Industrial_Sites_LA_25009_LASIUI04_2891
3.71042490900004,6.46038770600006,2892,6.46038770596796,3.71042490854332,786a5980-a791-4b92-9ce3-4a366e474997,LASIUI04,Iwerekun 1,25009,Ibeju Lekki,LA,Lagos,Commerce_Factories_Industrial_Sites,Commerce_Factories_Industrial_Sites_LA_25009_LASIUI04_2892
3.71566174800006,6.45296772500006,2893,6.4529677246076,3.71566174793155,1439310c-5905-4dd8-a3f4-ec5014738f93,LASIUI04,Iwerekun 1,25009,Ibeju Lekki,LA,Lagos,Commerce_Factories_Industrial_Sites,Commerce_Factories_Industrial_Sites_LA_25009_LASIUI04_2893
3.72003657200003,6.46644579000002,2894,6.46644579049045,3.72003657194545,d56dc697-eb67-41d0-a134-f909bcf91b93,LASIUI04,Iwerekun 1,25009,Ibeju Lekki,LA,Lagos,Commerce_Factories_Industrial_Sites,Commerce_Factories_Industrial_Sites_LA_25009_LASIUI04_2894
3.69681166700002,6.46558666700003,2895,6.465586667,3.696811667,f39c9c26-fb45-48f2-b835-7ff631d3f5df,LASIUI04,Iwerekun 1,25009,Ibeju Lekki,LA,Lagos,Commerce_Factories_Industrial_Sites,Commerce_Factories_Industrial_Sites_LA_25009_LASIUI04_2895
3.69497500000006,6.46475333300003,2896,6.464753333,3.694975,c828b473-875a-45c4-904c-d11ae58d416c,LASIUI04,Iwerekun 1,25009,Ibeju Lekki,LA,Lagos,Commerce_Factories_Industrial_Sites,Commerce_Factories_Industrial_Sites_LA_25009_LASIUI04_2896
3.67835566400004,6.46186366100005,2897,6.46186366107778,3.67835566376707,d8ea832e-9157-45f0-9803-806ad4415f26,LASIUI04,Iwerekun 1,25009,Ibeju Lekki,LA,Lagos,Commerce_Factories_Industrial_Sites,Commerce_Factories_Industrial_Sites_LA_25009_LASIUI04_2897
3.67463536600008,6.46089764800007,2898,6.4608976477684,3.67463536609626,c1304621-4add-4ab2-9637-36ed78d15f2d,LASIUI04,Iwerekun 1,25009,Ibeju Lekki,LA,Lagos,Commerce_Factories_Industrial_Sites,Commerce_Factories_Industrial_Sites_LA_25009_LASIUI04_2898
3.67305302200003,6.46153627100006,2899,6.46153627110012,3.67305302176257,118f6bb7-8c27-4922-ba8f-8d28fbf35edb,LASIUI04,Iwerekun 1,25009,Ibeju Lekki,LA,Lagos,Commerce_Factories_Industrial_Sites,Commerce_Factories_Industrial_Sites_LA_25009_LASIUI04_2899
3.67291718200005,6.46385640200003,2900,6.46385640172514,3.67291718156578,841bb76c-6cda-460c-83b2-252991f695b1,LASIUI04,Iwerekun 1,25009,Ibeju Lekki,LA,Lagos,Commerce_Factories_Industrial_Sites,Commerce_Factories_Industrial_Sites_LA_25009_LASIUI04_2900
3.67170885100006,6.46363073600003,2901,6.4636307363344,3.67170885099037,04a66e0b-be65-440d-8b14-a181036421f6,LASIUI04,Iwerekun 1,25009,Ibeju Lekki,LA,Lagos,Commerce_Factories_Industrial_Sites,Commerce_Factories_Industrial_Sites_LA_25009_LASIUI04_2901
3.66908317900004,6.46495379600003,2902,6.46495379613392,3.66908317870999,4a40e017-c161-4387-bf25-51f682bc7975,LASIUI04,Iwerekun 1,25009,Ibeju Lekki,LA,Lagos,Commerce_Factories_Industrial_Sites,Commerce_Factories_Industrial_Sites_LA_25009_LASIUI04_2902
3.66824252700007,6.46528457900007,2903,6.46528457871015,3.66824252723611,06eb9eda-748c-46eb-8d5c-4058cf3881f8,LASIUI04,Iwerekun 1,25009,Ibeju Lekki,LA,Lagos,Commerce_Factories_Industrial_Sites,Commerce_Factories_Industrial_Sites_LA_25009_LASIUI04_2903
3.66786250000007,6.46535250000005,2904,6.4653525,3.6678625,17dcce5e-b7d1-48fb-8778-0b3cfb24ce53,LASIUI04,Iwerekun 1,25009,Ibeju Lekki,LA,Lagos,Commerce_Factories_Industrial_Sites,Commerce_Factories_Industrial_Sites_LA_25009_LASIUI04_2904
3.66499212000002,6.46720238500006,2905,6.46720238501341,3.66499212041497,898af10b-fed9-415c-9db1-f5718bd8dd46,LASIUI04,Iwerekun 1,25009,Ibeju Lekki,LA,Lagos,Commerce_Factories_Industrial_Sites,Commerce_Factories_Industrial_Sites_LA_25009_LASIUI04_2905
3.72477750000007,6.47304000000003,2906,6.47304,3.7247775,7472b117-d32f-4dc6-8974-d384b5827ff8,LASIUI04,Iwerekun 1,25009,Ibeju Lekki,LA,Lagos,Commerce_Factories_Industrial_Sites,Commerce_Factories_Industrial_Sites_LA_25009_LASIUI04_2906
3.72198874800006,6.47295395100002,2907,6.47295395122355,3.72198874847059,64f59dda-814a-43d5-ad4a-87e42ff8d422,LASIUI04,Iwerekun 1,25009,Ibeju Lekki,LA,Lagos,Commerce_Factories_Industrial_Sites,Commerce_Factories_Industrial_Sites_LA_25009_LASIUI04_2907
3.72130701700007,6.47288997600003,2908,6.47288997617633,3.72130701735615,712e001f-13b8-42f0-b2e9-2aed86aa2caf,LASIUI04,Iwerekun 1,25009,Ibeju Lekki,LA,Lagos,Commerce_Factories_Industrial_Sites,Commerce_Factories_Industrial_Sites_LA_25009_LASIUI04_2908
3.71900436100003,6.47265751800006,2909,6.47265751847548,3.71900436142032,6d11fc26-b7cf-4f2c-a7c2-e6d482bc1534,LASIUI04,Iwerekun 1,25009,Ibeju Lekki,LA,Lagos,Commerce_Factories_Industrial_Sites,Commerce_Factories_Industrial_Sites_LA_25009_LASIUI04_2909
3.71753065600006,6.47250818500004,2910,6.47250818511286,3.71753065620535,5e59dcac-187a-4797-868b-f8e6162b416c,LASIUI04,Iwerekun 1,25009,Ibeju Lekki,LA,Lagos,Commerce_Factories_Industrial_Sites,Commerce_Factories_Industrial_Sites_LA_25009_LASIUI04_2910
3.72132791700005,6.47214648800002,2911,6.47214648762107,3.72132791683043,3d6aa961-8729-4360-9c20-e26ca45ce989,LASIUI04,Iwerekun 1,25009,Ibeju Lekki,LA,Lagos,Commerce_Factories_Industrial_Sites,Commerce_Factories_Industrial_Sites_LA_25009_LASIUI04_2911
3.72191075700005,6.47240951200007,2912,6.47240951192013,3.7219107570139,4023aa6c-ad53-4334-9445-4bbd58263646,LASIUI04,Iwerekun 1,25009,Ibeju Lekki,LA,Lagos,Commerce_Factories_Industrial_Sites,Commerce_Factories_Industrial_Sites_LA_25009_LASIUI04_2912
3.72223622200005,6.47235718700006,2913,6.47235718698405,3.72223622176257,865e8f22-cace-407f-adc0-d57b3f895b4d,LASIUI04,Iwerekun 1,25009,Ibeju Lekki,LA,Lagos,Commerce_Factories_Industrial_Sites,Commerce_Factories_Industrial_Sites_LA_25009_LASIUI04_2913
3.72394246100004,6.47237552300004,2914,6.47237552252232,3.72394246088128,d8153fd8-03a1-48d4-b783-05265494b096,LASIUI04,Iwerekun 1,25009,Ibeju Lekki,LA,Lagos,Commerce_Factories_Industrial_Sites,Commerce_Factories_Industrial_Sites_LA_25009_LASIUI04_2914
3.68922056900004,6.46263241100007,2915,6.46263241096132,3.68922056852086,3c382735-8bec-4e94-a54d-45abd879b788,LASIUI04,Iwerekun 1,25009,Ibeju Lekki,LA,Lagos,Commerce_Factories_Industrial_Sites,Commerce_Factories_Industrial_Sites_LA_25009_LASIUI04_2915
3.68446288500007,6.46036316800007,2916,6.46036316841787,3.68446288506393,ffa8539c-2d69-4e2c-be11-5c8d633c43e3,LASIUI04,Iwerekun 1,25009,Ibeju Lekki,LA,Lagos,Commerce_Factories_Industrial_Sites,Commerce_Factories_Industrial_Sites_LA_25009_LASIUI04_2916
3.68406566100003,6.46090442600007,2917,6.46090442594612,3.68406566138217,001a5124-6f66-457f-ac1b-c4f1fde6a61a,LASIUI04,Iwerekun 1,25009,Ibeju Lekki,LA,Lagos,Commerce_Factories_Industrial_Sites,Commerce_Factories_Industrial_Sites_LA_25009_LASIUI04_2917
3.68353314700005,6.46038962800003,2918,6.46038962845466,3.6835331466344,3dc2188a-6446-476a-a173-872a66f5d3e9,LASIUI04,Iwerekun 1,25009,Ibeju Lekki,LA,Lagos,Commerce_Factories_Industrial_Sites,Commerce_Factories_Industrial_Sites_LA_25009_LASIUI04_2918
3.68321000000003,6.46071833300005,2919,6.460718333,3.68321,26ed8391-ad6d-4336-a1c4-91ff90bdf3cf,LASIUI04,Iwerekun 1,25009,Ibeju Lekki,LA,Lagos,Commerce_Factories_Industrial_Sites,Commerce_Factories_Industrial_Sites_LA_25009_LASIUI04_2919
3.68301398700004,6.46083615000003,2920,6.4608361503055,3.68301398677661,ee4fe76f-1d15-45aa-a102-f0c8ddc1196c,LASIUI04,Iwerekun 1,25009,Ibeju Lekki,LA,Lagos,Commerce_Factories_Industrial_Sites,Commerce_Factories_Industrial_Sites_LA_25009_LASIUI04_2920
3.68244283400003,6.46037566500007,2921,6.46037566492501,3.68244283353051,709ef6f8-3742-454d-9ed2-a62848ac7549,LASIUI04,Iwerekun 1,25009,Ibeju Lekki,LA,Lagos,Commerce_Factories_Industrial_Sites,Commerce_Factories_Industrial_Sites_LA_25009_LASIUI04_2921
3.70749385300007,6.46362354800004,2922,6.46362354783033,3.70749385260749,07773327-d448-4b62-839a-185a73dfc6ae,LASIUI04,Iwerekun 1,25009,Ibeju Lekki,LA,Lagos,Commerce_Factories_Industrial_Sites,Commerce_Factories_Industrial_Sites_LA_25009_LASIUI04_2922
3.77403500000003,6.47441166700003,2923,6.474411667,3.774035,c5fb94fa-8720-42c9-bc4c-5637b283f246,LASIUI05,Iwerekun 2,25009,Ibeju Lekki,LA,Lagos,Commerce_Factories_Industrial_Sites,Commerce_Factories_Industrial_Sites_LA_25009_LASIUI05_2923
3.74939053800006,6.47504968900006,2924,6.47504968881947,3.74939053804064,6d563691-218f-460c-aef6-bb6d52ac57cf,LASIUI05,Iwerekun 2,25009,Ibeju Lekki,LA,Lagos,Commerce_Factories_Industrial_Sites,Commerce_Factories_Industrial_Sites_LA_25009_LASIUI05_2924
3.76223671600007,6.47600002200005,2925,6.4760000224147,3.76223671591337,c7fbb618-bb48-4f70-a7f2-4e03c2c49f51,LASIUI05,Iwerekun 2,25009,Ibeju Lekki,LA,Lagos,Commerce_Factories_Industrial_Sites,Commerce_Factories_Industrial_Sites_LA_25009_LASIUI05_2925
3.76323000000002,6.47597500000006,2926,6.475975,3.76323,58273235-048d-47d6-bba9-bb8df31be5e0,LASIUI05,Iwerekun 2,25009,Ibeju Lekki,LA,Lagos,Commerce_Factories_Industrial_Sites,Commerce_Factories_Industrial_Sites_LA_25009_LASIUI05_2926
3.76416001400003,6.47493435700005,2927,6.47493435729871,3.76416001412299,f823e15b-d026-420c-8a1e-03d4a513e4c5,LASIUI05,Iwerekun 2,25009,Ibeju Lekki,LA,Lagos,Commerce_Factories_Industrial_Sites,Commerce_Factories_Industrial_Sites_LA_25009_LASIUI05_2927
3.76318071300005,6.47996559500007,2928,6.4799655953451,3.76318071348877,47cc5cc3-a596-433a-b76b-59816bd9072c,LASIUI05,Iwerekun 2,25009,Ibeju Lekki,LA,Lagos,Commerce_Factories_Industrial_Sites,Commerce_Factories_Industrial_Sites_LA_25009_LASIUI05_2928
3.76488833300004,6.47987166700005,2929,6.479871667,3.764888333,72ba42be-e3b5-446e-818f-ca24f184a9d1,LASIUI05,Iwerekun 2,25009,Ibeju Lekki,LA,Lagos,Commerce_Factories_Industrial_Sites,Commerce_Factories_Industrial_Sites_LA_25009_LASIUI05_2929
3.77030338300006,6.47501114000005,2930,6.47501113987033,3.77030338291337,4c5612d0-75f4-4178-a79b-9468a4f6d6e1,LASIUI05,Iwerekun 2,25009,Ibeju Lekki,LA,Lagos,Commerce_Factories_Industrial_Sites,Commerce_Factories_Industrial_Sites_LA_25009_LASIUI05_2930
3.76560140900006,6.47919485600005,2931,6.47919485566572,3.76560140908235,a25e023e-8550-4707-8ead-68e8f5944c28,LASIUI05,Iwerekun 2,25009,Ibeju Lekki,LA,Lagos,Commerce_Factories_Industrial_Sites,Commerce_Factories_Industrial_Sites_LA_25009_LASIUI05_2931
3.77006644100004,6.47581762400006,2932,6.47581762440176,3.77006644110053,06b8b5d6-bff9-4854-b7dd-b984d5eddbda,LASIUI05,Iwerekun 2,25009,Ibeju Lekki,LA,Lagos,Commerce_Factories_Industrial_Sites,Commerce_Factories_Industrial_Sites_LA_25009_LASIUI05_2932
3.75647979900003,6.46839379700003,2933,6.46839379676802,3.75647979919144,b3d7a91a-0f8c-458a-8a85-86ca7e57d60a,LASIUI05,Iwerekun 2,25009,Ibeju Lekki,LA,Lagos,Commerce_Factories_Industrial_Sites,Commerce_Factories_Industrial_Sites_LA_25009_LASIUI05_2933
3.75408979200006,6.46909356900005,2934,6.46909356856722,3.7540897917262,037c5e4e-75b3-4921-8093-70110f4a53a4,LASIUI05,Iwerekun 2,25009,Ibeju Lekki,LA,Lagos,Commerce_Factories_Industrial_Sites,Commerce_Factories_Industrial_Sites_LA_25009_LASIUI05_2934
3.76397503200008,6.47666591000007,2935,6.47666591039464,3.76397503201818,46ca6507-ca9a-4883-91e4-f5765c563773,LASIUI05,Iwerekun 2,25009,Ibeju Lekki,LA,Lagos,Commerce_Factories_Industrial_Sites,Commerce_Factories_Industrial_Sites_LA_25009_LASIUI05_2935
3.77605386700003,6.47332870200006,2936,6.47332870235718,3.77605386673048,a464689d-6c95-4d64-889a-7be46e6a14a0,LASIUI05,Iwerekun 2,25009,Ibeju Lekki,LA,Lagos,Commerce_Factories_Industrial_Sites,Commerce_Factories_Industrial_Sites_LA_25009_LASIUI05_2936
3.78318606500005,6.47224247400004,2937,6.47224247361841,3.7831860652877,1a3c2023-444f-403e-a3b3-1ef34b48d0d3,LASIUI05,Iwerekun 2,25009,Ibeju Lekki,LA,Lagos,Commerce_Factories_Industrial_Sites,Commerce_Factories_Industrial_Sites_LA_25009_LASIUI05_2937
3.78226938700004,6.47243912700003,2938,6.47243912666974,3.78226938731979,000b39d0-ba96-4d62-91f3-52bef3d64890,LASIUI05,Iwerekun 2,25009,Ibeju Lekki,LA,Lagos,Commerce_Factories_Industrial_Sites,Commerce_Factories_Industrial_Sites_LA_25009_LASIUI05_2938
3.75124190000003,6.47563650000006,2939,6.4756365,3.7512419,9d154546-fdf7-45f4-acc1-7486468b06e0,LASIUI05,Iwerekun 2,25009,Ibeju Lekki,LA,Lagos,Commerce_Factories_Industrial_Sites,Commerce_Factories_Industrial_Sites_LA_25009_LASIUI05_2939
3.75751215800005,6.47589809500005,2940,6.47589809547418,3.75751215845562,ea93752b-9193-4fd4-aaf6-23027cd828ae,LASIUI05,Iwerekun 2,25009,Ibeju Lekki,LA,Lagos,Commerce_Factories_Industrial_Sites,Commerce_Factories_Industrial_Sites_LA_25009_LASIUI05_2940
3.75559061100006,6.47549952200006,2941,6.47549952203201,3.75559061138827,a69ccf94-43f7-499d-a7a8-9faf7da8d6b4,LASIUI05,Iwerekun 2,25009,Ibeju Lekki,LA,Lagos,Commerce_Factories_Industrial_Sites,Commerce_Factories_Industrial_Sites_LA_25009_LASIUI05_2941
3.75960856100005,6.47348108600005,2942,6.47348108604335,3.75960856142032,9d5fe2e7-96bb-4052-a7b0-d386e6af9621,LASIUI05,Iwerekun 2,25009,Ibeju Lekki,LA,Lagos,Commerce_Factories_Industrial_Sites,Commerce_Factories_Industrial_Sites_LA_25009_LASIUI05_2942
3.75952593900007,6.47108754700002,2943,6.47108754669724,3.75952593910302,f74fbe2f-588f-43e9-bc62-c0e220dafa4a,LASIUI05,Iwerekun 2,25009,Ibeju Lekki,LA,Lagos,Commerce_Factories_Industrial_Sites,Commerce_Factories_Industrial_Sites_LA_25009_LASIUI05_2943
4.09953396400005,6.41341945500005,2944,6.41341945543932,4.09953396376707,824d2e5f-8754-46d6-9b50-98e43c0af832,LASIUI06,Lekki 1,25009,Ibeju Lekki,LA,Lagos,Commerce_Factories_Industrial_Sites,Commerce_Factories_Industrial_Sites_LA_25009_LASIUI06_2944
4.12539590700004,6.41169613100004,2945,6.41169613111663,4.12539590737005,02a3cabb-33fd-4e21-80f1-dc8838bcfeb9,LASIUI06,Lekki 1,25009,Ibeju Lekki,LA,Lagos,Commerce_Factories_Industrial_Sites,Commerce_Factories_Industrial_Sites_LA_25009_LASIUI06_2945
4.11685333300005,6.41237166700006,2946,6.412371667,4.116853333,0ad5111f-eaa7-4451-8f77-607afa2c851a,LASIUI06,Lekki 1,25009,Ibeju Lekki,LA,Lagos,Commerce_Factories_Industrial_Sites,Commerce_Factories_Industrial_Sites_LA_25009_LASIUI06_2946
4.05468120000006,6.42148970000005,2947,6.4214897,4.0546812,223bcd09-7f12-4d56-86c1-a86388743a8a,LASIUI06,Lekki 1,25009,Ibeju Lekki,LA,Lagos,Commerce_Factories_Industrial_Sites,Commerce_Factories_Industrial_Sites_LA_25009_LASIUI06_2947
4.11674094900008,6.41380658500003,2948,6.41380658509063,4.11674094873904,7379a740-a75e-4fd6-9edb-0a940bccb961,LASIUI06,Lekki 1,25009,Ibeju Lekki,LA,Lagos,Commerce_Factories_Industrial_Sites,Commerce_Factories_Industrial_Sites_LA_25009_LASIUI06_2948
3.99931107000003,6.43213314200005,2949,6.43213314228175,3.99931107023315,38a647ec-b966-465d-a64a-f6ff834d38e1,LASIUI06,Lekki 1,25009,Ibeju Lekki,LA,Lagos,Commerce_Factories_Industrial_Sites,Commerce_Factories_Industrial_Sites_LA_25009_LASIUI06_2949
4.10511061500006,6.41156690000003,2950,6.41156690035794,4.10511061466203,f7a35180-0120-4dc7-878f-bbc23dd342e5,LASIUI06,Lekki 1,25009,Ibeju Lekki,LA,Lagos,Commerce_Factories_Industrial_Sites,Commerce_Factories_Industrial_Sites_LA_25009_LASIUI06_2950
4.09077533500005,6.41587957100006,2951,6.41587957068645,4.0907753347123,d1dc00a4-1e0a-48e2-a32b-573728de3fc4,LASIUI06,Lekki 1,25009,Ibeju Lekki,LA,Lagos,Commerce_Factories_Industrial_Sites,Commerce_Factories_Industrial_Sites_LA_25009_LASIUI06_2951
4.07579795800007,6.41890387000007,2952,6.41890386952104,4.07579795755294,96aeb652-bca4-48f4-8654-b5bf1ee34cc1,LASIUI06,Lekki 1,25009,Ibeju Lekki,LA,Lagos,Commerce_Factories_Industrial_Sites,Commerce_Factories_Industrial_Sites_LA_25009_LASIUI06_2952
4.07462166700003,6.41969166700005,2953,6.419691667,4.074621667,61c0364e-374b-46c1-b3ef-79783447a9bd,LASIUI06,Lekki 1,25009,Ibeju Lekki,LA,Lagos,Commerce_Factories_Industrial_Sites,Commerce_Factories_Industrial_Sites_LA_25009_LASIUI06_2953
4.07256956200007,6.42057599900005,2954,6.42057599917044,4.07256956232406,9c4ddca1-a06e-4912-a000-80d96756cdd1,LASIUI06,Lekki 1,25009,Ibeju Lekki,LA,Lagos,Commerce_Factories_Industrial_Sites,Commerce_Factories_Industrial_Sites_LA_25009_LASIUI06_2954
4.06996833300002,6.42014833300004,2955,6.420148333,4.069968333,d3a6c08e-c939-41e0-9b1d-82777d59bea1,LASIUI06,Lekki 1,25009,Ibeju Lekki,LA,Lagos,Commerce_Factories_Industrial_Sites,Commerce_Factories_Industrial_Sites_LA_25009_LASIUI06_2955
4.06959666700004,6.42043666700005,2956,6.420436667,4.069596667,313e7aad-2731-4de9-8b15-f8d2bd5a262d,LASIUI06,Lekki 1,25009,Ibeju Lekki,LA,Lagos,Commerce_Factories_Industrial_Sites,Commerce_Factories_Industrial_Sites_LA_25009_LASIUI06_2956
4.06396833300005,6.42112833300007,2957,6.421128333,4.063968333,041ebc55-5d3c-41f7-b1c9-1187ed2ba86d,LASIUI06,Lekki 1,25009,Ibeju Lekki,LA,Lagos,Commerce_Factories_Industrial_Sites,Commerce_Factories_Industrial_Sites_LA_25009_LASIUI06_2957
4.06361184300005,6.42224291400004,2958,6.42224291379298,4.0636118429861,4859cce0-81f0-46ec-9e4e-3745b2b8b232,LASIUI06,Lekki 1,25009,Ibeju Lekki,LA,Lagos,Commerce_Factories_Industrial_Sites,Commerce_Factories_Industrial_Sites_LA_25009_LASIUI06_2958
4.02105267300004,6.42879374000006,2959,6.42879374021147,4.02105267319679,75333dc6-0529-4c1d-b869-c31b0eda9c8c,LASIUI06,Lekki 1,25009,Ibeju Lekki,LA,Lagos,Commerce_Factories_Industrial_Sites,Commerce_Factories_Industrial_Sites_LA_25009_LASIUI06_2959
4.02561316100002,6.42716095600002,2960,6.42716095585885,4.0256131607861,5d19cc31-7b08-4b00-b87a-fd1832f08a23,LASIUI06,Lekki 1,25009,Ibeju Lekki,LA,Lagos,Commerce_Factories_Industrial_Sites,Commerce_Factories_Industrial_Sites_LA_25009_LASIUI06_2960
4.09755333300006,6.41423000000003,2961,6.41423,4.097553333,83744493-e8ae-4686-9cd6-40a18370a8ec,LASIUI06,Lekki 1,25009,Ibeju Lekki,LA,Lagos,Commerce_Factories_Industrial_Sites,Commerce_Factories_Industrial_Sites_LA_25009_LASIUI06_2961
4.09485697400004,6.41547358400004,2962,6.41547358393413,4.09485697383102,8b2444c4-e351-4f33-9636-acb2024b401a,LASIUI06,Lekki 1,25009,Ibeju Lekki,LA,Lagos,Commerce_Factories_Industrial_Sites,Commerce_Factories_Industrial_Sites_LA_25009_LASIUI06_2962
4.00873502700006,6.43169240900005,2963,6.43169240870789,4.00873502724599,d50b9fb8-29df-4a52-859d-cd94e518c098,LASIUI06,Lekki 1,25009,Ibeju Lekki,LA,Lagos,Commerce_Factories_Industrial_Sites,Commerce_Factories_Industrial_Sites_LA_25009_LASIUI06_2963
4.00266266100004,6.43261370400006,2964,6.43261370369708,4.00266266088021,b4a93e81-a336-4a84-989a-09ac21d54ee8,LASIUI06,Lekki 1,25009,Ibeju Lekki,LA,Lagos,Commerce_Factories_Industrial_Sites,Commerce_Factories_Industrial_Sites_LA_25009_LASIUI06_2964
4.00166978800007,6.43159478600006,2965,6.43159478643445,4.00166978822353,9ff044ea-5684-4c65-b906-e59baeebc4b8,LASIUI06,Lekki 1,25009,Ibeju Lekki,LA,Lagos,Commerce_Factories_Industrial_Sites,Commerce_Factories_Industrial_Sites_LA_25009_LASIUI06_2965
4.10111839700005,6.41296281000007,2966,6.41296281031862,4.10111839703636,635d148a-14cc-4a32-8531-3b62219fc348,LASIUI06,Lekki 1,25009,Ibeju Lekki,LA,Lagos,Commerce_Factories_Industrial_Sites,Commerce_Factories_Industrial_Sites_LA_25009_LASIUI06_2966
4.05317880500007,6.42217521500004,2967,6.42217521545374,4.05317880521497,a5a08094-1d41-4cd8-9936-cd9acf28fd66,LASIUI06,Lekki 1,25009,Ibeju Lekki,LA,Lagos,Commerce_Factories_Industrial_Sites,Commerce_Factories_Industrial_Sites_LA_25009_LASIUI06_2967
4.00529477400005,6.43211925600002,2968,6.43211925618833,4.00529477410053,c3179961-3c83-4971-8d2d-82204db767f1,LASIUI06,Lekki 1,25009,Ibeju Lekki,LA,Lagos,Commerce_Factories_Industrial_Sites,Commerce_Factories_Industrial_Sites_LA_25009_LASIUI06_2968
3.98492763700006,6.43334269000007,2969,6.43334269030493,3.98492763740749,fec15fbf-33cb-4048-9448-f9d8492c1845,LASIUI07,Lekki 2,25009,Ibeju Lekki,LA,Lagos,Commerce_Factories_Industrial_Sites,Commerce_Factories_Industrial_Sites_LA_25009_LASIUI07_2969
3.96759879000007,6.46646220700006,2970,6.46646220682556,3.96759878961962,b3e150c2-542f-4d63-b551-e17e953005b3,LASIUI07,Lekki 2,25009,Ibeju Lekki,LA,Lagos,Commerce_Factories_Industrial_Sites,Commerce_Factories_Industrial_Sites_LA_25009_LASIUI07_2970
3.97219122500007,6.46870138300005,2971,6.46870138329782,3.97219122472727,92d6cf08-5fe1-4f07-86b6-cd9d64c40cd8,LASIUI07,Lekki 2,25009,Ibeju Lekki,LA,Lagos,Commerce_Factories_Industrial_Sites,Commerce_Factories_Industrial_Sites_LA_25009_LASIUI07_2971
3.96786598900007,6.47015671300005,2972,6.47015671339394,3.96786598863703,201c8a41-80d3-4abe-b44d-0a6ca5794e6a,LASIUI07,Lekki 2,25009,Ibeju Lekki,LA,Lagos,Commerce_Factories_Industrial_Sites,Commerce_Factories_Industrial_Sites_LA_25009_LASIUI07_2972
3.96790874900006,6.46932749300004,2973,6.46932749314339,3.96790874874011,1b0cec24-b00e-4d69-a89f-caf52c47ba44,LASIUI07,Lekki 2,25009,Ibeju Lekki,LA,Lagos,Commerce_Factories_Industrial_Sites,Commerce_Factories_Industrial_Sites_LA_25009_LASIUI07_2973
3.97639634400002,6.46500188600004,2974,6.46500188563109,3.97639634352513,9f2f9442-2658-45f4-8751-9a4daae824a2,LASIUI07,Lekki 2,25009,Ibeju Lekki,LA,Lagos,Commerce_Factories_Industrial_Sites,Commerce_Factories_Industrial_Sites_LA_25009_LASIUI07_2974
3.88259139600007,6.48440110400003,2975,6.48440110421908,3.88259139613262,21f9bd46-eaac-4ba0-9f1f-42a0522e9d73,LASIUI08,Orimedu 1,25009,Ibeju Lekki,LA,Lagos,Commerce_Factories_Industrial_Sites,Commerce_Factories_Industrial_Sites_LA_25009_LASIUI08_2975
3.84961964300004,6.47788045100003,2976,6.4778804507057,3.84961964325562,c024109b-00d8-43ec-8f9a-737ec1789e22,LASIUI09,Orimedu 2,25009,Ibeju Lekki,LA,Lagos,Commerce_Factories_Industrial_Sites,Commerce_Factories_Industrial_Sites_LA_25009_LASIUI09_2976
3.89086500000008,6.44164833300005,2977,6.441648333,3.890865,c4257b7c-5bbe-4e19-9921-39783c5c795c,LASIUI09,Orimedu 2,25009,Ibeju Lekki,LA,Lagos,Commerce_Factories_Industrial_Sites,Commerce_Factories_Industrial_Sites_LA_25009_LASIUI09_2977
3.85817137300006,6.48235361800005,2978,6.48235361838846,3.85817137329198,534f2a08-ab3e-4583-b3ce-db944d48a797,LASIUI09,Orimedu 2,25009,Ibeju Lekki,LA,Lagos,Commerce_Factories_Industrial_Sites,Commerce_Factories_Industrial_Sites_LA_25009_LASIUI09_2978
3.85297333300002,6.48014666700004,2979,6.480146667,3.852973333,0bd1fc00-c8f7-4240-86f1-04f4db979f14,LASIUI09,Orimedu 2,25009,Ibeju Lekki,LA,Lagos,Commerce_Factories_Industrial_Sites,Commerce_Factories_Industrial_Sites_LA_25009_LASIUI09_2979
3.89331363200006,6.44185529800006,2980,6.44185529763202,3.89331363228663,3b6ba364-c4a4-4a61-9c02-d5738c2e7e5c,LASIUI09,Orimedu 2,25009,Ibeju Lekki,LA,Lagos,Commerce_Factories_Industrial_Sites,Commerce_Factories_Industrial_Sites_LA_25009_LASIUI09_2980
3.86205317100007,6.48424276200006,2981,6.48424276239238,3.8620531711369,f03630ae-5607-4d72-a92c-8ff2cba913ba,LASIUI09,Orimedu 2,25009,Ibeju Lekki,LA,Lagos,Commerce_Factories_Industrial_Sites,Commerce_Factories_Industrial_Sites_LA_25009_LASIUI09_2981
3.84453846400004,6.47521713200007,2982,6.47521713248714,3.84453846363567,ecc0ccf2-f60b-47e8-a442-b5c92a9014e9,LASIUI09,Orimedu 2,25009,Ibeju Lekki,LA,Lagos,Commerce_Factories_Industrial_Sites,Commerce_Factories_Industrial_Sites_LA_25009_LASIUI09_2982
3.84591436700003,6.47565504400006,2983,6.47565504367893,3.84591436744278,0220188c-b9e2-4b3c-8327-45af270f1c06,LASIUI09,Orimedu 2,25009,Ibeju Lekki,LA,Lagos,Commerce_Factories_Industrial_Sites,Commerce_Factories_Industrial_Sites_LA_25009_LASIUI09_2983
3.80503645400006,6.46744271800003,2984,6.46744271795525,3.80503645422353,b4d31590-8c25-408b-a266-ab5acb2b722a,LASIUI10,Orimedu 3,25009,Ibeju Lekki,LA,Lagos,Commerce_Factories_Industrial_Sites,Commerce_Factories_Industrial_Sites_LA_25009_LASIUI10_2984
3.84422166700006,6.44146166700006,2985,6.441461667,3.844221667,ac54c62e-c9ce-473f-96cb-43772d0f51bd,LASIUI10,Orimedu 3,25009,Ibeju Lekki,LA,Lagos,Commerce_Factories_Industrial_Sites,Commerce_Factories_Industrial_Sites_LA_25009_LASIUI10_2985
3.83378582600005,6.47157551800007,2986,6.47157551754497,3.8337858264385,ae6ebb3d-3f9b-45e2-8bb0-300433be8edc,LASIUI10,Orimedu 3,25009,Ibeju Lekki,LA,Lagos,Commerce_Factories_Industrial_Sites,Commerce_Factories_Industrial_Sites_LA_25009_LASIUI10_2986
3.79273635900006,6.47122468700007,2987,6.47122468657871,3.79273635916898,30a8f7c4-d275-44e6-8c3a-6e118d1aaa9b,LASIUI10,Orimedu 3,25009,Ibeju Lekki,LA,Lagos,Commerce_Factories_Industrial_Sites,Commerce_Factories_Industrial_Sites_LA_25009_LASIUI10_2987
3.82957414200007,6.46808381600005,2988,6.46808381558109,3.82957414154332,b3b289ad-a1b3-4e3a-9198-1de25d776e9a,LASIUI10,Orimedu 3,25009,Ibeju Lekki,LA,Lagos,Commerce_Factories_Industrial_Sites,Commerce_Factories_Industrial_Sites_LA_25009_LASIUI10_2988
3.84569759200002,6.46930642600006,2989,6.46930642597048,3.84569759226524,c11d3958-8021-4638-9b7c-ecbdb29b8f2d,LASIUI10,Orimedu 3,25009,Ibeju Lekki,LA,Lagos,Commerce_Factories_Industrial_Sites,Commerce_Factories_Industrial_Sites_LA_25009_LASIUI10_2989
3.85110369300003,6.44094462000004,2990,6.44094462014793,3.85110369344678,58704aa0-db80-4993-8dc3-df852bc98f27,LASIUI10,Orimedu 3,25009,Ibeju Lekki,LA,Lagos,Commerce_Factories_Industrial_Sites,Commerce_Factories_Industrial_Sites_LA_25009_LASIUI10_2990
3.84746666700005,6.44143166700007,2991,6.441431667,3.847466667,b8281ef9-302e-444e-939f-d3db7987dfbe,LASIUI10,Orimedu 3,25009,Ibeju Lekki,LA,Lagos,Commerce_Factories_Industrial_Sites,Commerce_Factories_Industrial_Sites_LA_25009_LASIUI10_2991
3.81982429200002,6.46592164100002,2992,6.46592164086969,3.81982429199572,531f6817-8489-4881-803d-97370d0c9c84,LASIUI10,Orimedu 3,25009,Ibeju Lekki,LA,Lagos,Commerce_Factories_Industrial_Sites,Commerce_Factories_Industrial_Sites_LA_25009_LASIUI10_2992
3.85182885300003,6.44162015500007,2993,6.44162015505451,3.85182885260749,13704eed-6f93-41d6-b0b0-ce8b1f572b24,LASIUI10,Orimedu 3,25009,Ibeju Lekki,LA,Lagos,Commerce_Factories_Industrial_Sites,Commerce_Factories_Industrial_Sites_LA_25009_LASIUI10_2993
4.12809131700004,6.41059661100007,2994,6.41059661074369,4.12809131735944,2c500029-1db2-4b2e-b68a-9efc269e86f9,LASIUI11,Siriwon/ Igbekodo 1,25009,Ibeju Lekki,LA,Lagos,Commerce_Factories_Industrial_Sites,Commerce_Factories_Industrial_Sites_LA_25009_LASIUI11_2994
4.12786666700003,6.41064166700005,2995,6.410641667,4.127866667,fd7a83b0-6881-42d4-ae22-0d7b04898975,LASIUI11,Siriwon/ Igbekodo 1,25009,Ibeju Lekki,LA,Lagos,Commerce_Factories_Industrial_Sites,Commerce_Factories_Industrial_Sites_LA_25009_LASIUI11_2995
4.17636260600005,6.40016976700002,2996,6.40016976686847,4.17636260638824,2ec0802f-ad2f-4646-8661-1801fcf83851,LASIUI12,Siriwon/ Igbekodo 2,25009,Ibeju Lekki,LA,Lagos,Commerce_Factories_Industrial_Sites,Commerce_Factories_Industrial_Sites_LA_25009_LASIUI12_2996
4.19052695600004,6.39669880600007,2997,6.39669880556337,4.19052695566631,77ca06ef-76eb-4ec4-8975-bb1b068677a9,LASIUI12,Siriwon/ Igbekodo 2,25009,Ibeju Lekki,LA,Lagos,Commerce_Factories_Industrial_Sites,Commerce_Factories_Industrial_Sites_LA_25009_LASIUI12_2997
3.29609986900005,6.65678907200004,2998,6.65678907225053,3.29609986915508,c9687ac3-75e2-4dab-ab4b-86d78e123202,LASIOE01,Abule Egba/Ilupeju,25010,Ifako/Ijaye,LA,Lagos,Commerce_Factories_Industrial_Sites,Commerce_Factories_Industrial_Sites_LA_25010_LASIOE01_2998
3.30825967500004,6.64956382000003,2999,6.64956381993906,3.3082596752738,91a13608-09ba-4e34-8956-eeba38ffbc86,LASIOE01,Abule Egba/Ilupeju,25010,Ifako/Ijaye,LA,Lagos,Commerce_Factories_Industrial_Sites,Commerce_Factories_Industrial_Sites_LA_25010_LASIOE01_2999
3.32313247400003,6.64781235500004,3000,6.64781235543922,3.32313247409349,6a7d36ba-e261-4507-a87b-db22f8d3d872,LASIOE02,Agbado Dalemo,25010,Ifako/Ijaye,LA,Lagos,Commerce_Factories_Industrial_Sites,Commerce_Factories_Industrial_Sites_LA_25010_LASIOE02_3000
3.27768741200003,6.68117115000007,3001,6.6811711496746,3.27768741150695,1467b2d4-e505-4465-afc3-51dac4f75dc2,LASIOE03,Alagbado/Kollinton,25010,Ifako/Ijaye,LA,Lagos,Commerce_Factories_Industrial_Sites,Commerce_Factories_Industrial_Sites_LA_25010_LASIOE03_3001
3.27003509100007,6.67859110600006,3002,6.67859110603224,3.27003509128235,c4ae149a-b5ab-4992-903a-6b540c8a4ec2,LASIOE03,Alagbado/Kollinton,25010,Ifako/Ijaye,LA,Lagos,Commerce_Factories_Industrial_Sites,Commerce_Factories_Industrial_Sites_LA_25010_LASIOE03_3002
3.26726254800008,6.68793448500003,3003,6.68793448547346,3.26726254793048,b96ea4e2-b78f-4053-a94f-b1c8bc51f160,LASIOE04,Alakuko Ajegunle,25010,Ifako/Ijaye,LA,Lagos,Commerce_Factories_Industrial_Sites,Commerce_Factories_Industrial_Sites_LA_25010_LASIOE04_3003
3.30178972400006,6.67118007000005,3004,6.67118007017959,3.30178972418717,580846e8-6afc-423a-9715-ecd6c9beb89f,LASIOE07,Ijaiye Gbirinmi,25010,Ifako/Ijaye,LA,Lagos,Commerce_Factories_Industrial_Sites,Commerce_Factories_Industrial_Sites_LA_25010_LASIOE07_3004
3.32339260200007,6.66248382100002,3005,6.66248382077589,3.32339260161604,e9800841-af2a-44f7-a980-7a8dc1548c19,LASIOE12,Iju Obawole,25010,Ifako/Ijaye,LA,Lagos,Commerce_Factories_Industrial_Sites,Commerce_Factories_Industrial_Sites_LA_25010_LASIOE12_3005
3.33739666700006,6.67174166700005,3006,6.67174166666667,3.33739666666667,12168347-c69a-456f-bac6-1f2dc623d10f,LASIOE13,Iju Ogundimu,25010,Ifako/Ijaye,LA,Lagos,Commerce_Factories_Industrial_Sites,Commerce_Factories_Industrial_Sites_LA_25010_LASIOE13_3006
3.33413333300007,6.66003833300005,3007,6.660038333,3.334133333,00f48dc1-7c34-4fc9-8776-e93cdb7394a5,LASIOE13,Iju Ogundimu,25010,Ifako/Ijaye,LA,Lagos,Commerce_Factories_Industrial_Sites,Commerce_Factories_Industrial_Sites_LA_25010_LASIOE13_3007
3.33597166700002,6.67154333300005,3008,6.67154333333333,3.33597166666667,331f7a2f-e8b9-4917-a9aa-956cc364ae68,LASIOE13,Iju Ogundimu,25010,Ifako/Ijaye,LA,Lagos,Commerce_Factories_Industrial_Sites,Commerce_Factories_Industrial_Sites_LA_25010_LASIOE13_3008
3.30803609700007,6.66826096400007,3009,6.66826096377264,3.30803609747914,e22cf68d-b8d0-4f11-b877-27192509f1a7,LASIOE14,Tabon Tabon/Egbir,25010,Ifako/Ijaye,LA,Lagos,Commerce_Factories_Industrial_Sites,Commerce_Factories_Industrial_Sites_LA_25010_LASIOE14_3009
3.35705755500004,6.60808350500002,3010,6.60808350477618,3.35705755485776,58880a0d-2ea8-4a38-8fcd-4497fe7ef82e,LASIKA04,Alausa,25011,Ikeja,LA,Lagos,Commerce_Factories_Industrial_Sites,Commerce_Factories_Industrial_Sites_LA_25011_LASIKA04_3010
3.35591620600007,6.60706792700006,3011,6.6070679266062,3.35591620645005,eb6ccb59-87c5-482e-8822-5158c18fbce7,LASIKA04,Alausa,25011,Ikeja,LA,Lagos,Commerce_Factories_Industrial_Sites,Commerce_Factories_Industrial_Sites_LA_25011_LASIKA04_3011
3.36152135800006,6.60668053000006,3012,6.6066805304657,3.36152135845562,3bca41f0-76ce-4045-bf8c-d82b1c5cd3bb,LASIKA04,Alausa,25011,Ikeja,LA,Lagos,Commerce_Factories_Industrial_Sites,Commerce_Factories_Industrial_Sites_LA_25011_LASIKA04_3012
3.36109862700005,6.60742931400006,3013,6.60742931367398,3.36109862670802,fb5c3617-6eb7-41b5-9ade-42aab115b79d,LASIKA04,Alausa,25011,Ikeja,LA,Lagos,Commerce_Factories_Industrial_Sites,Commerce_Factories_Industrial_Sites_LA_25011_LASIKA04_3013
3.35943510100003,6.60644656900007,3014,6.60644656887987,3.35943510080856,5f194716-f766-4a6e-b197-351d42f6fffc,LASIKA04,Alausa,25011,Ikeja,LA,Lagos,Commerce_Factories_Industrial_Sites,Commerce_Factories_Industrial_Sites_LA_25011_LASIKA04_3014
3.36441410600003,6.60485787800008,3015,6.60485787782505,3.36441410594611,179daa1e-23ed-43f8-9923-6d5b34f85fb8,LASIKA04,Alausa,25011,Ikeja,LA,Lagos,Commerce_Factories_Industrial_Sites,Commerce_Factories_Industrial_Sites_LA_25011_LASIKA04_3015
3.36232654900004,6.60409639800002,3016,6.60409639763824,3.36232654927808,ea718ff3-9518-488e-b8cd-bab00eb9f2ac,LASIKA04,Alausa,25011,Ikeja,LA,Lagos,Commerce_Factories_Industrial_Sites,Commerce_Factories_Industrial_Sites_LA_25011_LASIKA04_3016
3.35877564800006,6.60705868900004,3017,6.60705868935407,3.35877564847059,785e3717-6d13-46e6-9fac-ac6235c44b6f,LASIKA04,Alausa,25011,Ikeja,LA,Lagos,Commerce_Factories_Industrial_Sites,Commerce_Factories_Industrial_Sites_LA_25011_LASIKA04_3017
3.36066816000005,6.60990079800007,3018,6.60990079794151,3.36066815980321,983b8bf6-3927-4bac-a7d2-8699ccc716bc,LASIKA04,Alausa,25011,Ikeja,LA,Lagos,Commerce_Factories_Industrial_Sites,Commerce_Factories_Industrial_Sites_LA_25011_LASIKA04_3018
3.36072554400005,6.60895746800003,3019,6.60895746785853,3.36072554352513,49afc5b5-5bd7-4a26-968d-fb7d29478329,LASIKA04,Alausa,25011,Ikeja,LA,Lagos,Commerce_Factories_Industrial_Sites,Commerce_Factories_Industrial_Sites_LA_25011_LASIKA04_3019
3.33650893400005,6.60571354900003,3020,6.60571354871805,3.33650893353904,54d73955-bbee-4b67-9a0c-df403ff3526b,LASIKA05,Anifowoshe,25011,Ikeja,LA,Lagos,Commerce_Factories_Industrial_Sites,Commerce_Factories_Industrial_Sites_LA_25011_LASIKA05_3020
3.33617532500006,6.60754715000007,3021,6.60754715029445,3.3361753247262,f6def82e-1f91-48c7-9a07-f5b923d28a09,LASIKA05,Anifowoshe,25011,Ikeja,LA,Lagos,Commerce_Factories_Industrial_Sites,Commerce_Factories_Industrial_Sites_LA_25011_LASIKA05_3021
3.33576833800004,6.60923618400005,3022,6.60923618352772,3.33576833777219,af8f7cb7-b18a-4deb-b0ab-d077d093d0ab,LASIKA05,Anifowoshe,25011,Ikeja,LA,Lagos,Commerce_Factories_Industrial_Sites,Commerce_Factories_Industrial_Sites_LA_25011_LASIKA05_3022
3.34894223600003,6.58464055600007,3023,6.58464055629649,3.34894223552085,5a52f104-6963-4a94-8ac6-7ee63597b1c1,LASIKA06,G R A,25011,Ikeja,LA,Lagos,Commerce_Factories_Industrial_Sites,Commerce_Factories_Industrial_Sites_LA_25011_LASIKA06_3023
3.35094229900005,6.58505505600004,3024,6.58505505649661,3.35094229855722,86e0aa29-6386-4ce1-9593-f3eca216c8e3,LASIKA06,G R A,25011,Ikeja,LA,Lagos,Commerce_Factories_Industrial_Sites,Commerce_Factories_Industrial_Sites_LA_25011_LASIKA06_3024
3.34004341700006,6.59055886400006,3025,6.59055886419314,3.34004341654759,829bcea3-64c8-44d3-8fef-c694b11a110b,LASIKA06,G R A,25011,Ikeja,LA,Lagos,Commerce_Factories_Industrial_Sites,Commerce_Factories_Industrial_Sites_LA_25011_LASIKA06_3025
3.34970476000007,6.62495403000003,3026,6.62495403025301,3.34970475997754,19e4b959-b733-48b9-a5a1-71d614b6275e,LASIKA07,Ogba/Oluwole,25011,Ikeja,LA,Lagos,Commerce_Factories_Industrial_Sites,Commerce_Factories_Industrial_Sites_LA_25011_LASIKA07_3026
3.35084176600003,6.62853213100004,3027,6.62853213057749,3.35084176582674,0870181f-c2af-4d82-af4d-89db9fc4e9b7,LASIKA07,Ogba/Oluwole,25011,Ikeja,LA,Lagos,Commerce_Factories_Industrial_Sites,Commerce_Factories_Industrial_Sites_LA_25011_LASIKA07_3027
3.34062638600005,6.62324051000007,3028,6.62324051015488,3.34062638597219,2261006e-2b31-434a-ab4d-2ed11caee7b8,LASIKA07,Ogba/Oluwole,25011,Ikeja,LA,Lagos,Commerce_Factories_Industrial_Sites,Commerce_Factories_Industrial_Sites_LA_25011_LASIKA07_3028
3.34565749200004,6.61785956400007,3029,6.61785956358932,3.34565749199572,33a7682d-36e7-40ee-a8b3-18166c6933b6,LASIKA07,Ogba/Oluwole,25011,Ikeja,LA,Lagos,Commerce_Factories_Industrial_Sites,Commerce_Factories_Industrial_Sites_LA_25011_LASIKA07_3029
3.34509954800006,6.61963582700002,3030,6.61963582722445,3.34509954820107,1f11cded-1e80-4715-8226-a53e2cd86d96,LASIKA07,Ogba/Oluwole,25011,Ikeja,LA,Lagos,Commerce_Factories_Industrial_Sites,Commerce_Factories_Industrial_Sites_LA_25011_LASIKA07_3030
3.35400470500002,6.61408736600004,3031,6.6140873664639,3.35400470548556,63d84240-7181-4d72-8e83-62c00a1ff73f,LASIKA07,Ogba/Oluwole,25011,Ikeja,LA,Lagos,Commerce_Factories_Industrial_Sites,Commerce_Factories_Industrial_Sites_LA_25011_LASIKA07_3031
3.34205057300005,6.61528502200002,3032,6.61528502191684,3.34205057329198,33cab50b-f341-4db4-81a9-8e091cfb188a,LASIKA07,Ogba/Oluwole,25011,Ikeja,LA,Lagos,Commerce_Factories_Industrial_Sites,Commerce_Factories_Industrial_Sites_LA_25011_LASIKA07_3032
3.34974498200006,6.62720791900006,3033,6.62720791939746,3.34974498210481,30f71cef-3ff3-4d8e-b0dd-f080eb9d6b40,LASIKA07,Ogba/Oluwole,25011,Ikeja,LA,Lagos,Commerce_Factories_Industrial_Sites,Commerce_Factories_Industrial_Sites_LA_25011_LASIKA07_3033
3.35387794500002,6.62747404200007,3034,6.62747404242825,3.35387794523743,a77175d2-0f76-4706-a5cb-3a991b869303,LASIKA07,Ogba/Oluwole,25011,Ikeja,LA,Lagos,Commerce_Factories_Industrial_Sites,Commerce_Factories_Industrial_Sites_LA_25011_LASIKA07_3034
3.35175794000003,6.62187403100006,3035,6.62187403060561,3.35175793965882,63e1b21d-a613-4f04-a4e3-0ece4b92cd72,LASIKA07,Ogba/Oluwole,25011,Ikeja,LA,Lagos,Commerce_Factories_Industrial_Sites,Commerce_Factories_Industrial_Sites_LA_25011_LASIKA07_3035
3.34105558800007,6.62664642600004,3036,6.62664642604095,3.34105558839786,df216ab8-8ea5-4c7a-9ec1-a4a70b1fac2f,LASIKA07,Ogba/Oluwole,25011,Ikeja,LA,Lagos,Commerce_Factories_Industrial_Sites,Commerce_Factories_Industrial_Sites_LA_25011_LASIKA07_3036
3.34497420000002,6.62334080000005,3037,6.6233408,3.3449742,6a0722a8-b33c-403d-b3d1-63494f24a566,LASIKA07,Ogba/Oluwole,25011,Ikeja,LA,Lagos,Commerce_Factories_Industrial_Sites,Commerce_Factories_Industrial_Sites_LA_25011_LASIKA07_3037
3.34593930300002,6.62244750900004,3038,6.62244750893653,3.34593930305882,02c992bd-491c-492f-9ce0-19e031d9e8be,LASIKA07,Ogba/Oluwole,25011,Ikeja,LA,Lagos,Commerce_Factories_Industrial_Sites,Commerce_Factories_Industrial_Sites_LA_25011_LASIKA07_3038
3.34304500000007,6.62490120000007,3039,6.6249012,3.343045,3938f33d-58f1-4ca5-bbf4-d92aa74f5bfa,LASIKA07,Ogba/Oluwole,25011,Ikeja,LA,Lagos,Commerce_Factories_Industrial_Sites,Commerce_Factories_Industrial_Sites_LA_25011_LASIKA07_3039
3.34112945900006,6.62436811800006,3040,6.62436811816542,3.34112945890053,6dd4be03-4e7d-42e7-8508-b1bae4004f54,LASIKA07,Ogba/Oluwole,25011,Ikeja,LA,Lagos,Commerce_Factories_Industrial_Sites,Commerce_Factories_Industrial_Sites_LA_25011_LASIKA07_3040
3.34100480000006,6.62757105400004,3041,6.62757105403914,3.3410048,8e0c3079-1518-4ef4-8483-de1f460f2ff3,LASIKA07,Ogba/Oluwole,25011,Ikeja,LA,Lagos,Commerce_Factories_Industrial_Sites,Commerce_Factories_Industrial_Sites_LA_25011_LASIKA07_3041
3.34128582300002,6.62624700900005,3042,6.62624700890675,3.34128582284064,2c77f219-6927-49ce-bc17-c0c8a9ace12c,LASIKA07,Ogba/Oluwole,25011,Ikeja,LA,Lagos,Commerce_Factories_Industrial_Sites,Commerce_Factories_Industrial_Sites_LA_25011_LASIKA07_3042
3.34194835300002,6.62486455600003,3043,6.6248645556716,3.34194835287701,51d6ee49-9afb-410f-ba06-0fa5ee4c89ee,LASIKA07,Ogba/Oluwole,25011,Ikeja,LA,Lagos,Commerce_Factories_Industrial_Sites,Commerce_Factories_Industrial_Sites_LA_25011_LASIKA07_3043
3.34930566300005,6.63110221200003,3044,6.63110221205824,3.34930566259251,7527e4fc-ffe1-4584-9492-f61771719b51,LASIKA07,Ogba/Oluwole,25011,Ikeja,LA,Lagos,Commerce_Factories_Industrial_Sites,Commerce_Factories_Industrial_Sites_LA_25011_LASIKA07_3044
3.35053120500004,6.63145522000002,3045,6.63145522015546,3.35053120467594,4db5e8e4-36b9-446d-917a-a7dd21e9b0d9,LASIKA07,Ogba/Oluwole,25011,Ikeja,LA,Lagos,Commerce_Factories_Industrial_Sites,Commerce_Factories_Industrial_Sites_LA_25011_LASIKA07_3045
3.35400009900007,6.62968500500006,3046,6.62968500493673,3.35400009882674,36d6214b-7626-404f-9760-ece7e32e551c,LASIKA07,Ogba/Oluwole,25011,Ikeja,LA,Lagos,Commerce_Factories_Industrial_Sites,Commerce_Factories_Industrial_Sites_LA_25011_LASIKA07_3046
3.33955458700007,6.62348409900005,3047,6.6234840992453,3.33955458678075,8cf0f350-05ba-4249-949a-8ee9ada772ab,LASIKA07,Ogba/Oluwole,25011,Ikeja,LA,Lagos,Commerce_Factories_Industrial_Sites,Commerce_Factories_Industrial_Sites_LA_25011_LASIKA07_3047
3.35892833300005,6.64973166700003,3048,6.64973166666667,3.35892833333333,2c16aeb8-3012-40a8-9415-4dfd5874e544,LASIKA08,Ojodu,25011,Ikeja,LA,Lagos,Commerce_Factories_Industrial_Sites,Commerce_Factories_Industrial_Sites_LA_25011_LASIKA08_3048
3.37671666700004,6.59019500000005,3049,6.590195,3.376716667,1e2a6368-250b-4b06-b40b-4f6d0bdb21de,LASIKA11,Olusosun,25011,Ikeja,LA,Lagos,Commerce_Factories_Industrial_Sites,Commerce_Factories_Industrial_Sites_LA_25011_LASIKA11_3049
3.37288145300005,6.59486161800004,3050,6.59486161762534,3.37288145341604,d66c9d77-513f-47c7-9af8-d52a473f9308,LASIKA11,Olusosun,25011,Ikeja,LA,Lagos,Commerce_Factories_Industrial_Sites,Commerce_Factories_Industrial_Sites_LA_25011_LASIKA11_3050
3.37787398300003,6.58716392900004,3051,6.587163929432,3.37787398345241,a4d1268a-ed16-48d5-862e-d30680673990,LASIKA11,Olusosun,25011,Ikeja,LA,Lagos,Commerce_Factories_Industrial_Sites,Commerce_Factories_Industrial_Sites_LA_25011_LASIKA11_3051
3.37823438500004,6.58757823200006,3052,6.58757823173462,3.37823438533797,91b64c12-11b0-49f3-b2dd-2f55d37da86b,LASIKA11,Olusosun,25011,Ikeja,LA,Lagos,Commerce_Factories_Industrial_Sites,Commerce_Factories_Industrial_Sites_LA_25011_LASIKA11_3052
3.37578393000007,6.58946450400003,3053,6.58946450438733,3.37578392976685,4a4081b6-0981-4247-b3ef-60f1e7f353fc,LASIKA11,Olusosun,25011,Ikeja,LA,Lagos,Commerce_Factories_Industrial_Sites,Commerce_Factories_Industrial_Sites_LA_25011_LASIKA11_3053
3.36621090000006,6.59453170000006,3054,6.5945317,3.3662109,5e27ff02-a01a-4fad-8e51-beefb96894a1,LASIKA15,Oregun,25011,Ikeja,LA,Lagos,Commerce_Factories_Industrial_Sites,Commerce_Factories_Industrial_Sites_LA_25011_LASIKA15_3054
3.36795279700004,6.60353217700003,3055,6.60353217671604,3.36795279748021,d3fdb4fa-cfda-437a-a7a5-d523afd6cdc1,LASIKA15,Oregun,25011,Ikeja,LA,Lagos,Commerce_Factories_Industrial_Sites,Commerce_Factories_Industrial_Sites_LA_25011_LASIKA15_3055
3.37454778100005,6.60137705900007,3056,6.60137705917986,3.37454778102674,29775196-b859-48ed-9bc5-4d8dfc4d3722,LASIKA15,Oregun,25011,Ikeja,LA,Lagos,Commerce_Factories_Industrial_Sites,Commerce_Factories_Industrial_Sites_LA_25011_LASIKA15_3056
3.37471233100007,6.59959839000004,3057,6.59959839048996,3.3747123305754,b7b7071d-5298-489b-bd39-c59c24f874a9,LASIKA15,Oregun,25011,Ikeja,LA,Lagos,Commerce_Factories_Industrial_Sites,Commerce_Factories_Industrial_Sites_LA_25011_LASIKA15_3057
3.37300382500007,6.60192580600005,3058,6.60192580621164,3.3730038253615,e2cd8ea5-07cb-4757-9496-b1a7d2e550df,LASIKA15,Oregun,25011,Ikeja,LA,Lagos,Commerce_Factories_Industrial_Sites,Commerce_Factories_Industrial_Sites_LA_25011_LASIKA15_3058
3.37005848200005,6.60239268600003,3059,6.60239268575687,3.37005848174011,decf7f91-6b4a-42fa-b953-12e0c938386e,LASIKA15,Oregun,25011,Ikeja,LA,Lagos,Commerce_Factories_Industrial_Sites,Commerce_Factories_Industrial_Sites_LA_25011_LASIKA15_3059
3.36843402900007,6.60450322800006,3060,6.60450322807499,3.36843402859358,10d5a685-ccea-4827-bb52-eafe7701dd1d,LASIKA15,Oregun,25011,Ikeja,LA,Lagos,Commerce_Factories_Industrial_Sites,Commerce_Factories_Industrial_Sites_LA_25011_LASIKA15_3060
3.37190227100007,6.60549456300004,3061,6.60549456343294,3.37190227113583,e81e8755-7ee0-4bb8-8428-5b0924d0c321,LASIKA15,Oregun,25011,Ikeja,LA,Lagos,Commerce_Factories_Industrial_Sites,Commerce_Factories_Industrial_Sites_LA_25011_LASIKA15_3061
3.36866328400004,6.60329779500006,3062,6.60329779471542,3.36866328408663,5c41f83f-9ba5-4d22-9cb5-e6f206a187c4,LASIKA15,Oregun,25011,Ikeja,LA,Lagos,Commerce_Factories_Industrial_Sites,Commerce_Factories_Industrial_Sites_LA_25011_LASIKA15_3062
3.37152054300003,6.60207628800003,3063,6.60207628772538,3.37152054308128,8f4ac9fa-884d-4e2d-946c-0b950182dd3e,LASIKA15,Oregun,25011,Ikeja,LA,Lagos,Commerce_Factories_Industrial_Sites,Commerce_Factories_Industrial_Sites_LA_25011_LASIKA15_3063
3.37373647700002,6.60102042900007,3064,6.60102042866374,3.37373647689091,89c32322-8f09-4530-a93c-6e91cae9b67b,LASIKA15,Oregun,25011,Ikeja,LA,Lagos,Commerce_Factories_Industrial_Sites,Commerce_Factories_Industrial_Sites_LA_25011_LASIKA15_3064
3.37238102000003,6.60450479900004,3065,6.60450479871376,3.37238102041497,a8ee31fe-07d0-4878-b91a-1779b4bb8736,LASIKA15,Oregun,25011,Ikeja,LA,Lagos,Commerce_Factories_Industrial_Sites,Commerce_Factories_Industrial_Sites_LA_25011_LASIKA15_3065
3.37104923900006,6.60648795700007,3066,6.60648795707432,3.37104923857968,f3b10dcd-5976-4132-8287-895a43190c62,LASIKA15,Oregun,25011,Ikeja,LA,Lagos,Commerce_Factories_Industrial_Sites,Commerce_Factories_Industrial_Sites_LA_25011_LASIKA15_3066
3.36688523200007,6.60431114800002,3067,6.60431114815565,3.36688523165348,58ca9ca1-1e6e-4425-b767-cf8f1819e317,LASIKA15,Oregun,25011,Ikeja,LA,Lagos,Commerce_Factories_Industrial_Sites,Commerce_Factories_Industrial_Sites_LA_25011_LASIKA15_3067
3.36738813300002,6.61150997300007,3068,6.61150997298549,3.36738813255615,06e9b718-d851-4cd8-92cd-0782840ea0b4,LASIKA15,Oregun,25011,Ikeja,LA,Lagos,Commerce_Factories_Industrial_Sites,Commerce_Factories_Industrial_Sites_LA_25011_LASIKA15_3068
3.34150090000003,6.61346330000003,3069,6.6134633,3.3415009,f81d338d-38f3-452d-9c08-c55404c450b9,LASIKA17,Seriki-Aro,25011,Ikeja,LA,Lagos,Commerce_Factories_Industrial_Sites,Commerce_Factories_Industrial_Sites_LA_25011_LASIKA17_3069
3.33617572300005,6.61341365500004,3070,6.61341365530064,3.33617572283957,b4c05206-6edc-4666-ae62-8c7e803e1cf9,LASIKA17,Seriki-Aro,25011,Ikeja,LA,Lagos,Commerce_Factories_Industrial_Sites,Commerce_Factories_Industrial_Sites_LA_25011_LASIKA17_3070
3.33835856700006,6.60591328000004,3071,6.60591328000119,3.33835856744385,2c743a1b-cc03-40cd-86d4-14a50fc034d6,LASIKA17,Seriki-Aro,25011,Ikeja,LA,Lagos,Commerce_Factories_Industrial_Sites,Commerce_Factories_Industrial_Sites_LA_25011_LASIKA17_3071
3.33675145000007,6.61024725600004,3072,6.61024725607019,3.33675145045134,37078156-9e8c-4524-a8b4-1ef30e3ab7b5,LASIKA17,Seriki-Aro,25011,Ikeja,LA,Lagos,Commerce_Factories_Industrial_Sites,Commerce_Factories_Industrial_Sites_LA_25011_LASIKA17_3072
3.33901017600004,6.60526279500004,3073,6.60526279503248,3.3390101759861,43f16cab-d68f-41a6-9458-71d39af70a5a,LASIKA17,Seriki-Aro,25011,Ikeja,LA,Lagos,Commerce_Factories_Industrial_Sites,Commerce_Factories_Industrial_Sites_LA_25011_LASIKA17_3073
3.34207567200002,6.61429527100006,3074,6.61429527095817,3.34207567194439,1c44f1c3-41ff-415a-8b55-bd7743f673d3,LASIKA17,Seriki-Aro,25011,Ikeja,LA,Lagos,Commerce_Factories_Industrial_Sites,Commerce_Factories_Industrial_Sites_LA_25011_LASIKA17_3074
3.33679661300005,6.60801811800008,3075,6.60801811789568,3.33679661331444,6efe465b-fa72-4651-921b-984fddf99ac3,LASIKA17,Seriki-Aro,25011,Ikeja,LA,Lagos,Commerce_Factories_Industrial_Sites,Commerce_Factories_Industrial_Sites_LA_25011_LASIKA17_3075
3.33775793100006,6.61155381800006,3076,6.61155381753511,3.33775793111444,3c635148-4848-487c-a68c-5c93c1c9a06f,LASIKA17,Seriki-Aro,25011,Ikeja,LA,Lagos,Commerce_Factories_Industrial_Sites,Commerce_Factories_Industrial_Sites_LA_25011_LASIKA17_3076
3.33676708700006,6.61113231000007,3077,6.61113230973165,3.33676708678075,31c7bb85-c88b-4bc8-b392-ea7431b12a83,LASIKA17,Seriki-Aro,25011,Ikeja,LA,Lagos,Commerce_Factories_Industrial_Sites,Commerce_Factories_Industrial_Sites_LA_25011_LASIKA17_3077
3.33688247100002,6.60724263500003,3078,6.60724263454619,3.33688247077112,14f287bb-b4f6-404c-9ba2-9cd3ad281522,LASIKA17,Seriki-Aro,25011,Ikeja,LA,Lagos,Commerce_Factories_Industrial_Sites,Commerce_Factories_Industrial_Sites_LA_25011_LASIKA17_3078
3.52720622800007,6.56267134000007,3079,6.56267134025419,3.52720622832406,4ba4606b-02eb-4a80-b0fe-406e3ddaef40,LASIKU01,Abosan,25012,Ikorodu,LA,Lagos,Commerce_Factories_Industrial_Sites,Commerce_Factories_Industrial_Sites_LA_25012_LASIKU01_3079
3.54882721400003,6.58857723900007,3080,6.58857723897459,3.54882721385348,4f057104-dfe4-4333-aab1-757f703166e7,LASIKU01,Abosan,25012,Ikorodu,LA,Lagos,Commerce_Factories_Industrial_Sites,Commerce_Factories_Industrial_Sites_LA_25012_LASIKU01_3080
3.49986931200004,6.58933774300004,3081,6.58933774259228,3.49986931214118,d5566de9-c50e-407d-a423-1f4b554eba58,LASIKU01,Abosan,25012,Ikorodu,LA,Lagos,Commerce_Factories_Industrial_Sites,Commerce_Factories_Industrial_Sites_LA_25012_LASIKU01_3081
3.52276903300003,6.55302348600003,3082,6.55302348626577,3.52276903336578,40277ef4-7978-41c9-9495-668f15d30796,LASIKU01,Abosan,25012,Ikorodu,LA,Lagos,Commerce_Factories_Industrial_Sites,Commerce_Factories_Industrial_Sites_LA_25012_LASIKU01_3082
3.53557285000005,6.56586667500005,3083,6.56586667454275,3.53557285018289,cda019e5-178c-4a8d-bf12-f482d30db8a3,LASIKU01,Abosan,25012,Ikorodu,LA,Lagos,Commerce_Factories_Industrial_Sites,Commerce_Factories_Industrial_Sites_LA_25012_LASIKU01_3083
3.53452957500002,6.56703328100002,3084,6.56703328120964,3.53452957544706,57d53395-3972-4563-9dec-78fdfe32733f,LASIKU01,Abosan,25012,Ikorodu,LA,Lagos,Commerce_Factories_Industrial_Sites,Commerce_Factories_Industrial_Sites_LA_25012_LASIKU01_3084
3.53871755600005,6.56520060000003,3085,6.5652006003792,3.53871755647487,791ab76d-9db9-4bcd-a885-d419e39b6849,LASIKU01,Abosan,25012,Ikorodu,LA,Lagos,Commerce_Factories_Industrial_Sites,Commerce_Factories_Industrial_Sites_LA_25012_LASIKU01_3085
3.52337787700003,6.56115759500005,3086,6.56115759515694,3.52337787742888,a4ce7d46-be27-41bd-b218-f242f3b2afc2,LASIKU01,Abosan,25012,Ikorodu,LA,Lagos,Commerce_Factories_Industrial_Sites,Commerce_Factories_Industrial_Sites_LA_25012_LASIKU01_3086
3.52280382100003,6.56112876300006,3087,6.56112876287356,3.52280382058931,7a2af6d5-2f0b-4525-a922-e27c5f51e325,LASIKU01,Abosan,25012,Ikorodu,LA,Lagos,Commerce_Factories_Industrial_Sites,Commerce_Factories_Industrial_Sites_LA_25012_LASIKU01_3087
3.51225607000003,6.56273640000006,3088,6.56273639997305,3.51225607023315,e55352c8-0046-46a5-a14d-224f8897cfdb,LASIKU01,Abosan,25012,Ikorodu,LA,Lagos,Commerce_Factories_Industrial_Sites,Commerce_Factories_Industrial_Sites_LA_25012_LASIKU01_3088
3.52630344600004,6.56272732800005,3089,6.56272732766439,3.52630344594973,5570dd94-67b5-4187-8a1f-4efd1a10a322,LASIKU01,Abosan,25012,Ikorodu,LA,Lagos,Commerce_Factories_Industrial_Sites,Commerce_Factories_Industrial_Sites_LA_25012_LASIKU01_3089
3.51512149000007,6.56837440700002,3090,6.56837440740859,3.5151214900139,9dcd0ba3-2526-47d6-9ecd-5c51f587ed98,LASIKU01,Abosan,25012,Ikorodu,LA,Lagos,Commerce_Factories_Industrial_Sites,Commerce_Factories_Industrial_Sites_LA_25012_LASIKU01_3090
3.52075000000002,6.56455500000004,3091,6.564555,3.52075,ff18c6e8-095b-4a29-822c-487c99128a28,LASIKU01,Abosan,25012,Ikorodu,LA,Lagos,Commerce_Factories_Industrial_Sites,Commerce_Factories_Industrial_Sites_LA_25012_LASIKU01_3091
3.52121145400002,6.56670660700007,3092,6.56670660684278,3.52121145422353,1f943c01-18bc-4ef2-bdfb-781153a380f6,LASIKU01,Abosan,25012,Ikorodu,LA,Lagos,Commerce_Factories_Industrial_Sites,Commerce_Factories_Industrial_Sites_LA_25012_LASIKU01_3092
3.49959500000006,6.56233000000003,3093,6.56233,3.499595,149aabf8-1889-4032-882e-464a002f53bb,LASIKU01,Abosan,25012,Ikorodu,LA,Lagos,Commerce_Factories_Industrial_Sites,Commerce_Factories_Industrial_Sites_LA_25012_LASIKU01_3093
3.49954804400005,6.56146500000006,3094,6.561465,3.49954804406417,1922ec29-0977-4704-b46a-f49ab2fa9fa7,LASIKU01,Abosan,25012,Ikorodu,LA,Lagos,Commerce_Factories_Industrial_Sites,Commerce_Factories_Industrial_Sites_LA_25012_LASIKU01_3094
3.50004668600008,6.56039319800004,3095,6.56039319771282,3.50004668629954,9ce7198a-62bd-4b96-aa6f-1f7a7c998478,LASIKU01,Abosan,25012,Ikorodu,LA,Lagos,Commerce_Factories_Industrial_Sites,Commerce_Factories_Industrial_Sites_LA_25012_LASIKU01_3095
3.50027689300003,6.56091738900005,3096,6.5609173894431,3.50027689289947,59fb2b1a-1448-437b-876d-9ca64bbb1d1b,LASIKU01,Abosan,25012,Ikorodu,LA,Lagos,Commerce_Factories_Industrial_Sites,Commerce_Factories_Industrial_Sites_LA_25012_LASIKU01_3096
3.49895902900005,6.56284178700002,3097,6.56284178652803,3.49895902859358,b0c4e834-700e-4c7b-b6c3-8c838b999197,LASIKU01,Abosan,25012,Ikorodu,LA,Lagos,Commerce_Factories_Industrial_Sites,Commerce_Factories_Industrial_Sites_LA_25012_LASIKU01_3097
3.50367500000004,6.56366166700008,3098,6.563661667,3.503675,75893268-5e2f-4779-a12c-c8c0e92c2316,LASIKU01,Abosan,25012,Ikorodu,LA,Lagos,Commerce_Factories_Industrial_Sites,Commerce_Factories_Industrial_Sites_LA_25012_LASIKU01_3098
3.50672487300005,6.56425311800007,3099,6.56425311817762,3.50672487294611,96a6d78a-015e-4279-94c2-086e1f719798,LASIKU01,Abosan,25012,Ikorodu,LA,Lagos,Commerce_Factories_Industrial_Sites,Commerce_Factories_Industrial_Sites_LA_25012_LASIKU01_3099
3.53339561400003,6.56829066700004,3100,6.56829066667188,3.53339561402781,95979d2c-0ad5-4d33-8b25-0d42345f36fb,LASIKU01,Abosan,25012,Ikorodu,LA,Lagos,Commerce_Factories_Industrial_Sites,Commerce_Factories_Industrial_Sites_LA_25012_LASIKU01_3100
3.51721838300006,6.56962740100005,3101,6.56962740082787,3.51721838291337,47c58957-1144-48ef-9408-0ca4013f8afa,LASIKU01,Abosan,25012,Ikorodu,LA,Lagos,Commerce_Factories_Industrial_Sites,Commerce_Factories_Industrial_Sites_LA_25012_LASIKU01_3101
3.51584857700004,6.56915350300005,3102,6.56915350348353,3.51584857679465,a0a267b5-282a-44ca-86c7-3c6f372aacd6,LASIKU01,Abosan,25012,Ikorodu,LA,Lagos,Commerce_Factories_Industrial_Sites,Commerce_Factories_Industrial_Sites_LA_25012_LASIKU01_3102
3.52986907900004,6.57188617400004,3103,6.57188617398426,3.52986907931551,88e4998d-bf45-44ca-a713-1e1e24055d17,LASIKU01,Abosan,25012,Ikorodu,LA,Lagos,Commerce_Factories_Industrial_Sites,Commerce_Factories_Industrial_Sites_LA_25012_LASIKU01_3103
3.52759264800005,6.57333148000004,3104,6.57333147980966,3.52759264793607,57d952a5-13a1-47d6-bdd3-96e513d7cc11,LASIKU01,Abosan,25012,Ikorodu,LA,Lagos,Commerce_Factories_Industrial_Sites,Commerce_Factories_Industrial_Sites_LA_25012_LASIKU01_3104
3.52802924400004,6.57592485100002,3105,6.57592485095418,3.52802924406417,92817a09-670c-4762-aa8b-f04fb09362df,LASIKU01,Abosan,25012,Ikorodu,LA,Lagos,Commerce_Factories_Industrial_Sites,Commerce_Factories_Industrial_Sites_LA_25012_LASIKU01_3105
3.51416833300004,6.56648500000006,3106,6.566485,3.514168333,46afc2e7-2f78-40c5-a75f-59400fea510a,LASIKU01,Abosan,25012,Ikorodu,LA,Lagos,Commerce_Factories_Industrial_Sites,Commerce_Factories_Industrial_Sites_LA_25012_LASIKU01_3106
3.50734985500003,6.59049569800004,3107,6.59049569783558,3.50734985503209,eff3cfdd-45fb-4b0a-b7ca-6d0c702d68b4,LASIKU01,Abosan,25012,Ikorodu,LA,Lagos,Commerce_Factories_Industrial_Sites,Commerce_Factories_Industrial_Sites_LA_25012_LASIKU01_3107
3.54454333300004,6.57056000000006,3108,6.57056,3.544543333,c2f7a1ce-3a6f-4249-b2f8-b70673d25bb7,LASIKU01,Abosan,25012,Ikorodu,LA,Lagos,Commerce_Factories_Industrial_Sites,Commerce_Factories_Industrial_Sites_LA_25012_LASIKU01_3108
3.52036166700003,6.57403333300005,3109,6.574033333,3.520361667,389e5712-949c-40d4-81f1-ec865db5b763,LASIKU01,Abosan,25012,Ikorodu,LA,Lagos,Commerce_Factories_Industrial_Sites,Commerce_Factories_Industrial_Sites_LA_25012_LASIKU01_3109
3.54257701100005,6.57142639200003,3110,6.57142639217475,3.5425770105626,f6f5cc00-e7ee-4f41-8a1b-6a6717d3a735,LASIKU01,Abosan,25012,Ikorodu,LA,Lagos,Commerce_Factories_Industrial_Sites,Commerce_Factories_Industrial_Sites_LA_25012_LASIKU01_3110
3.53886833300004,6.57536166700004,3111,6.575361667,3.538868333,ca1e8cf9-b560-4eb3-8925-03a05c865f74,LASIKU01,Abosan,25012,Ikorodu,LA,Lagos,Commerce_Factories_Industrial_Sites,Commerce_Factories_Industrial_Sites_LA_25012_LASIKU01_3111
3.54727678000006,6.57925463300006,3112,6.57925463294982,3.54727677994973,a1ab6391-e372-4003-9bcb-71e1ef35157b,LASIKU01,Abosan,25012,Ikorodu,LA,Lagos,Commerce_Factories_Industrial_Sites,Commerce_Factories_Industrial_Sites_LA_25012_LASIKU01_3112
3.55024438500004,6.57981456000005,3113,6.57981456028867,3.55024438533797,fb317b30-368b-480f-a1ca-50768a32d1e2,LASIKU01,Abosan,25012,Ikorodu,LA,Lagos,Commerce_Factories_Industrial_Sites,Commerce_Factories_Industrial_Sites_LA_25012_LASIKU01_3113
3.49958698300003,6.57892657700006,3114,6.57892657660332,3.49958698270214,d773a8f0-75f4-4d5e-9d0f-cf137c124eb7,LASIKU01,Abosan,25012,Ikorodu,LA,Lagos,Commerce_Factories_Industrial_Sites,Commerce_Factories_Industrial_Sites_LA_25012_LASIKU01_3114
3.49972333300002,6.57993666700003,3115,6.579936667,3.499723333,62ecde69-5779-433c-8601-f5638601e8c7,LASIKU01,Abosan,25012,Ikorodu,LA,Lagos,Commerce_Factories_Industrial_Sites,Commerce_Factories_Industrial_Sites_LA_25012_LASIKU01_3115
3.54655500000007,6.56876000000005,3116,6.56876,3.546555,8a90391b-5d45-4e47-b62e-e59a930ddf73,LASIKU01,Abosan,25012,Ikorodu,LA,Lagos,Commerce_Factories_Industrial_Sites,Commerce_Factories_Industrial_Sites_LA_25012_LASIKU01_3116
3.54664333300002,6.56941333300006,3117,6.569413333,3.546643333,5a5f37ee-7958-4c4d-937c-a9656181cf04,LASIKU01,Abosan,25012,Ikorodu,LA,Lagos,Commerce_Factories_Industrial_Sites,Commerce_Factories_Industrial_Sites_LA_25012_LASIKU01_3117
3.54821442800005,6.56940815700005,3118,6.56940815742926,3.54821442771476,0cdba609-8812-463c-b033-4f3038467190,LASIKU01,Abosan,25012,Ikorodu,LA,Lagos,Commerce_Factories_Industrial_Sites,Commerce_Factories_Industrial_Sites_LA_25012_LASIKU01_3118
3.54829962900004,6.57206978500005,3119,6.5720697854941,3.54829962913262,9509945f-37c4-4112-a9f5-49fa0982dee8,LASIKU01,Abosan,25012,Ikorodu,LA,Lagos,Commerce_Factories_Industrial_Sites,Commerce_Factories_Industrial_Sites_LA_25012_LASIKU01_3119
3.50954166700006,6.59085333300004,3120,6.590853333,3.509541667,658e6207-2663-445f-8072-eff7d043a434,LASIKU01,Abosan,25012,Ikorodu,LA,Lagos,Commerce_Factories_Industrial_Sites,Commerce_Factories_Industrial_Sites_LA_25012_LASIKU01_3120
3.50810966100005,6.59184591000007,3121,6.59184591011551,3.5081096611508,3d9a2b16-94dc-4201-b499-b8d34f4485ba,LASIKU01,Abosan,25012,Ikorodu,LA,Lagos,Commerce_Factories_Industrial_Sites,Commerce_Factories_Industrial_Sites_LA_25012_LASIKU01_3121
3.49968333300006,6.59659833300003,3122,6.596598333,3.499683333,3c7efb4a-be4e-42dd-965a-7a1d67e46704,LASIKU01,Abosan,25012,Ikorodu,LA,Lagos,Commerce_Factories_Industrial_Sites,Commerce_Factories_Industrial_Sites_LA_25012_LASIKU01_3122
3.50715415900004,6.59093263500006,3123,6.59093263512643,3.5071541594385,ef231f83-d556-4dd1-9057-a546a77a6107,LASIKU01,Abosan,25012,Ikorodu,LA,Lagos,Commerce_Factories_Industrial_Sites,Commerce_Factories_Industrial_Sites_LA_25012_LASIKU01_3123
3.50574493700003,6.59375080600006,3124,6.59375080643681,3.50574493696364,6e8c3720-f08d-4829-af02-3f3c0eba55cd,LASIKU01,Abosan,25012,Ikorodu,LA,Lagos,Commerce_Factories_Industrial_Sites,Commerce_Factories_Industrial_Sites_LA_25012_LASIKU01_3124
3.51490000000007,6.59561166700007,3125,6.595611667,3.5149,36f35a8d-b1c8-4514-847a-79179dce9d6a,LASIKU02,Aga/Ijomu,25012,Ikorodu,LA,Lagos,Commerce_Factories_Industrial_Sites,Commerce_Factories_Industrial_Sites_LA_25012_LASIKU02_3125
3.53654640900004,6.65016618900006,3126,6.65016618896119,3.53654640908235,e1c80daf-91f8-41b2-8988-b651eb94b35e,LASIKU03,Agbala/ Lasunwon,25012,Ikorodu,LA,Lagos,Commerce_Factories_Industrial_Sites,Commerce_Factories_Industrial_Sites_LA_25012_LASIKU03_3126
3.54663364100003,6.65611999000004,3127,6.65611998992999,3.54663364083102,7f6a96e7-bf8a-4e6b-8110-72cb0805f314,LASIKU03,Agbala/ Lasunwon,25012,Ikorodu,LA,Lagos,Commerce_Factories_Industrial_Sites,Commerce_Factories_Industrial_Sites_LA_25012_LASIKU03_3127
3.54712930100004,6.65376076200005,3128,6.65376076192119,3.54712930071888,015e8054-ce5a-40e9-baff-a1390eac90eb,LASIKU03,Agbala/ Lasunwon,25012,Ikorodu,LA,Lagos,Commerce_Factories_Industrial_Sites,Commerce_Factories_Industrial_Sites_LA_25012_LASIKU03_3128
3.53416513400003,6.66142833400005,3129,6.66142833380736,3.53416513417326,80c60be0-abc6-422d-a6bb-07c537b5dc72,LASIKU03,Agbala/ Lasunwon,25012,Ikorodu,LA,Lagos,Commerce_Factories_Industrial_Sites,Commerce_Factories_Industrial_Sites_LA_25012_LASIKU03_3129
3.51978333300002,6.65974166700005,3130,6.659741667,3.519783333,da69361c-e46d-47f7-b60d-379b7be079a4,LASIKU03,Agbala/ Lasunwon,25012,Ikorodu,LA,Lagos,Commerce_Factories_Industrial_Sites,Commerce_Factories_Industrial_Sites_LA_25012_LASIKU03_3130
3.53939877200003,6.67732270100004,3131,6.67732270077073,3.53939877167594,274188c7-dddd-4ca3-9f15-1173f3810e78,LASIKU03,Agbala/ Lasunwon,25012,Ikorodu,LA,Lagos,Commerce_Factories_Industrial_Sites,Commerce_Factories_Industrial_Sites_LA_25012_LASIKU03_3131
3.54171698800008,6.67670722800005,3132,6.67670722782107,3.54171698795401,51a55def-75e0-436f-a7c8-cd75fd6a8030,LASIKU03,Agbala/ Lasunwon,25012,Ikorodu,LA,Lagos,Commerce_Factories_Industrial_Sites,Commerce_Factories_Industrial_Sites_LA_25012_LASIKU03_3132
3.53193261700005,6.68097871800006,3133,6.68097871765606,3.53193261681711,2d2ed7da-d7a7-4b60-90ab-bf3435815112,LASIKU03,Agbala/ Lasunwon,25012,Ikorodu,LA,Lagos,Commerce_Factories_Industrial_Sites,Commerce_Factories_Industrial_Sites_LA_25012_LASIKU03_3133
3.53026234700008,6.67375500000003,3134,6.67375500016235,3.53026234712299,7c2133f1-e177-437e-a5e8-ab1da023cae2,LASIKU03,Agbala/ Lasunwon,25012,Ikorodu,LA,Lagos,Commerce_Factories_Industrial_Sites,Commerce_Factories_Industrial_Sites_LA_25012_LASIKU03_3134
3.53209829500003,6.67686243500003,3135,6.67686243468678,3.53209829505455,c2dc5acc-347f-4815-855e-df81754e9994,LASIKU03,Agbala/ Lasunwon,25012,Ikorodu,LA,Lagos,Commerce_Factories_Industrial_Sites,Commerce_Factories_Industrial_Sites_LA_25012_LASIKU03_3135
3.53250589800007,6.67940309700003,3136,6.67940309672044,3.53250589774973,fd2e4cf0-493f-4596-ac03-6d7416aed046,LASIKU03,Agbala/ Lasunwon,25012,Ikorodu,LA,Lagos,Commerce_Factories_Industrial_Sites,Commerce_Factories_Industrial_Sites_LA_25012_LASIKU03_3136
3.52834720200002,6.68011178200004,3137,6.68011178201203,3.5283472015369,8d133f2c-8e0d-4b1d-8888-5d5d578d3897,LASIKU03,Agbala/ Lasunwon,25012,Ikorodu,LA,Lagos,Commerce_Factories_Industrial_Sites,Commerce_Factories_Industrial_Sites_LA_25012_LASIKU03_3137
3.53036010400007,6.67542165300006,3138,6.67542165295945,3.53036010359893,f3a5d320-7629-43ec-98cd-f92aa0433503,LASIKU03,Agbala/ Lasunwon,25012,Ikorodu,LA,Lagos,Commerce_Factories_Industrial_Sites,Commerce_Factories_Industrial_Sites_LA_25012_LASIKU03_3138
3.52871734800004,6.66759205300002,3139,6.66759205272127,3.52871734847059,018e8995-88cf-4cf4-b2c4-02ab1ffaacd7,LASIKU03,Agbala/ Lasunwon,25012,Ikorodu,LA,Lagos,Commerce_Factories_Industrial_Sites,Commerce_Factories_Industrial_Sites_LA_25012_LASIKU03_3139
3.52315519000007,6.67469431000006,3140,6.67469431010821,3.52315519010909,eb605a54-bfe1-4f4b-9581-c31bda471f8a,LASIKU03,Agbala/ Lasunwon,25012,Ikorodu,LA,Lagos,Commerce_Factories_Industrial_Sites,Commerce_Factories_Industrial_Sites_LA_25012_LASIKU03_3140
3.52318687000007,6.67350128900006,3141,6.67350128929731,3.52318687023209,c3c38a12-d518-461d-88af-923ee830682a,LASIKU03,Agbala/ Lasunwon,25012,Ikorodu,LA,Lagos,Commerce_Factories_Industrial_Sites,Commerce_Factories_Industrial_Sites_LA_25012_LASIKU03_3141
3.52753585800002,6.67223392900007,3142,6.67223392850254,3.52753585845669,34db2208-db31-48c0-88cc-7ae2c3e11f22,LASIKU03,Agbala/ Lasunwon,25012,Ikorodu,LA,Lagos,Commerce_Factories_Industrial_Sites,Commerce_Factories_Industrial_Sites_LA_25012_LASIKU03_3142
3.53032833300006,6.65518833300007,3143,6.655188333,3.530328333,c718202d-f8d5-45be-b167-c2355bab90c8,LASIKU03,Agbala/ Lasunwon,25012,Ikorodu,LA,Lagos,Commerce_Factories_Industrial_Sites,Commerce_Factories_Industrial_Sites_LA_25012_LASIKU03_3143
3.54811833300005,6.65481333300005,3144,6.654813333,3.548118333,3c278ab4-98c7-4cca-ae43-297bceef9821,LASIKU03,Agbala/ Lasunwon,25012,Ikorodu,LA,Lagos,Commerce_Factories_Industrial_Sites,Commerce_Factories_Industrial_Sites_LA_25012_LASIKU03_3144
3.57997500000005,6.64993000000004,3145,6.64993,3.579975,6d056cd1-f285-4baa-9c81-fd8e153f1530,LASIKU04,Agura/Gberigbe,25012,Ikorodu,LA,Lagos,Commerce_Factories_Industrial_Sites,Commerce_Factories_Industrial_Sites_LA_25012_LASIKU04_3145
3.62445987300003,6.59320586500007,3146,6.59320586496843,3.62445987294611,4d8091e2-7ae5-4c94-ab0c-25d71b9b1985,LASIKU04,Agura/Gberigbe,25012,Ikorodu,LA,Lagos,Commerce_Factories_Industrial_Sites,Commerce_Factories_Industrial_Sites_LA_25012_LASIKU04_3146
3.62824333300006,6.58748166700008,3147,6.587481667,3.628243333,8da51beb-07b7-45de-80da-2b5d21d98c4e,LASIKU04,Agura/Gberigbe,25012,Ikorodu,LA,Lagos,Commerce_Factories_Industrial_Sites,Commerce_Factories_Industrial_Sites_LA_25012_LASIKU04_3147
3.55380082600004,6.63818592300004,3148,6.63818592273929,3.5538008264385,8272ad8e-b42c-4264-a801-7efb60c67b3c,LASIKU04,Agura/Gberigbe,25012,Ikorodu,LA,Lagos,Commerce_Factories_Industrial_Sites,Commerce_Factories_Industrial_Sites_LA_25012_LASIKU04_3148
3.56655500000005,6.63284166700004,3149,6.632841667,3.566555,c158d53b-c1fd-4015-bf39-edbe3067d116,LASIKU04,Agura/Gberigbe,25012,Ikorodu,LA,Lagos,Commerce_Factories_Industrial_Sites,Commerce_Factories_Industrial_Sites_LA_25012_LASIKU04_3149
3.56938166700007,6.63305000000003,3150,6.63305,3.569381667,3d2e7899-3e3e-44b3-8ad8-db542e8ed7e2,LASIKU04,Agura/Gberigbe,25012,Ikorodu,LA,Lagos,Commerce_Factories_Industrial_Sites,Commerce_Factories_Industrial_Sites_LA_25012_LASIKU04_3150
3.60132186100003,6.60494263500004,3151,6.60494263505712,3.60132186088128,42ff2459-b99d-4ae2-9f7e-b966016a9f2f,LASIKU04,Agura/Gberigbe,25012,Ikorodu,LA,Lagos,Commerce_Factories_Industrial_Sites,Commerce_Factories_Industrial_Sites_LA_25012_LASIKU04_3151
3.60013627800004,6.60481069800005,3152,6.6048106980543,3.60013627823743,3d289af7-f7ad-4365-81b1-d4d6a70e2ac6,LASIKU04,Agura/Gberigbe,25012,Ikorodu,LA,Lagos,Commerce_Factories_Industrial_Sites,Commerce_Factories_Industrial_Sites_LA_25012_LASIKU04_3152
3.61126822600005,6.61394718000003,3153,6.61394717963656,3.61126822589947,c69e3698-8fbd-485f-b3a9-6f8af052b67d,LASIKU04,Agura/Gberigbe,25012,Ikorodu,LA,Lagos,Commerce_Factories_Industrial_Sites,Commerce_Factories_Industrial_Sites_LA_25012_LASIKU04_3153
3.61185470000004,6.61441970000004,3154,6.6144197,3.6118547,5c422b43-5fdd-4026-af80-4438987289d8,LASIKU04,Agura/Gberigbe,25012,Ikorodu,LA,Lagos,Commerce_Factories_Industrial_Sites,Commerce_Factories_Industrial_Sites_LA_25012_LASIKU04_3154
3.57400705600003,6.63576762400004,3155,6.63576762378193,3.57400705647487,81589aed-793f-4e10-a746-387ebf381740,LASIKU04,Agura/Gberigbe,25012,Ikorodu,LA,Lagos,Commerce_Factories_Industrial_Sites,Commerce_Factories_Industrial_Sites_LA_25012_LASIKU04_3155
3.60481000000004,6.61506666700006,3156,6.615066667,3.60481,73fe51e7-cc94-47e7-8f8c-29aa8a8b382e,LASIKU04,Agura/Gberigbe,25012,Ikorodu,LA,Lagos,Commerce_Factories_Industrial_Sites,Commerce_Factories_Industrial_Sites_LA_25012_LASIKU04_3156
3.59827912100008,6.60601118400007,3157,6.60601118387773,3.59827912095401,16790a3c-e20b-43ad-87e9-017a51c60b08,LASIKU04,Agura/Gberigbe,25012,Ikorodu,LA,Lagos,Commerce_Factories_Industrial_Sites,Commerce_Factories_Industrial_Sites_LA_25012_LASIKU04_3157
3.62428082300005,6.58751736500005,3158,6.58751736464063,3.62428082266631,8b6a3014-cd3b-4f71-88bd-d5100f4b9596,LASIKU04,Agura/Gberigbe,25012,Ikorodu,LA,Lagos,Commerce_Factories_Industrial_Sites,Commerce_Factories_Industrial_Sites_LA_25012_LASIKU04_3158
3.62408814200006,6.58970754600006,3159,6.58970754635759,3.62408814191916,cb6219c3-cf23-4549-b09f-cf61fd05986c,LASIKU04,Agura/Gberigbe,25012,Ikorodu,LA,Lagos,Commerce_Factories_Industrial_Sites,Commerce_Factories_Industrial_Sites_LA_25012_LASIKU04_3159
3.62437085900007,6.59089835700007,3160,6.59089835705455,3.62437085890651,2ae49b49-e96b-4efe-a76c-8ae708f0a7dd,LASIKU04,Agura/Gberigbe,25012,Ikorodu,LA,Lagos,Commerce_Factories_Industrial_Sites,Commerce_Factories_Industrial_Sites_LA_25012_LASIKU04_3160
3.62431014100002,6.59134478600004,3161,6.59134478591384,3.62431014132183,6fe59279-0bda-413a-b35f-eecd8fc18d7d,LASIKU04,Agura/Gberigbe,25012,Ikorodu,LA,Lagos,Commerce_Factories_Industrial_Sites,Commerce_Factories_Industrial_Sites_LA_25012_LASIKU04_3161
3.58443485600003,6.65707281900006,3162,6.657072819064,3.5844348564374,018bb611-a59a-43ba-b65f-2040f29cc934,LASIKU04,Agura/Gberigbe,25012,Ikorodu,LA,Lagos,Commerce_Factories_Industrial_Sites,Commerce_Factories_Industrial_Sites_LA_25012_LASIKU04_3162
3.62457338300004,6.58713731200004,3163,6.58713731179956,3.62457338291337,124a3df9-2292-4d70-a0f8-563f33ea9983,LASIKU04,Agura/Gberigbe,25012,Ikorodu,LA,Lagos,Commerce_Factories_Industrial_Sites,Commerce_Factories_Industrial_Sites_LA_25012_LASIKU04_3163
3.49496833300003,6.64867166700003,3164,6.648671667,3.494968333,4d2096c6-a8a5-484f-b7a0-d2ae9b3faf2b,LASIKU06,Ajaguro,25012,Ikorodu,LA,Lagos,Commerce_Factories_Industrial_Sites,Commerce_Factories_Industrial_Sites_LA_25012_LASIKU06_3164
3.47704833300003,6.65160666700007,3165,6.651606667,3.477048333,e615f507-9bf6-4b67-9913-6ac6a0c5dd0d,LASIKU06,Ajaguro,25012,Ikorodu,LA,Lagos,Commerce_Factories_Industrial_Sites,Commerce_Factories_Industrial_Sites_LA_25012_LASIKU06_3165
3.47612372200007,6.65317575800003,3166,6.65317575829804,3.47612372176257,e5e6a66f-1a04-41f8-b67c-dd1a84e88dfe,LASIKU06,Ajaguro,25012,Ikorodu,LA,Lagos,Commerce_Factories_Industrial_Sites,Commerce_Factories_Industrial_Sites_LA_25012_LASIKU06_3166
3.47709500000002,6.65503833300005,3167,6.655038333,3.477095,1cbc2b69-fd3c-4822-b01d-6a9f25b632bc,LASIKU06,Ajaguro,25012,Ikorodu,LA,Lagos,Commerce_Factories_Industrial_Sites,Commerce_Factories_Industrial_Sites_LA_25012_LASIKU06_3167
3.47644483700003,6.65075461700008,3168,6.65075461697413,3.4764448371369,8a92186a-1d5e-4ffd-a308-607459350e12,LASIKU06,Ajaguro,25012,Ikorodu,LA,Lagos,Commerce_Factories_Industrial_Sites,Commerce_Factories_Industrial_Sites_LA_25012_LASIKU06_3168
3.50311666700003,6.64793333300003,3169,6.647933333,3.503116667,dc6ca73b-a9e8-4b28-9019-1ddf646aa6dc,LASIKU06,Ajaguro,25012,Ikorodu,LA,Lagos,Commerce_Factories_Industrial_Sites,Commerce_Factories_Industrial_Sites_LA_25012_LASIKU06_3169
3.47805166700005,6.67360666700006,3170,6.673606667,3.478051667,388ac1ad-1770-409c-b22d-9a9f4e49bda4,LASIKU06,Ajaguro,25012,Ikorodu,LA,Lagos,Commerce_Factories_Industrial_Sites,Commerce_Factories_Industrial_Sites_LA_25012_LASIKU06_3170
3.48040016300007,6.67836616400007,3171,6.678366163778,3.4804001628631,1449f162-7356-4d44-9a23-aaaa2c691ec9,LASIKU06,Ajaguro,25012,Ikorodu,LA,Lagos,Commerce_Factories_Industrial_Sites,Commerce_Factories_Industrial_Sites_LA_25012_LASIKU06_3171
3.49215726800003,6.65211236900007,3172,6.65211236913575,3.49215726753904,150b5e04-196a-40f4-bc28-f0af987846c8,LASIKU06,Ajaguro,25012,Ikorodu,LA,Lagos,Commerce_Factories_Industrial_Sites,Commerce_Factories_Industrial_Sites_LA_25012_LASIKU06_3172
3.62548000000004,6.64440333300007,3173,6.644403333,3.62548,59b78748-ae3f-44bc-ac01-56dcd07dae6e,LASIKU07,Atere,25012,Ikorodu,LA,Lagos,Commerce_Factories_Industrial_Sites,Commerce_Factories_Industrial_Sites_LA_25012_LASIKU07_3173
3.62028525800002,6.64906263100005,3174,6.64906263110559,3.62028525791765,f0266210-e2e6-4465-9860-ba523d2344eb,LASIKU07,Atere,25012,Ikorodu,LA,Lagos,Commerce_Factories_Industrial_Sites,Commerce_Factories_Industrial_Sites_LA_25012_LASIKU07_3174
3.62166960000008,6.61885000000007,3175,6.61885,3.6216696,391f5154-0e2f-4791-83bf-2347323030c2,LASIKU07,Atere,25012,Ikorodu,LA,Lagos,Commerce_Factories_Industrial_Sites,Commerce_Factories_Industrial_Sites_LA_25012_LASIKU07_3175
3.64634888500007,6.61580580200007,3176,6.61580580248727,3.64634888462567,6cb475e2-984e-4012-bc12-09367e2aafb1,LASIKU07,Atere,25012,Ikorodu,LA,Lagos,Commerce_Factories_Industrial_Sites,Commerce_Factories_Industrial_Sites_LA_25012_LASIKU07_3176
3.64448216800002,6.61471886900006,3177,6.61471886892797,3.6444821677123,cb58a69b-216b-498c-9f4a-bb303a17fb14,LASIKU07,Atere,25012,Ikorodu,LA,Lagos,Commerce_Factories_Industrial_Sites,Commerce_Factories_Industrial_Sites_LA_25012_LASIKU07_3177
3.63884773700005,6.60998413700003,3178,6.60998413684297,3.63884773723315,ed980260-a44c-420a-b36b-44d2e17e073c,LASIKU07,Atere,25012,Ikorodu,LA,Lagos,Commerce_Factories_Industrial_Sites,Commerce_Factories_Industrial_Sites_LA_25012_LASIKU07_3178
3.64778666700005,6.61648666700006,3179,6.616486667,3.647786667,f065dac1-b80e-404d-bedb-da36a0125a5b,LASIKU07,Atere,25012,Ikorodu,LA,Lagos,Commerce_Factories_Industrial_Sites,Commerce_Factories_Industrial_Sites_LA_25012_LASIKU07_3179
3.64504112400004,6.61511399900007,3180,6.61511399869301,3.64504112350604,06717b10-763a-4f90-961f-e57787c33f63,LASIKU07,Atere,25012,Ikorodu,LA,Lagos,Commerce_Factories_Industrial_Sites,Commerce_Factories_Industrial_Sites_LA_25012_LASIKU07_3180
3.66951438500007,6.63529274900003,3181,6.63529274854632,3.66951438533797,5103042d-4420-40c9-8dde-453807c33561,LASIKU07,Atere,25012,Ikorodu,LA,Lagos,Commerce_Factories_Industrial_Sites,Commerce_Factories_Industrial_Sites_LA_25012_LASIKU07_3181
3.66871666700007,6.63802666700008,3182,6.638026667,3.668716667,b770a718-edcc-4fe5-b5cd-3ed182f87d9b,LASIKU07,Atere,25012,Ikorodu,LA,Lagos,Commerce_Factories_Industrial_Sites,Commerce_Factories_Industrial_Sites_LA_25012_LASIKU07_3182
3.59626095700003,6.58158566900005,3183,6.58158566931484,3.59626095728342,9cab332f-7c74-46d0-9c14-fff57a3b8ce3,LASIKU08,Ayegbami/Odoro,25012,Ikorodu,LA,Lagos,Commerce_Factories_Industrial_Sites,Commerce_Factories_Industrial_Sites_LA_25012_LASIKU08_3183
3.60234335100006,6.56279614200002,3184,6.56279614207918,3.60234335089519,df53c3d1-033b-44e7-a320-b3d75e63a4bd,LASIKU08,Ayegbami/Odoro,25012,Ikorodu,LA,Lagos,Commerce_Factories_Industrial_Sites,Commerce_Factories_Industrial_Sites_LA_25012_LASIKU08_3184
3.52101430000005,6.53814620000003,3185,6.5381462,3.5210143,3c2fe5d6-8b63-4107-8d19-17603d0f5897,LASIKU09,Baiyeku/Orita/Offin,25012,Ikorodu,LA,Lagos,Commerce_Factories_Industrial_Sites,Commerce_Factories_Industrial_Sites_LA_25012_LASIKU09_3185
3.51787597100002,6.53769175400004,3186,6.53769175371557,3.51787597140642,52a037d5-0f99-42f2-ab25-e7c77484e7c6,LASIKU09,Baiyeku/Orita/Offin,25012,Ikorodu,LA,Lagos,Commerce_Factories_Industrial_Sites,Commerce_Factories_Industrial_Sites_LA_25012_LASIKU09_3186
3.56667952900006,6.58089301800004,3187,6.58089301830324,3.5666795293835,6fa448e4-f151-49b2-a8ce-5a75e8da1e0c,LASIKU11,Elepe,25012,Ikorodu,LA,Lagos,Commerce_Factories_Industrial_Sites,Commerce_Factories_Industrial_Sites_LA_25012_LASIKU11_3187
3.56688333300002,6.58125166700006,3188,6.581251667,3.566883333,a42b97a8-aa78-4c60-bde6-5a5974ff9787,LASIKU11,Elepe,25012,Ikorodu,LA,Lagos,Commerce_Factories_Industrial_Sites,Commerce_Factories_Industrial_Sites_LA_25012_LASIKU11_3188
3.56680056500005,6.58344872000004,3189,6.58344871983964,3.56680056474866,40c1b1c8-a4b7-4c0c-a878-fc5af12e5c68,LASIKU11,Elepe,25012,Ikorodu,LA,Lagos,Commerce_Factories_Industrial_Sites,Commerce_Factories_Industrial_Sites_LA_25012_LASIKU11_3189
3.56767929200004,6.59705249200005,3190,6.597052492154,3.56767929179259,bc5f0eec-39ac-4e5b-9581-7156be1cd278,LASIKU11,Elepe,25012,Ikorodu,LA,Lagos,Commerce_Factories_Industrial_Sites,Commerce_Factories_Industrial_Sites_LA_25012_LASIKU11_3190
3.56615060000007,6.57403110000007,3191,6.5740311,3.5661506,b4c981fa-de46-4956-a1a5-68d8600a5212,LASIKU11,Elepe,25012,Ikorodu,LA,Lagos,Commerce_Factories_Industrial_Sites,Commerce_Factories_Industrial_Sites_LA_25012_LASIKU11_3191
3.56686660000003,6.57389289800005,3192,6.57389289818607,3.56686660026952,54c3b768-ffc3-4b70-acda-18520e1258c9,LASIKU11,Elepe,25012,Ikorodu,LA,Lagos,Commerce_Factories_Industrial_Sites,Commerce_Factories_Industrial_Sites_LA_25012_LASIKU11_3192
3.56842140000003,6.57456600000006,3193,6.574566,3.5684214,39884dbf-618b-442a-871c-fbf383c654ff,LASIKU11,Elepe,25012,Ikorodu,LA,Lagos,Commerce_Factories_Industrial_Sites,Commerce_Factories_Industrial_Sites_LA_25012_LASIKU11_3193
3.56964327000003,6.57217572200005,3194,6.57217572192089,3.56964327023315,92620ef7-bc1f-412c-bd8a-a3e6e610ae58,LASIKU11,Elepe,25012,Ikorodu,LA,Lagos,Commerce_Factories_Industrial_Sites,Commerce_Factories_Industrial_Sites_LA_25012_LASIKU11_3194
3.57136020000007,6.57218680000005,3195,6.5721868,3.5713602,859f536f-6947-48fe-b538-cd448e24ac98,LASIKU11,Elepe,25012,Ikorodu,LA,Lagos,Commerce_Factories_Industrial_Sites,Commerce_Factories_Industrial_Sites_LA_25012_LASIKU11_3195
3.56701500000003,6.59139000000005,3196,6.59139,3.567015,d5c9d37a-eba6-49ad-af35-f9ef2f6b9957,LASIKU11,Elepe,25012,Ikorodu,LA,Lagos,Commerce_Factories_Industrial_Sites,Commerce_Factories_Industrial_Sites_LA_25012_LASIKU11_3196
3.56509770100007,6.58407687800008,3197,6.58407687759288,3.56509770144278,6570ea62-45cd-4a53-be65-6aac6543e45f,LASIKU11,Elepe,25012,Ikorodu,LA,Lagos,Commerce_Factories_Industrial_Sites,Commerce_Factories_Industrial_Sites_LA_25012_LASIKU11_3197
3.57475833300003,6.65512000000007,3198,6.65512,3.574758333,de393ff0-3899-4498-b722-f9bcac820bc1,LASIKU12,Erikorodo,25012,Ikorodu,LA,Lagos,Commerce_Factories_Industrial_Sites,Commerce_Factories_Industrial_Sites_LA_25012_LASIKU12_3198
3.56384106200005,6.67434594300005,3199,6.67434594268502,3.56384106220128,70394fb3-1eb0-49b9-9c17-386bd4fbafd5,LASIKU12,Erikorodo,25012,Ikorodu,LA,Lagos,Commerce_Factories_Industrial_Sites,Commerce_Factories_Industrial_Sites_LA_25012_LASIKU12_3199
3.57552601900005,6.65500102800007,3200,6.65500102811221,3.57552601870374,36c1bf09-a779-4b7a-9fbf-f002bb0c77a8,LASIKU12,Erikorodo,25012,Ikorodu,LA,Lagos,Commerce_Factories_Industrial_Sites,Commerce_Factories_Industrial_Sites_LA_25012_LASIKU12_3200
3.57540856200006,6.66887122400004,3201,6.66887122445674,3.57540856168984,f38f52ca-9386-4992-99b8-f5b171549a0b,LASIKU12,Erikorodo,25012,Ikorodu,LA,Lagos,Commerce_Factories_Industrial_Sites,Commerce_Factories_Industrial_Sites_LA_25012_LASIKU12_3201
3.56867000000005,6.67917833300004,3202,6.679178333,3.56867,df81ed96-e340-42b2-b5f6-a6f3e0337ecd,LASIKU12,Erikorodo,25012,Ikorodu,LA,Lagos,Commerce_Factories_Industrial_Sites,Commerce_Factories_Industrial_Sites_LA_25012_LASIKU12_3202
3.57619131000007,6.65082629200003,3203,6.65082629201126,3.57619131025561,88003859-6fc6-45f6-a935-aaae5c260f26,LASIKU12,Erikorodo,25012,Ikorodu,LA,Lagos,Commerce_Factories_Industrial_Sites,Commerce_Factories_Industrial_Sites_LA_25012_LASIKU12_3203
3.57281500000005,6.66906833300004,3204,6.669068333,3.572815,70a4f692-1136-4ef5-aaa8-88af46b00c06,LASIKU12,Erikorodo,25012,Ikorodu,LA,Lagos,Commerce_Factories_Industrial_Sites,Commerce_Factories_Industrial_Sites_LA_25012_LASIKU12_3204
3.57285848500004,6.66858061800002,3205,6.66858061839145,3.57285848548176,a148f77d-4eef-4945-938e-d9a87efab6d1,LASIKU12,Erikorodo,25012,Ikorodu,LA,Lagos,Commerce_Factories_Industrial_Sites,Commerce_Factories_Industrial_Sites_LA_25012_LASIKU12_3205
3.56658166700004,6.68045833300005,3206,6.680458333,3.566581667,28ed9655-d60f-4dc9-945b-46b4f9b711b9,LASIKU12,Erikorodo,25012,Ikorodu,LA,Lagos,Commerce_Factories_Industrial_Sites,Commerce_Factories_Industrial_Sites_LA_25012_LASIKU12_3206
3.57694666700007,6.65129833300006,3207,6.651298333,3.576946667,2e6dd561-3920-433a-9b8a-bef792c76e3b,LASIKU12,Erikorodo,25012,Ikorodu,LA,Lagos,Commerce_Factories_Industrial_Sites,Commerce_Factories_Industrial_Sites_LA_25012_LASIKU12_3207
3.57747901500005,6.65190822100004,3208,6.65190822088104,3.57747901547059,45bacb3d-02cd-412f-995e-316350c3bb8c,LASIKU12,Erikorodo,25012,Ikorodu,LA,Lagos,Commerce_Factories_Industrial_Sites,Commerce_Factories_Industrial_Sites_LA_25012_LASIKU12_3208
3.57214666700003,6.66073666700004,3209,6.660736667,3.572146667,7324f15e-d3f1-49d9-90d0-c48a31e569f8,LASIKU12,Erikorodo,25012,Ikorodu,LA,Lagos,Commerce_Factories_Industrial_Sites,Commerce_Factories_Industrial_Sites_LA_25012_LASIKU12_3209
3.57271789500004,6.66061826700007,3210,6.66061826652024,3.57271789532406,c82bb1fe-2c3a-4196-84d4-1b6459a77a20,LASIKU12,Erikorodo,25012,Ikorodu,LA,Lagos,Commerce_Factories_Industrial_Sites,Commerce_Factories_Industrial_Sites_LA_25012_LASIKU12_3210
3.57059000000004,6.67137000000002,3211,6.67137,3.57059,2765dd3e-8cc4-4b0c-ab80-61c04ee21c50,LASIKU12,Erikorodo,25012,Ikorodu,LA,Lagos,Commerce_Factories_Industrial_Sites,Commerce_Factories_Industrial_Sites_LA_25012_LASIKU12_3211
3.56140833300003,6.67246500000005,3212,6.672465,3.561408333,defcf5a2-a28c-4c1b-9e14-714f122aadc5,LASIKU12,Erikorodo,25012,Ikorodu,LA,Lagos,Commerce_Factories_Industrial_Sites,Commerce_Factories_Industrial_Sites_LA_25012_LASIKU12_3212
3.55910500000005,6.67376000000007,3213,6.67376,3.559105,4feecca3-c46d-46cd-81f9-21bfeea52f8a,LASIKU12,Erikorodo,25012,Ikorodu,LA,Lagos,Commerce_Factories_Industrial_Sites,Commerce_Factories_Industrial_Sites_LA_25012_LASIKU12_3213
3.57305181800007,6.66786812600003,3214,6.66786812563967,3.57305181831696,bb1137a9-9658-47c1-97cd-60c702ee6c9f,LASIKU12,Erikorodo,25012,Ikorodu,LA,Lagos,Commerce_Factories_Industrial_Sites,Commerce_Factories_Industrial_Sites_LA_25012_LASIKU12_3214
3.57006563300007,6.67148705300002,3215,6.67148705332445,3.57006563255722,583be8dd-b835-4967-b705-ce70a982e585,LASIKU12,Erikorodo,25012,Ikorodu,LA,Lagos,Commerce_Factories_Industrial_Sites,Commerce_Factories_Industrial_Sites_LA_25012_LASIKU12_3215
3.57998000000003,6.65583000000004,3216,6.65583,3.57998,a3b65de8-3af8-4048-bc6c-53790e7fcf73,LASIKU12,Erikorodo,25012,Ikorodu,LA,Lagos,Commerce_Factories_Industrial_Sites,Commerce_Factories_Industrial_Sites_LA_25012_LASIKU12_3216
3.55798166700004,6.67989666700004,3217,6.679896667,3.557981667,ce744968-4baf-4cba-b7d7-f1837dcb288e,LASIKU12,Erikorodo,25012,Ikorodu,LA,Lagos,Commerce_Factories_Industrial_Sites,Commerce_Factories_Industrial_Sites_LA_25012_LASIKU12_3217
3.55868610200002,6.68117306000005,3218,6.6811730602462,3.55868610225134,c859f476-6812-4d93-9ed4-292507120f26,LASIKU12,Erikorodo,25012,Ikorodu,LA,Lagos,Commerce_Factories_Industrial_Sites,Commerce_Factories_Industrial_Sites_LA_25012_LASIKU12_3218
3.48342545700007,6.56363195300003,3219,6.56363195255712,3.48342545702398,a7beba95-0d60-4b75-808f-b81537482311,LASIKU13,Ibeshe,25012,Ikorodu,LA,Lagos,Commerce_Factories_Industrial_Sites,Commerce_Factories_Industrial_Sites_LA_25012_LASIKU13_3219
3.67438833300002,6.65081333300003,3220,6.650813333,3.674388333,dadc1c49-c07e-40d6-a232-85d52cc32012,LASIKU14,Igbokuta/Oke-Agbo/Igbalu,25012,Ikorodu,LA,Lagos,Commerce_Factories_Industrial_Sites,Commerce_Factories_Industrial_Sites_LA_25012_LASIKU14_3220
3.66832694700003,6.67088724400003,3221,6.67088724356027,3.66832694653566,2d79d7e1-372c-4d4e-9316-19724149117e,LASIKU14,Igbokuta/Oke-Agbo/Igbalu,25012,Ikorodu,LA,Lagos,Commerce_Factories_Industrial_Sites,Commerce_Factories_Industrial_Sites_LA_25012_LASIKU14_3221
3.67931163500003,6.65908453100008,3222,6.65908453070428,3.67931163525134,6d3d160d-18e1-4779-b3c5-798bcfb3f2d1,LASIKU14,Igbokuta/Oke-Agbo/Igbalu,25012,Ikorodu,LA,Lagos,Commerce_Factories_Industrial_Sites,Commerce_Factories_Industrial_Sites_LA_25012_LASIKU14_3222
3.68327764400004,6.65882930000004,3223,6.65882930012146,3.68327764352513,120427f1-8bd1-4daf-a3b3-a4bf60d0cc5c,LASIKU14,Igbokuta/Oke-Agbo/Igbalu,25012,Ikorodu,LA,Lagos,Commerce_Factories_Industrial_Sites,Commerce_Factories_Industrial_Sites_LA_25012_LASIKU14_3223
3.68211996100007,6.65942019500005,3224,6.65942019498856,3.6821199611508,d42dc433-6e3b-4a6a-87e5-1e965ca85e74,LASIKU14,Igbokuta/Oke-Agbo/Igbalu,25012,Ikorodu,LA,Lagos,Commerce_Factories_Industrial_Sites,Commerce_Factories_Industrial_Sites_LA_25012_LASIKU14_3224
3.48403155400007,6.57205898500007,3225,6.57205898489995,3.48403155405027,b0fe8d76-1255-4a34-85ab-852a8e91038a,LASIKU15,Ipakodo,25012,Ikorodu,LA,Lagos,Commerce_Factories_Industrial_Sites,Commerce_Factories_Industrial_Sites_LA_25012_LASIKU15_3225
3.48925184800004,6.57659489600007,3226,6.57659489645274,3.48925184816465,da80a9cc-734e-4a9e-8e83-200f980b4ebf,LASIKU15,Ipakodo,25012,Ikorodu,LA,Lagos,Commerce_Factories_Industrial_Sites,Commerce_Factories_Industrial_Sites_LA_25012_LASIKU15_3226
3.48576405700004,6.57290966800002,3227,6.57290966803942,3.48576405683957,c6c0b8da-393c-45b7-a5ec-9a84993f0392,LASIKU15,Ipakodo,25012,Ikorodu,LA,Lagos,Commerce_Factories_Industrial_Sites,Commerce_Factories_Industrial_Sites_LA_25012_LASIKU15_3227
3.48556088900006,6.60297177100006,3228,6.60297177109038,3.48556088947487,7cb63a33-78e1-4e6c-b465-04656413cd75,LASIKU15,Ipakodo,25012,Ikorodu,LA,Lagos,Commerce_Factories_Industrial_Sites,Commerce_Factories_Industrial_Sites_LA_25012_LASIKU15_3228
3.48840957800007,6.58614808900006,3229,6.58614808899385,3.48840957823743,00ea2b57-fc6c-48d8-a35c-10d7e1defd8f,LASIKU15,Ipakodo,25012,Ikorodu,LA,Lagos,Commerce_Factories_Industrial_Sites,Commerce_Factories_Industrial_Sites_LA_25012_LASIKU15_3229
3.60062276800005,6.67775561900004,3230,6.67775561883333,3.60062276825134,5c35733e-f9a1-4e8d-9fa4-5d5e9920e5b0,LASIKU18,Isiu,25012,Ikorodu,LA,Lagos,Commerce_Factories_Industrial_Sites,Commerce_Factories_Industrial_Sites_LA_25012_LASIKU18_3230
3.58481967900002,6.65867124900007,3231,6.65867124871419,3.58481967904599,225cb6f8-bc40-49cd-8963-f722574b3ecd,LASIKU18,Isiu,25012,Ikorodu,LA,Lagos,Commerce_Factories_Industrial_Sites,Commerce_Factories_Industrial_Sites_LA_25012_LASIKU18_3231
3.66907797100004,6.67083352500003,3232,6.67083352539828,3.66907797067069,1eaa9392-5ac6-4d47-b025-3b0c4d3318b3,LASIKU18,Isiu,25012,Ikorodu,LA,Lagos,Commerce_Factories_Industrial_Sites,Commerce_Factories_Industrial_Sites_LA_25012_LASIKU18_3232
3.66886166700004,6.67122333300006,3233,6.671223333,3.668861667,8ce62902-fdf3-4ea4-907d-fd23ecd43aa9,LASIKU18,Isiu,25012,Ikorodu,LA,Lagos,Commerce_Factories_Industrial_Sites,Commerce_Factories_Industrial_Sites_LA_25012_LASIKU18_3233
3.60291278200003,6.67667503000007,3234,6.67667503007464,3.60291278237433,e02e4476-473a-4042-9fda-3ab0e06ff52e,LASIKU18,Isiu,25012,Ikorodu,LA,Lagos,Commerce_Factories_Industrial_Sites,Commerce_Factories_Industrial_Sites_LA_25012_LASIKU18_3234
3.64926338700008,6.67419908500005,3235,6.67419908497609,3.64926338668556,9975f39b-b4a7-4c47-984d-4d254c9f74a4,LASIKU18,Isiu,25012,Ikorodu,LA,Lagos,Commerce_Factories_Industrial_Sites,Commerce_Factories_Industrial_Sites_LA_25012_LASIKU18_3235
3.55202527600005,6.56498112600002,3236,6.56498112599157,3.55202527581283,ffe10693-6f16-4b68-b0fc-13f3d188b0a2,LASIKU19,Itumokun,25012,Ikorodu,LA,Lagos,Commerce_Factories_Industrial_Sites,Commerce_Factories_Industrial_Sites_LA_25012_LASIKU19_3236
3.53922210500002,6.55313574600007,3237,6.55313574633336,3.53922210467594,d166d25c-0db2-482d-8221-6c55374e13f8,LASIKU19,Itumokun,25012,Ikorodu,LA,Lagos,Commerce_Factories_Industrial_Sites,Commerce_Factories_Industrial_Sites_LA_25012_LASIKU19_3237
3.54033101700003,6.55178709600006,3238,6.55178709576048,3.54033101654759,a6f9719e-03b3-495b-b735-28f6243fb906,LASIKU19,Itumokun,25012,Ikorodu,LA,Lagos,Commerce_Factories_Industrial_Sites,Commerce_Factories_Industrial_Sites_LA_25012_LASIKU19_3238
3.53490629600003,6.56378962200006,3239,6.56378962171923,3.53490629613262,bf9c40cf-b311-4de1-8f2b-5bb484de12f4,LASIKU19,Itumokun,25012,Ikorodu,LA,Lagos,Commerce_Factories_Industrial_Sites,Commerce_Factories_Industrial_Sites_LA_25012_LASIKU19_3239
3.53851833300007,6.55782833300003,3240,6.557828333,3.538518333,8303545e-265f-43fa-8aef-9479986a9c2b,LASIKU19,Itumokun,25012,Ikorodu,LA,Lagos,Commerce_Factories_Industrial_Sites,Commerce_Factories_Industrial_Sites_LA_25012_LASIKU19_3240
3.67039941400003,6.63909897300005,3241,6.63909897308269,3.67039941358396,9f370fc3-00a6-40ea-bc07-befebf1a9909,LASIKU21,Maja,25012,Ikorodu,LA,Lagos,Commerce_Factories_Industrial_Sites,Commerce_Factories_Industrial_Sites_LA_25012_LASIKU21_3241
3.65851833300007,6.59040500000003,3242,6.590405,3.658518333,7595bf62-574c-4fc3-abdf-29f0509e4eef,LASIKU21,Maja,25012,Ikorodu,LA,Lagos,Commerce_Factories_Industrial_Sites,Commerce_Factories_Industrial_Sites_LA_25012_LASIKU21_3242
3.65920333300005,6.59213833300004,3243,6.592138333,3.659203333,e9fc548a-18f9-4381-afbf-f62f4605a202,LASIKU21,Maja,25012,Ikorodu,LA,Lagos,Commerce_Factories_Industrial_Sites,Commerce_Factories_Industrial_Sites_LA_25012_LASIKU21_3243
3.67193000000003,6.63520166700005,3244,6.635201667,3.67193,aff18617-25a2-40cd-8663-5c3079bf6e27,LASIKU21,Maja,25012,Ikorodu,LA,Lagos,Commerce_Factories_Industrial_Sites,Commerce_Factories_Industrial_Sites_LA_25012_LASIKU21_3244
3.65658780500007,6.58973721400002,3245,6.58973721442827,3.65658780544216,08bab7b6-bf0b-4a72-87d7-79617487e364,LASIKU21,Maja,25012,Ikorodu,LA,Lagos,Commerce_Factories_Industrial_Sites,Commerce_Factories_Industrial_Sites_LA_25012_LASIKU21_3245
3.52211641500003,6.67025070300002,3246,6.67025070310853,3.52211641481657,8ebd493a-7405-4d10-a7ed-30cd5edbd6d5,LASIKU23,Odogunyan,25012,Ikorodu,LA,Lagos,Commerce_Factories_Industrial_Sites,Commerce_Factories_Industrial_Sites_LA_25012_LASIKU23_3246
3.52894430400005,6.67084994900006,3247,6.67084994939202,3.52894430440642,a12d1f9a-926d-455d-87a8-f859f487520f,LASIKU23,Odogunyan,25012,Ikorodu,LA,Lagos,Commerce_Factories_Industrial_Sites,Commerce_Factories_Industrial_Sites_LA_25012_LASIKU23_3247
3.52082166700006,6.66825000000006,3248,6.66825,3.520821667,e509f355-1765-4010-a6a8-eef1d85a7e54,LASIKU23,Odogunyan,25012,Ikorodu,LA,Lagos,Commerce_Factories_Industrial_Sites,Commerce_Factories_Industrial_Sites_LA_25012_LASIKU23_3248
3.52170343300003,6.67196688200005,3249,6.67196688213702,3.52170343282674,239166bb-0434-41b7-bb2f-8debcb74fdba,LASIKU23,Odogunyan,25012,Ikorodu,LA,Lagos,Commerce_Factories_Industrial_Sites,Commerce_Factories_Industrial_Sites_LA_25012_LASIKU23_3249
3.52769666700004,6.68140000000005,3250,6.6814,3.527696667,5281942c-9968-4b80-8f2e-506c5f8595d7,LASIKU23,Odogunyan,25012,Ikorodu,LA,Lagos,Commerce_Factories_Industrial_Sites,Commerce_Factories_Industrial_Sites_LA_25012_LASIKU23_3250
3.52711262400004,6.67138697800004,3251,6.67138697777308,3.52711262428342,0cd7079d-a7c9-4660-854c-19a3a773ccf3,LASIKU23,Odogunyan,25012,Ikorodu,LA,Lagos,Commerce_Factories_Industrial_Sites,Commerce_Factories_Industrial_Sites_LA_25012_LASIKU23_3251
3.52241833300008,6.67981166700002,3252,6.679811667,3.522418333,dcb62f1b-14bd-4262-ba1a-53ff3642ed32,LASIKU23,Odogunyan,25012,Ikorodu,LA,Lagos,Commerce_Factories_Industrial_Sites,Commerce_Factories_Industrial_Sites_LA_25012_LASIKU23_3252
3.49402710100003,6.67868919600005,3253,6.67868919572096,3.49402710090374,00b741ae-e6d4-4848-af4f-e7c9c62be78d,LASIKU23,Odogunyan,25012,Ikorodu,LA,Lagos,Commerce_Factories_Industrial_Sites,Commerce_Factories_Industrial_Sites_LA_25012_LASIKU23_3253
3.52522333300004,6.68026666700007,3254,6.680266667,3.525223333,55b24e45-270c-4022-95af-9f7628c556dc,LASIKU23,Odogunyan,25012,Ikorodu,LA,Lagos,Commerce_Factories_Industrial_Sites,Commerce_Factories_Industrial_Sites_LA_25012_LASIKU23_3254
3.52336500000007,6.68023833300003,3255,6.680238333,3.523365,1dd3be6d-b07e-4985-80ad-fc68b9499a45,LASIKU23,Odogunyan,25012,Ikorodu,LA,Lagos,Commerce_Factories_Industrial_Sites,Commerce_Factories_Industrial_Sites_LA_25012_LASIKU23_3255
3.52156579400003,6.68044257100007,3256,6.68044257123562,3.52156579442032,fc62695a-2e10-472c-98ea-13cf73644be8,LASIKU23,Odogunyan,25012,Ikorodu,LA,Lagos,Commerce_Factories_Industrial_Sites,Commerce_Factories_Industrial_Sites_LA_25012_LASIKU23_3256
3.52058166700004,6.67988166700007,3257,6.679881667,3.520581667,d65adfe0-700c-4986-9111-31b401597258,LASIKU23,Odogunyan,25012,Ikorodu,LA,Lagos,Commerce_Factories_Industrial_Sites,Commerce_Factories_Industrial_Sites_LA_25012_LASIKU23_3257
3.51994000000008,6.67993333300007,3258,6.679933333,3.51994,a8e212a9-a4ba-48f1-97bb-6695fe3eb83a,LASIKU23,Odogunyan,25012,Ikorodu,LA,Lagos,Commerce_Factories_Industrial_Sites,Commerce_Factories_Industrial_Sites_LA_25012_LASIKU23_3258
3.51326677100008,6.67197271800006,3259,6.67197271824066,3.51326677140535,3ca1ae14-a407-43bc-8914-c80e31a6689c,LASIKU23,Odogunyan,25012,Ikorodu,LA,Lagos,Commerce_Factories_Industrial_Sites,Commerce_Factories_Industrial_Sites_LA_25012_LASIKU23_3259
3.57922456200004,6.59714371400003,3260,6.59714371389786,3.57922456232406,79fb951b-4608-4b69-a034-2ee3ae52c227,LASIKU24,Oke-Eletu/Abule-Eko,25012,Ikorodu,LA,Lagos,Commerce_Factories_Industrial_Sites,Commerce_Factories_Industrial_Sites_LA_25012_LASIKU24_3260
3.58540330000005,6.60703000000007,3261,6.60703,3.5854033,4eef4150-3e30-4157-a4c1-e72ba6036ee9,LASIKU24,Oke-Eletu/Abule-Eko,25012,Ikorodu,LA,Lagos,Commerce_Factories_Industrial_Sites,Commerce_Factories_Industrial_Sites_LA_25012_LASIKU24_3261
3.60581310700007,6.59225183100006,3262,6.5922518310392,3.60581310710053,3fedf001-9ed4-4d9b-8395-52213ebdff68,LASIKU24,Oke-Eletu/Abule-Eko,25012,Ikorodu,LA,Lagos,Commerce_Factories_Industrial_Sites,Commerce_Factories_Industrial_Sites_LA_25012_LASIKU24_3262
3.60103109700003,6.58732559500004,3263,6.58732559534393,3.60103109747914,607e94cd-4d58-4dcf-b884-5b5744c2f5b6,LASIKU24,Oke-Eletu/Abule-Eko,25012,Ikorodu,LA,Lagos,Commerce_Factories_Industrial_Sites,Commerce_Factories_Industrial_Sites_LA_25012_LASIKU24_3263
3.60129893400006,6.58854978900007,3264,6.58854978855099,3.60129893353904,32f45c02-d6a5-4e36-80f0-accc22145217,LASIKU24,Oke-Eletu/Abule-Eko,25012,Ikorodu,LA,Lagos,Commerce_Factories_Industrial_Sites,Commerce_Factories_Industrial_Sites_LA_25012_LASIKU24_3264
3.57796470100004,6.58608521600007,3265,6.58608521632522,3.5779647011648,1ca21cc4-1b48-4d97-bb7d-38153dc61467,LASIKU24,Oke-Eletu/Abule-Eko,25012,Ikorodu,LA,Lagos,Commerce_Factories_Industrial_Sites,Commerce_Factories_Industrial_Sites_LA_25012_LASIKU24_3265
3.60422572200002,6.59134402800004,3266,6.59134402833794,3.60422572203315,bc19a945-89f9-4465-a415-13c66773fcc3,LASIKU24,Oke-Eletu/Abule-Eko,25012,Ikorodu,LA,Lagos,Commerce_Factories_Industrial_Sites,Commerce_Factories_Industrial_Sites_LA_25012_LASIKU24_3266
3.59429257300008,6.58962820100004,3267,6.58962820083707,3.59429257329198,3062685e-5dc1-43a7-b3e0-4abc26872903,LASIKU24,Oke-Eletu/Abule-Eko,25012,Ikorodu,LA,Lagos,Commerce_Factories_Industrial_Sites,Commerce_Factories_Industrial_Sites_LA_25012_LASIKU24_3267
3.58785265200004,6.60184827900002,3268,6.60184827946585,3.58785265152941,895cfe28-e181-4933-b6ea-5e92d609bebe,LASIKU24,Oke-Eletu/Abule-Eko,25012,Ikorodu,LA,Lagos,Commerce_Factories_Industrial_Sites,Commerce_Factories_Industrial_Sites_LA_25012_LASIKU24_3268
3.60005648600003,6.58375542500005,3269,6.58375542509341,3.60005648624171,650b1009-e85e-4796-bdbc-53475cd96eb5,LASIKU24,Oke-Eletu/Abule-Eko,25012,Ikorodu,LA,Lagos,Commerce_Factories_Industrial_Sites,Commerce_Factories_Industrial_Sites_LA_25012_LASIKU24_3269
3.58924255600004,6.60757937500006,3270,6.60757937505318,3.58924255647487,7bed44bc-2b0c-45df-aac3-802ee9ef8b3d,LASIKU24,Oke-Eletu/Abule-Eko,25012,Ikorodu,LA,Lagos,Commerce_Factories_Industrial_Sites,Commerce_Factories_Industrial_Sites_LA_25012_LASIKU24_3270
3.58903681300006,6.60695879600007,3271,6.60695879601039,3.58903681294973,82c9cdbb-d3ee-43dd-b330-406520db5416,LASIKU24,Oke-Eletu/Abule-Eko,25012,Ikorodu,LA,Lagos,Commerce_Factories_Industrial_Sites,Commerce_Factories_Industrial_Sites_LA_25012_LASIKU24_3271
3.58653430400005,6.56698513300006,3272,6.56698513287071,3.58653430440642,1d2576ae-467c-4576-91de-09d9e8112800,LASIKU25,Oke-Oyinbo/ Aiyetoro,25012,Ikorodu,LA,Lagos,Commerce_Factories_Industrial_Sites,Commerce_Factories_Industrial_Sites_LA_25012_LASIKU25_3272
3.58805166700006,6.56728166700003,3273,6.567281667,3.588051667,bf7513fc-9aef-45f9-bf59-f13a38b248c3,LASIKU25,Oke-Oyinbo/ Aiyetoro,25012,Ikorodu,LA,Lagos,Commerce_Factories_Industrial_Sites,Commerce_Factories_Industrial_Sites_LA_25012_LASIKU25_3273
3.47193915900004,6.63991500700007,3274,6.63991500696488,3.4719391594385,a7d00533-d2a1-47cb-96f3-7d68f20a3f1f,LASIKU28,Owutu,25012,Ikorodu,LA,Lagos,Commerce_Factories_Industrial_Sites,Commerce_Factories_Industrial_Sites_LA_25012_LASIKU28_3274
3.48742549100007,6.63986714000004,3275,6.639867139505,3.4874254913615,1cbd06a8-7425-4bf0-a0e3-30a137206f84,LASIKU28,Owutu,25012,Ikorodu,LA,Lagos,Commerce_Factories_Industrial_Sites,Commerce_Factories_Industrial_Sites_LA_25012_LASIKU28_3275
3.48644000000007,6.63681333300002,3276,6.636813333,3.48644,7296b19e-7dc5-41c8-81c9-74a90df0c806,LASIKU28,Owutu,25012,Ikorodu,LA,Lagos,Commerce_Factories_Industrial_Sites,Commerce_Factories_Industrial_Sites_LA_25012_LASIKU28_3276
3.48191864100005,6.61183484300005,3277,6.6118348427309,3.48191864083102,a8268be7-6b91-4cb4-bd36-7edebed35819,LASIKU28,Owutu,25012,Ikorodu,LA,Lagos,Commerce_Factories_Industrial_Sites,Commerce_Factories_Industrial_Sites_LA_25012_LASIKU28_3277
3.52554909300005,6.61370859900006,3278,6.6137085986426,3.52554909262995,d2efbb53-f677-4b6b-a4c3-747dedb2ef31,LASIKU29,Sholafun/Agbele,25012,Ikorodu,LA,Lagos,Commerce_Factories_Industrial_Sites,Commerce_Factories_Industrial_Sites_LA_25012_LASIKU29_3278
3.55718240800007,6.60634526900003,3279,6.6063452685084,3.55718240773476,46d1e177-0d4a-4645-8b54-8ee9098f96d6,LASIKU29,Sholafun/Agbele,25012,Ikorodu,LA,Lagos,Commerce_Factories_Industrial_Sites,Commerce_Factories_Industrial_Sites_LA_25012_LASIKU29_3279
3.55687090400005,6.60540553700002,3280,6.60540553705106,3.55687090359786,54cfc611-068d-4f8a-b9dc-ffb99d6e19db,LASIKU29,Sholafun/Agbele,25012,Ikorodu,LA,Lagos,Commerce_Factories_Industrial_Sites,Commerce_Factories_Industrial_Sites_LA_25012_LASIKU29_3280
3.57129833300007,6.59948500000007,3281,6.599485,3.571298333,96918807-606a-4943-afa4-5135c5af227c,LASIKU29,Sholafun/Agbele,25012,Ikorodu,LA,Lagos,Commerce_Factories_Industrial_Sites,Commerce_Factories_Industrial_Sites_LA_25012_LASIKU29_3281
3.57099226800005,6.60290720500007,3282,6.60290720491634,3.57099226753904,42a6252b-b711-40d6-b2c7-ca9ec348e7d1,LASIKU29,Sholafun/Agbele,25012,Ikorodu,LA,Lagos,Commerce_Factories_Industrial_Sites,Commerce_Factories_Industrial_Sites_LA_25012_LASIKU29_3282
3.57037127800004,6.60200983700003,3283,6.60200983701292,3.57037127823743,9a075337-698d-4b89-b11f-329159c19083,LASIKU29,Sholafun/Agbele,25012,Ikorodu,LA,Lagos,Commerce_Factories_Industrial_Sites,Commerce_Factories_Industrial_Sites_LA_25012_LASIKU29_3283
3.56961753900003,6.60063973000007,3284,6.60063973005534,3.56961753857968,42646a38-21c0-4d38-a7c9-6b1f72e93376,LASIKU29,Sholafun/Agbele,25012,Ikorodu,LA,Lagos,Commerce_Factories_Industrial_Sites,Commerce_Factories_Industrial_Sites_LA_25012_LASIKU29_3284
3.56734487300002,6.59741188300006,3285,6.59741188311142,3.56734487292727,11441935-c242-40b6-9048-0813969972d2,LASIKU29,Sholafun/Agbele,25012,Ikorodu,LA,Lagos,Commerce_Factories_Industrial_Sites,Commerce_Factories_Industrial_Sites_LA_25012_LASIKU29_3285
3.54276276800005,6.61341795800007,3286,6.61341795833574,3.54276276825134,d60a2950-7246-43fc-bd0e-3111af4dd8c3,LASIKU29,Sholafun/Agbele,25012,Ikorodu,LA,Lagos,Commerce_Factories_Industrial_Sites,Commerce_Factories_Industrial_Sites_LA_25012_LASIKU29_3286
3.57464333300004,6.61335731300005,3287,6.61335731301488,3.574643333,c4c3171a-46ba-42b4-a535-dc18fa84981d,LASIKU29,Sholafun/Agbele,25012,Ikorodu,LA,Lagos,Commerce_Factories_Industrial_Sites,Commerce_Factories_Industrial_Sites_LA_25012_LASIKU29_3287
3.53435539600002,6.63155048100003,3288,6.63155048055983,3.5343553958631,5f2e8e0b-8140-4ba0-8b56-eaca22611adf,LASIKU29,Sholafun/Agbele,25012,Ikorodu,LA,Lagos,Commerce_Factories_Industrial_Sites,Commerce_Factories_Industrial_Sites_LA_25012_LASIKU29_3288
3.54441969300007,6.62833704600007,3289,6.62833704649575,3.54441969316898,d8afe335-361d-4ca9-befd-6e7e31a27309,LASIKU29,Sholafun/Agbele,25012,Ikorodu,LA,Lagos,Commerce_Factories_Industrial_Sites,Commerce_Factories_Industrial_Sites_LA_25012_LASIKU29_3289
3.56799074100007,6.61188951700007,3290,6.61188951685476,3.56799074073476,3e89fc90-4cf3-4055-a75c-71399c608948,LASIKU29,Sholafun/Agbele,25012,Ikorodu,LA,Lagos,Commerce_Factories_Industrial_Sites,Commerce_Factories_Industrial_Sites_LA_25012_LASIKU29_3290
3.56661666700006,6.61246833300004,3291,6.612468333,3.566616667,be64a58d-0b33-48d5-8bb3-3c36e0230a5e,LASIKU29,Sholafun/Agbele,25012,Ikorodu,LA,Lagos,Commerce_Factories_Industrial_Sites,Commerce_Factories_Industrial_Sites_LA_25012_LASIKU29_3291
3.52135164500004,6.61189044200006,3292,6.61189044212374,3.52135164462768,1a1c913c-4882-4416-b177-498da2838be5,LASIKU29,Sholafun/Agbele,25012,Ikorodu,LA,Lagos,Commerce_Factories_Industrial_Sites,Commerce_Factories_Industrial_Sites_LA_25012_LASIKU29_3292
3.54506310700003,6.59313156300004,3293,6.59313156306042,3.54506310710053,43b318fa-b7ac-40b2-a4fd-759c39233820,LASIKU29,Sholafun/Agbele,25012,Ikorodu,LA,Lagos,Commerce_Factories_Industrial_Sites,Commerce_Factories_Industrial_Sites_LA_25012_LASIKU29_3293
3.54458417700005,6.59309468100003,3294,6.59309468140301,3.54458417733369,f99159eb-19b8-41a1-b9c2-ff89f7b1869c,LASIKU29,Sholafun/Agbele,25012,Ikorodu,LA,Lagos,Commerce_Factories_Industrial_Sites,Commerce_Factories_Industrial_Sites_LA_25012_LASIKU29_3294
3.52340469300003,6.60940209500006,3295,6.60940209466091,3.52340469316898,910d79f3-e945-4e86-af2b-e18c0d27d9a2,LASIKU29,Sholafun/Agbele,25012,Ikorodu,LA,Lagos,Commerce_Factories_Industrial_Sites,Commerce_Factories_Industrial_Sites_LA_25012_LASIKU29_3295
3.57489000000004,6.60573666700003,3296,6.605736667,3.57489,8b5c349a-774b-439f-a000-45ec7cbb825a,LASIKU29,Sholafun/Agbele,25012,Ikorodu,LA,Lagos,Commerce_Factories_Industrial_Sites,Commerce_Factories_Industrial_Sites_LA_25012_LASIKU29_3296
3.57523797400006,6.61025611700006,3297,6.61025611741423,3.57523797355322,6660f303-4518-4de2-b769-f8434b66c744,LASIKU29,Sholafun/Agbele,25012,Ikorodu,LA,Lagos,Commerce_Factories_Industrial_Sites,Commerce_Factories_Industrial_Sites_LA_25012_LASIKU29_3297
3.57595500000002,6.61169333300006,3298,6.611693333,3.575955,6027ab15-16a0-4677-b257-52697c8955bc,LASIKU29,Sholafun/Agbele,25012,Ikorodu,LA,Lagos,Commerce_Factories_Industrial_Sites,Commerce_Factories_Industrial_Sites_LA_25012_LASIKU29_3298
3.54432341500006,6.59300054100004,3299,6.59300054099262,3.54432341493155,5ccab301-e6ee-4ba0-8ead-1a3036cb79a5,LASIKU29,Sholafun/Agbele,25012,Ikorodu,LA,Lagos,Commerce_Factories_Industrial_Sites,Commerce_Factories_Industrial_Sites_LA_25012_LASIKU29_3299
3.54361833300004,6.59287000000006,3300,6.59287,3.543618333,004d7b39-d3b8-4074-b270-d0fc09a20510,LASIKU29,Sholafun/Agbele,25012,Ikorodu,LA,Lagos,Commerce_Factories_Industrial_Sites,Commerce_Factories_Industrial_Sites_LA_25012_LASIKU29_3300
3.54093500000005,6.59245500000003,3301,6.592455,3.540935,a0df5bb0-2a13-4739-a816-d2b1b0186e9a,LASIKU29,Sholafun/Agbele,25012,Ikorodu,LA,Lagos,Commerce_Factories_Industrial_Sites,Commerce_Factories_Industrial_Sites_LA_25012_LASIKU29_3301
3.53830943500003,6.59232543300004,3302,6.59232543268903,3.53830943525134,3ce26e5c-a0ee-4a06-ac93-5e157878cb96,LASIKU29,Sholafun/Agbele,25012,Ikorodu,LA,Lagos,Commerce_Factories_Industrial_Sites,Commerce_Factories_Industrial_Sites_LA_25012_LASIKU29_3302
3.54102333300006,6.61089500000003,3303,6.610895,3.541023333,d2037fd8-a59b-43b0-a1cf-f95bbc952612,LASIKU29,Sholafun/Agbele,25012,Ikorodu,LA,Lagos,Commerce_Factories_Industrial_Sites,Commerce_Factories_Industrial_Sites_LA_25012_LASIKU29_3303
3.54349348200003,6.60759677500005,3304,6.60759677466545,3.54349348174011,57831ddc-4972-4d06-9964-53fab6377e4e,LASIKU29,Sholafun/Agbele,25012,Ikorodu,LA,Lagos,Commerce_Factories_Industrial_Sites,Commerce_Factories_Industrial_Sites_LA_25012_LASIKU29_3304
3.65054216600004,6.58447235300002,3305,6.58447235251402,3.65054216636577,3bcdd4fd-b0e3-484d-8ff1-bb83912497a8,LASIKU30,Tonabu/Opopo,25012,Ikorodu,LA,Lagos,Commerce_Factories_Industrial_Sites,Commerce_Factories_Industrial_Sites_LA_25012_LASIKU30_3305
3.63524384400006,6.57142002700004,3306,6.5714200271087,3.63524384379465,fc3fe2dc-0ae9-42fa-9401-dcfee0cfbcf6,LASIKU30,Tonabu/Opopo,25012,Ikorodu,LA,Lagos,Commerce_Factories_Industrial_Sites,Commerce_Factories_Industrial_Sites_LA_25012_LASIKU30_3306
3.64955064800006,6.58440953900003,3307,6.58440953924252,3.64955064793155,8f877cbd-17bd-4cda-9b3f-02db58ad388a,LASIKU30,Tonabu/Opopo,25012,Ikorodu,LA,Lagos,Commerce_Factories_Industrial_Sites,Commerce_Factories_Industrial_Sites_LA_25012_LASIKU30_3307
3.65484833300007,6.58897500000006,3308,6.588975,3.654848333,12d7fc0e-3f9b-4c07-ab69-a8f6cf676f55,LASIKU30,Tonabu/Opopo,25012,Ikorodu,LA,Lagos,Commerce_Factories_Industrial_Sites,Commerce_Factories_Industrial_Sites_LA_25012_LASIKU30_3308
3.63009686300006,6.59012295400004,3309,6.59012295379124,3.63009686275263,242f9548-c31c-48c4-89a1-00b7414e9fe9,LASIKU30,Tonabu/Opopo,25012,Ikorodu,LA,Lagos,Commerce_Factories_Industrial_Sites,Commerce_Factories_Industrial_Sites_LA_25012_LASIKU30_3309
3.40863833300006,6.60851500000007,3310,6.608515,3.408638333,36d2f06e-b675-4b71-81f0-0ac60aad5401,LASKSE10,Idera,25013,Kosofe,LA,Lagos,Commerce_Factories_Industrial_Sites,Commerce_Factories_Industrial_Sites_LA_25013_LASKSE10_3310
3.41095867700005,6.61190548500002,3311,6.61190548499979,3.41095867662139,dd24b278-06e3-4718-a868-0117b88e133f,LASKSE10,Idera,25013,Kosofe,LA,Lagos,Commerce_Factories_Industrial_Sites,Commerce_Factories_Industrial_Sites_LA_25013_LASKSE10_3311
3.38359166700008,6.58926833300006,3312,6.589268333,3.383591667,aa9e1a05-d683-4d88-acec-c90f3c3ea01a,LASKSE16,Ojota,25013,Kosofe,LA,Lagos,Commerce_Factories_Industrial_Sites,Commerce_Factories_Industrial_Sites_LA_25013_LASKSE16_3312
3.39707000000004,6.55954833300007,3313,6.559548333,3.39707,aee48cb2-cd69-47c8-be7f-bd7cb0feb54e,LASKSE17,Olubori/Mosafejo,25013,Kosofe,LA,Lagos,Commerce_Factories_Industrial_Sites,Commerce_Factories_Industrial_Sites_LA_25013_LASKSE17_3313
3.45167217200003,6.62172698200004,3314,6.62172698187221,3.45167217248449,56803fbb-836e-4086-9618-0c31908d23f8,LASKSE22,Ikosi Isheri,25013,Kosofe,LA,Lagos,Commerce_Factories_Industrial_Sites,Commerce_Factories_Industrial_Sites_LA_25013_LASKSE22_3314
3.35454921900003,6.55500785300006,3315,6.55500785301888,3.35454921870267,89726736-8a4b-4e14-a52f-70d3430033a7,LASMUN09,Ilupeju Industrial,25014,Mushin,LA,Lagos,Commerce_Factories_Industrial_Sites,Commerce_Factories_Industrial_Sites_LA_25014_LASMUN09_3315
3.35440454800005,6.55412343500007,3316,6.55412343529564,3.35440454820107,09c006ef-a0ff-4907-8238-6e57a726e38b,LASMUN09,Ilupeju Industrial,25014,Mushin,LA,Lagos,Commerce_Factories_Industrial_Sites,Commerce_Factories_Industrial_Sites_LA_25014_LASMUN09_3316
3.35555023000006,6.55544854800007,3317,6.55544854840345,3.35555022967166,d0f3c9e8-976d-441e-b165-7e808dd35e4f,LASMUN09,Ilupeju Industrial,25014,Mushin,LA,Lagos,Commerce_Factories_Industrial_Sites,Commerce_Factories_Industrial_Sites_LA_25014_LASMUN09_3317
3.35385130000003,6.55483660500005,3318,6.55483660514739,3.35385129990481,eec94950-3ebd-4b02-a43a-ec501693c01b,LASMUN09,Ilupeju Industrial,25014,Mushin,LA,Lagos,Commerce_Factories_Industrial_Sites,Commerce_Factories_Industrial_Sites_LA_25014_LASMUN09_3318
3.35587564600007,6.55640959900006,3319,6.5564095992715,3.35587564568021,5d9cecb9-2ebf-4e31-80ba-3fd79f877e8b,LASMUN09,Ilupeju Industrial,25014,Mushin,LA,Lagos,Commerce_Factories_Industrial_Sites,Commerce_Factories_Industrial_Sites_LA_25014_LASMUN09_3319
3.35179389400002,6.54434267700003,3320,6.54434267736399,3.35179389397647,3c42ef34-70ae-4090-a359-2f59cce13bba,LASMUN12,Mushin/Atewolara,25014,Mushin,LA,Lagos,Commerce_Factories_Industrial_Sites,Commerce_Factories_Industrial_Sites_LA_25014_LASMUN12_3320
3.35203780400008,6.53320464900003,3321,6.53320464927549,3.35203780404171,a86e5e65-5f65-4a0a-b4bb-0597c0d62fa9,LASMUN12,Mushin/Atewolara,25014,Mushin,LA,Lagos,Commerce_Factories_Industrial_Sites,Commerce_Factories_Industrial_Sites_LA_25014_LASMUN12_3321
3.35366027100002,6.54581775600008,3322,6.54581775552692,3.35366027104064,f7b64024-581d-4c1c-b40a-409c5bb827bd,LASMUN12,Mushin/Atewolara,25014,Mushin,LA,Lagos,Commerce_Factories_Industrial_Sites,Commerce_Factories_Industrial_Sites_LA_25014_LASMUN12_3322
3.34369500000003,6.54135166700007,3323,6.541351667,3.343695,3a520e59-fe12-4901-90ea-76498b785ba9,LASMUN19,Papa Ajao,25014,Mushin,LA,Lagos,Commerce_Factories_Industrial_Sites,Commerce_Factories_Industrial_Sites_LA_25014_LASMUN19_3323
3.33960666700006,6.54551333300003,3324,6.545513333,3.339606667,79090939-68b2-4e16-8dc0-e6fa4d282fd2,LASMUN19,Papa Ajao,25014,Mushin,LA,Lagos,Commerce_Factories_Industrial_Sites,Commerce_Factories_Industrial_Sites_LA_25014_LASMUN19_3324
3.35005206000005,6.54404858500004,3325,6.5440485846936,3.35005205953476,de0d35bd-435b-4220-8764-de4402dacf1e,LASMUN19,Papa Ajao,25014,Mushin,LA,Lagos,Commerce_Factories_Industrial_Sites,Commerce_Factories_Industrial_Sites_LA_25014_LASMUN19_3325
3.34853166700003,6.54238833300008,3326,6.542388333,3.348531667,b6dd0922-7806-426d-ae8a-5fb86c8a3239,LASMUN19,Papa Ajao,25014,Mushin,LA,Lagos,Commerce_Factories_Industrial_Sites,Commerce_Factories_Industrial_Sites_LA_25014_LASMUN19_3326
3.35364635900004,6.54670848100005,3327,6.54670848142499,3.35364635916898,2a3b230b-6888-486c-89ed-4a7b31f1af15,LASMUN19,Papa Ajao,25014,Mushin,LA,Lagos,Commerce_Factories_Industrial_Sites,Commerce_Factories_Industrial_Sites_LA_25014_LASMUN19_3327
3.16084000000006,6.48899833300004,3328,6.488998333,3.16084,d4314af6-0bb0-4dba-8139-b7263a10ce44,LASOJO01,Ajangbadi,25015,Ojo,LA,Lagos,Commerce_Factories_Industrial_Sites,Commerce_Factories_Industrial_Sites_LA_25015_LASOJO01_3328
3.20739312100005,6.50253904600004,3329,6.50253904555482,3.20739312122353,1d43ae43-f72b-4fa1-87cb-4d84a90fb928,LASOJO04,Iba,25015,Ojo,LA,Lagos,Commerce_Factories_Industrial_Sites,Commerce_Factories_Industrial_Sites_LA_25015_LASOJO04_3329
3.17366323400006,6.49330206900004,3330,6.49330206945634,3.17366323417326,2d62baae-7397-41a0-9836-b2f88c6c9d9f,LASOJO05,Igbo-Elerin,25015,Ojo,LA,Lagos,Commerce_Factories_Industrial_Sites,Commerce_Factories_Industrial_Sites_LA_25015_LASOJO05_3330
3.16273864900006,6.48868914000008,3331,6.48868913958863,3.16273864870214,b2ace237-4008-420e-9e42-97ce031b3f70,LASOJO05,Igbo-Elerin,25015,Ojo,LA,Lagos,Commerce_Factories_Industrial_Sites,Commerce_Factories_Industrial_Sites_LA_25015_LASOJO05_3331
3.15333825700003,6.50167298900004,3332,6.50167298938933,3.15333825675912,f74b2890-35f5-409a-88fa-d77622f4fc80,LASOJO06,Ijanikin,25015,Ojo,LA,Lagos,Commerce_Factories_Industrial_Sites,Commerce_Factories_Industrial_Sites_LA_25015_LASOJO06_3332
3.23018758800004,6.44884654400005,3333,6.44884654410762,3.23018758849305,ec8fc8e1-ef34-4d57-a55d-17496c026b28,LASOJO08,Ira,25015,Ojo,LA,Lagos,Commerce_Factories_Industrial_Sites,Commerce_Factories_Industrial_Sites_LA_25015_LASOJO08_3333
3.22369538900006,6.45909161000003,3334,6.45909160982593,3.22369538876257,11e79061-fd75-49a1-8124-2d3d805c925c,LASOJO08,Ira,25015,Ojo,LA,Lagos,Commerce_Factories_Industrial_Sites,Commerce_Factories_Industrial_Sites_LA_25015_LASOJO08_3334
3.22938373900007,6.46098727600003,3335,6.46098727604038,3.22938373946586,a5048c42-a878-4b90-9fef-0fa282744f52,LASOJO08,Ira,25015,Ojo,LA,Lagos,Commerce_Factories_Industrial_Sites,Commerce_Factories_Industrial_Sites_LA_25015_LASOJO08_3335
3.22727652200007,6.45742367500003,3336,6.45742367537616,3.22727652203209,4fbbb14d-3bf2-4df7-91f6-b0baa02a5499,LASOJO08,Ira,25015,Ojo,LA,Lagos,Commerce_Factories_Industrial_Sites,Commerce_Factories_Industrial_Sites_LA_25015_LASOJO08_3336
3.22398166700003,6.46159500000005,3337,6.461595,3.223981667,c1659cd9-f945-4ee4-b524-c62b7fd38f88,LASOJO08,Ira,25015,Ojo,LA,Lagos,Commerce_Factories_Industrial_Sites,Commerce_Factories_Industrial_Sites_LA_25015_LASOJO08_3337
3.20132272300003,6.45477721700007,3338,6.45477721689954,3.20132272311016,aa072269-9ce2-4f95-8acd-3847a34e6d48,LASOJO11,Ojo Town,25015,Ojo,LA,Lagos,Commerce_Factories_Industrial_Sites,Commerce_Factories_Industrial_Sites_LA_25015_LASOJO11_3338
3.29302097500005,6.56403936300006,3339,6.56403936348345,3.29302097517861,59960e40-d1d0-47c3-a8fa-cfb3d81a3f72,LASOIO02,Aigbaka,25016,Oshodi/Isolo,LA,Lagos,Commerce_Factories_Industrial_Sites,Commerce_Factories_Industrial_Sites_LA_25016_LASOIO02_3339
3.32837131000002,6.54590017900006,3340,6.54590017918203,3.32837131025562,40367732-170e-4c38-bdf5-2e47c0331e9a,LASOIO04,Ajao Estate,25016,Oshodi/Isolo,LA,Lagos,Commerce_Factories_Industrial_Sites,Commerce_Factories_Industrial_Sites_LA_25016_LASOIO04_3340
3.33424321600006,6.54096391400003,3341,6.54096391405313,3.33424321627807,9c640292-2cff-43f7-bc3a-810edcff2a81,LASOIO04,Ajao Estate,25016,Oshodi/Isolo,LA,Lagos,Commerce_Factories_Industrial_Sites,Commerce_Factories_Industrial_Sites_LA_25016_LASOIO04_3341
3.32255063300005,6.55032188100006,3342,6.55032188136845,3.32255063255722,8a502b8b-5f56-43da-b059-176902b81bac,LASOIO04,Ajao Estate,25016,Oshodi/Isolo,LA,Lagos,Commerce_Factories_Industrial_Sites,Commerce_Factories_Industrial_Sites_LA_25016_LASOIO04_3342
3.32323471100005,6.54285774000004,3343,6.54285773961824,3.32323471106417,b2cd6a01-e032-4d5d-8581-260b120762bf,LASOIO04,Ajao Estate,25016,Oshodi/Isolo,LA,Lagos,Commerce_Factories_Industrial_Sites,Commerce_Factories_Industrial_Sites_LA_25016_LASOIO04_3343
3.33665715800004,6.54214603500003,3344,6.54214603520426,3.3366571583615,c74b1a10-dc66-4d19-8657-a1ee23337e7b,LASOIO04,Ajao Estate,25016,Oshodi/Isolo,LA,Lagos,Commerce_Factories_Industrial_Sites,Commerce_Factories_Industrial_Sites_LA_25016_LASOIO04_3344
3.33346637300002,6.54491496100007,3345,6.54491496088896,3.33346637329198,effac49b-6e57-467f-bada-fc56ebe20812,LASOIO04,Ajao Estate,25016,Oshodi/Isolo,LA,Lagos,Commerce_Factories_Industrial_Sites,Commerce_Factories_Industrial_Sites_LA_25016_LASOIO04_3345
3.32720969700006,6.54209529000002,3346,6.54209529022581,3.32720969694118,98d8e525-2ded-4ea8-8ce0-7b2cce99189e,LASOIO04,Ajao Estate,25016,Oshodi/Isolo,LA,Lagos,Commerce_Factories_Industrial_Sites,Commerce_Factories_Industrial_Sites_LA_25016_LASOIO04_3346
3.31640204200005,6.52030100600007,3347,6.52030100613413,3.31640204163957,8d9b06f2-ea9a-4d24-a59b-e01837a07c43,LASOIO07,Apena,25016,Oshodi/Isolo,LA,Lagos,Commerce_Factories_Industrial_Sites,Commerce_Factories_Industrial_Sites_LA_25016_LASOIO07_3347
3.29782025600002,6.49458546200003,3348,6.49458546186242,3.2978202564374,4ab14062-7d5f-4141-94dc-65cf186d0285,LASOIO07,Apena,25016,Oshodi/Isolo,LA,Lagos,Commerce_Factories_Industrial_Sites,Commerce_Factories_Industrial_Sites_LA_25016_LASOIO07_3348
3.30630382100003,6.54197812000007,3349,6.54197811980865,3.30630382058931,c71d7f43-26ee-4dfe-8269-838cd21f2c69,LASOIO09,Fadu,25016,Oshodi/Isolo,LA,Lagos,Commerce_Factories_Industrial_Sites,Commerce_Factories_Industrial_Sites_LA_25016_LASOIO09_3349
3.33339736300007,6.52618510300005,3350,6.52618510285964,3.33339736259358,8d2a0c0f-1612-4898-9574-c54f57338a79,LASOIO13,Ilasamaja,25016,Oshodi/Isolo,LA,Lagos,Commerce_Factories_Industrial_Sites,Commerce_Factories_Industrial_Sites_LA_25016_LASOIO13_3350
3.33152857300007,6.52715337900003,3351,6.52715337909548,3.33152857302246,d537ac90-a73d-40d1-965a-5ce0c3cea9e6,LASOIO13,Ilasamaja,25016,Oshodi/Isolo,LA,Lagos,Commerce_Factories_Industrial_Sites,Commerce_Factories_Industrial_Sites_LA_25016_LASOIO13_3351
3.33191801000004,6.51498419800004,3352,6.51498419843405,3.33191800989091,4297e649-9697-45a3-8c83-f592fa39a0d3,LASOIO13,Ilasamaja,25016,Oshodi/Isolo,LA,Lagos,Commerce_Factories_Industrial_Sites,Commerce_Factories_Industrial_Sites_LA_25016_LASOIO13_3352
3.33025123300007,6.52793785500006,3353,6.52793785471024,3.33025123309626,3d14ea87-e40d-4109-a729-0c8a369a412d,LASOIO14,Ishaga/Ire-Akari,25016,Oshodi/Isolo,LA,Lagos,Commerce_Factories_Industrial_Sites,Commerce_Factories_Industrial_Sites_LA_25016_LASOIO14_3353
3.33007967900005,6.52697704600007,3354,6.52697704564679,3.33007967904599,c352e0b1-60ce-42b8-945f-c85f46965ec8,LASOIO14,Ishaga/Ire-Akari,25016,Oshodi/Isolo,LA,Lagos,Commerce_Factories_Industrial_Sites,Commerce_Factories_Industrial_Sites_LA_25016_LASOIO14_3354
3.33052333300003,6.52924000000007,3355,6.52924,3.330523333,c0e012cd-aa05-4bac-99bc-fef6c64e9054,LASOIO14,Ishaga/Ire-Akari,25016,Oshodi/Isolo,LA,Lagos,Commerce_Factories_Industrial_Sites,Commerce_Factories_Industrial_Sites_LA_25016_LASOIO14_3355
3.33021509900004,6.52841188100007,3356,6.52841188123365,3.33021509882674,4cffc7de-9205-43a9-ace9-7770848607ff,LASOIO14,Ishaga/Ire-Akari,25016,Oshodi/Isolo,LA,Lagos,Commerce_Factories_Industrial_Sites,Commerce_Factories_Industrial_Sites_LA_25016_LASOIO14_3356
3.32553887600005,6.55516009100006,3357,6.55516009076071,3.32553887608128,cf37cf26-5266-4e93-ac94-09f899e9448a,LASOIO15,Mafoluku,25016,Oshodi/Isolo,LA,Lagos,Commerce_Factories_Industrial_Sites,Commerce_Factories_Industrial_Sites_LA_25016_LASOIO15_3357
3.29820010000003,6.49419930000005,3358,6.4941993,3.2982001,d8aa931c-6f0d-4e8b-884e-3c9ed591a24f,LASOIO18,Okota,25016,Oshodi/Isolo,LA,Lagos,Commerce_Factories_Industrial_Sites,Commerce_Factories_Industrial_Sites_LA_25016_LASOIO18_3358
3.31479170000006,6.50226207300005,3359,6.50226207284557,3.31479170026952,a90f3d85-8bcc-4b0a-8ceb-3b4bd00ab1fb,LASOIO18,Okota,25016,Oshodi/Isolo,LA,Lagos,Commerce_Factories_Industrial_Sites,Commerce_Factories_Industrial_Sites_LA_25016_LASOIO18_3359
3.36505166700005,6.51658500000002,3360,6.516585,3.365051667,acbc966b-760b-4078-a270-f159472ca14e,LASSUE04,Akinhanmi Cole,25018,Surulere,LA,Lagos,Commerce_Factories_Industrial_Sites,Commerce_Factories_Industrial_Sites_LA_25018_LASSUE04_3360
3.32804850500003,6.47874737900003,3361,6.47874737934159,3.3280485052139,7223d20d-454f-4c1d-832f-3d9e582e0c4b,LASSUE09,Coker,25018,Surulere,LA,Lagos,Commerce_Factories_Industrial_Sites,Commerce_Factories_Industrial_Sites_LA_25018_LASSUE09_3361
3.32535753000008,6.46843609300004,3362,6.46843609267294,3.32535752981365,107c6e4d-d2da-44f4-867c-38f290fa8fe1,LASSUE09,Coker,25018,Surulere,LA,Lagos,Commerce_Factories_Industrial_Sites,Commerce_Factories_Industrial_Sites_LA_25018_LASSUE09_3362
3.31808682500002,6.46357523800003,3363,6.46357523822556,3.31808682509091,291c1f27-1e93-4369-95f1-4d9763687aa6,LASSUE09,Coker,25018,Surulere,LA,Lagos,Commerce_Factories_Industrial_Sites,Commerce_Factories_Industrial_Sites_LA_25018_LASSUE09_3363
3.32457012100002,6.46794009400003,3364,6.4679400937582,3.32457012149412,bc2ae493-e12d-43eb-9034-2c5c7ae1ccb6,LASSUE09,Coker,25018,Surulere,LA,Lagos,Commerce_Factories_Industrial_Sites,Commerce_Factories_Industrial_Sites_LA_25018_LASSUE09_3364
3.32532183400002,6.47098565900006,3365,6.47098565867395,3.32532183444171,391fbf41-a0ae-48d8-9edd-a04d3155931d,LASSUE09,Coker,25018,Surulere,LA,Lagos,Commerce_Factories_Industrial_Sites,Commerce_Factories_Industrial_Sites_LA_25018_LASSUE09_3365
3.35679904600005,6.48405073800006,3366,6.48405073821041,3.35679904648877,e4d031a7-5643-4d85-a1cf-f941d611e335,LASSUE11,Iponri / Eric Moore,25018,Surulere,LA,Lagos,Commerce_Factories_Industrial_Sites,Commerce_Factories_Industrial_Sites_LA_25018_LASSUE11_3366
3.35535444900006,6.48009985500005,3367,6.48009985544665,3.35535444937433,df5f3462-3833-4837-a94b-532a23e95858,LASSUE11,Iponri / Eric Moore,25018,Surulere,LA,Lagos,Commerce_Factories_Industrial_Sites,Commerce_Factories_Industrial_Sites_LA_25018_LASSUE11_3367
3.36304250700005,6.48137585700005,3368,6.481375856684,3.3630425065615,4d4d2dfb-e5d8-43c3-9d33-ac76c9b136d6,LASSUE11,Iponri / Eric Moore,25018,Surulere,LA,Lagos,Commerce_Factories_Industrial_Sites,Commerce_Factories_Industrial_Sites_LA_25018_LASSUE11_3368
3.35482809400003,6.48651464400007,3369,6.48651464382642,3.35482809397754,2d56cd80-b38b-44e1-8e3b-8c879c17c349,LASSUE11,Iponri / Eric Moore,25018,Surulere,LA,Lagos,Commerce_Factories_Industrial_Sites,Commerce_Factories_Industrial_Sites_LA_25018_LASSUE11_3369
3.35597362700003,6.48525785700002,3370,6.48525785735853,3.35597362670802,218938c0-12c5-4954-b648-bb605c2977f8,LASSUE11,Iponri / Eric Moore,25018,Surulere,LA,Lagos,Commerce_Factories_Industrial_Sites,Commerce_Factories_Industrial_Sites_LA_25018_LASSUE11_3370
3.35692348200007,6.48225142900003,3371,6.48225142887096,3.35692348174011,c1e441f9-87cc-4f17-b4f2-f47bdb8ab40a,LASSUE11,Iponri / Eric Moore,25018,Surulere,LA,Lagos,Commerce_Factories_Industrial_Sites,Commerce_Factories_Industrial_Sites_LA_25018_LASSUE11_3371
3.35488729900004,6.48050616700004,3372,6.48050616718991,3.35488729855722,c44a2dd7-389c-4cc0-87b1-4edf23bc74de,LASSUE11,Iponri / Eric Moore,25018,Surulere,LA,Lagos,Commerce_Factories_Industrial_Sites,Commerce_Factories_Industrial_Sites_LA_25018_LASSUE11_3372
3.37267339700003,6.51702305300006,3373,6.51702305252571,3.37267339703636,26c7a67c-bff4-4ada-8eb0-b86ae1d8f9ad,LASLMD10,Harvey,25019,Lagos Mainland,LA,Lagos,Commerce_Factories_Industrial_Sites,Commerce_Factories_Industrial_Sites_LA_25019_LASLMD10_3373
3.38268427400004,6.50475037600006,3374,6.50475037581661,3.38268427437005,26cd3b15-a1e4-46f5-8f2c-7633db6da112,LASLMD15,Onike/Oyadiran,25019,Lagos Mainland,LA,Lagos,Commerce_Factories_Industrial_Sites,Commerce_Factories_Industrial_Sites_LA_25019_LASLMD15_3374
